,Name,Category,Latitude,Longitude,address,Province,City,District / County
0,Hefei South Railway Station (合肥南站),Train Station,31.800676930863734,117.28450334720159,包河区京台高速北侧,Anhui,Hefei,Yaohai
1,Hefei South Railway Station (合肥南站),Train Station,31.800676930863734,117.28450334720159,包河区京台高速北侧,Anhui,Hefei,Baohe
2,Hefei South Railway Station (合肥南站),Train Station,31.800676930863734,117.28450334720159,包河区京台高速北侧,Anhui,Hefei,Luyang
3,Hefei South Railway Station (合肥南站),Train Station,31.800676930863734,117.28450334720159,包河区京台高速北侧,Anhui,Hefei,Shushan
4,Dongsi Subway Station (地铁东四站),Metro Station,39.922931158416326,116.41165852546692,Chaoyangmen Inner St,Beijing,Beijing,Dongcheng
5,National Art Museum of China (中国美术馆),Art Museum,39.923377884619505,116.40265458286883,1 Wusi Ave,Beijing,Beijing,Dongcheng
6,Temple Restaurant Beijing,French Restaurant,39.9265275764491,116.39720388581632,23 Shatan N St,Beijing,Beijing,Dongcheng
7,Siji Minfu Roast Duck (四季民福 Siji Minfu Roast Duck),Chinese Restaurant,39.916945001926365,116.4025068283081,32 Dengshikou W St,Beijing,Beijing,Dongcheng
8,东堂 St. Joseph's Cathedral (East Church),Church,39.915965042661135,116.4051497190644,74 Wangfujing Ave.,Beijing,Beijing,Dongcheng
9,The Peninsula Beijing (王府半岛酒店),Hotel,39.91416688489904,116.41019181892923,"8 Goldfish Lane, Wangfujing",Beijing,Beijing,Dongcheng
10,Waldorf Astoria Beijing,Hotel,39.9145339347225,116.40772104263306,5-15 Jinyu Hutong,Beijing,Beijing,Dongcheng
11,Dadong Roast Duck Restaurant (大董烤鸭店),Peking Duck Restaurant,39.931008497717926,116.42567668287623,22A Dongsishitiao,Beijing,Beijing,Dongcheng
12,Crowne Plaza Beijing Wangfujing,Hotel,39.91756818735054,116.40522200105953,48 Wangfujing Ave,Beijing,Beijing,Dongcheng
13,Hua's Restaurant (花家怡园),Chinese Restaurant,39.94002052854349,116.41278479962595,235 Dongzhimen Inner St,Beijing,Beijing,Dongcheng
14,Apple Wangfujing (Apple 王府井),Electronics Store,39.91394967016644,116.4052963256836,138 Wangfujing St | 王府井大街138号,Beijing,Beijing,Dongcheng
15,Regent Beijing (北京丽晶酒店),Hotel,39.914873193875884,116.41298288045519,99 Jinbao St,Beijing,Beijing,Dongcheng
16,Dadong Roast Duck Restaurant (大董烤鸭店),Peking Duck Restaurant,39.91409044595065,116.4150309179308,88 Jinbao St,Beijing,Beijing,Dongcheng
17,Hilton Beijing Wangfujing (北京王府井希尔顿酒店),Hotel,39.91282930105268,116.4072672612987,8 Wangfujing E St,Beijing,Beijing,Dongcheng
18,Zarah Café,Café,39.93938938524772,116.39995713841657,46 Gulou Dongdajie 鼓楼东大街46号,Beijing,Beijing,Dongcheng
19,Jingshan Park (景山公园),Park,39.92353591625474,116.39057636260986,44 Jingshan W St,Beijing,Beijing,Dongcheng
20,Novotel Beijing Peace (北京诺富特和平宾馆),Hotel,39.91417851891671,116.40920819409575,"3 Jinyu Hutong, Wangfujing",Beijing,Beijing,Dongcheng
21,Wanchun Pavilion (万春亭),Historic Site,39.923488838611725,116.39042011936871,44 Jingshan W St,Beijing,Beijing,Dongcheng
22,Starbucks (星巴克),Coffee Shop,39.922562694945,116.42656254969349,#2 Chaoyangmen Inner Street,Beijing,Beijing,Dongcheng
23,Prime Hotel 华侨大厦,Hotel,39.922164763534724,116.40471305747629,2 Wangfujing Ave.,Beijing,Beijing,Dongcheng
24,Great Leap Brewing (Great Leap Brewing 大跃啤酒),Brewery,39.93593690654814,116.39308082174908,6 Doujiao Hutong,Beijing,Beijing,Dongcheng
25,北京丽亭酒店 Park Plaza Beijing Wangfujing,Hotel,39.91672,116.41949,"97 Jinbao Street, Dongcheng District",Beijing,Beijing,Dongcheng
26,Gate of Divine Might (神武门 Gate of Divine Might),Historic Site,39.921316157985224,116.39056771749101,4 Jingshan Front St,Beijing,Beijing,Dongcheng
27,Nanluogu Alley (南锣鼓巷),Pedestrian Plaza,39.934778897719355,116.39689653926962,Near Drum Tower,Beijing,Beijing,Dongcheng
28,Imperial Garden (御花园),Garden,39.92006113053615,116.39067176308858,4 Jingshan Front St,Beijing,Beijing,Dongcheng
29,Palace of Heavenly Purity (乾清宫),Historic Site,39.91849073015163,116.39063683482365,4 Jingshan Front St,Beijing,Beijing,Dongcheng
30,Forbidden City (Palace Museum) (故宫（博物院）),History Museum,39.91770204306014,116.39066219329834,4 Jingshan Front St,Beijing,Beijing,Dongcheng
31,Palace of Earthly Tranquility (坤宁宫),Historic Site,39.91911130032792,116.39065962816352,4 Jingshan Front St,Beijing,Beijing,Dongcheng
32,Huda Restaurant (胡大饭馆),Chinese Restaurant,39.93971757333283,116.41305412702347,233 Dongzhimen Inner Ave,Beijing,Beijing,Dongcheng
33,Beijing apm (新东安市场),Shopping Mall,39.91273969247117,116.40559137844845,138 Wangfujing Ave,Beijing,Beijing,Dongcheng
34,Hall of Preserving Harmony (保和殿),Historic Site,39.91679870678914,116.39080883242923,4 Jingshan Front St,Beijing,Beijing,Dongcheng
35,Hall of Central Harmony (中和殿),Historic Site,39.91630354654006,116.39074709206193,4 Jingshan Front St,Beijing,Beijing,Dongcheng
36,Confucius Temple (北京孔庙),Historic Site,39.9444580195364,116.40838366853306,13 Guozijian St,Beijing,Beijing,Dongcheng
37,Gate of Heavenly Purity (乾清门),Historic Site,39.917988592418176,116.3906263074563,4 Jingshan Front St,Beijing,Beijing,Dongcheng
38,Hall of Supreme Harmony (太和殿),Historic Site,39.915466461530265,116.39086168289484,4 Jingshan Front St,Beijing,Beijing,Dongcheng
39,Wangfujing Shopping Street (Wangfujing Shopping Street 王府井步行街),Shopping Plaza,39.91216854133877,116.40499464869005,Wangfujing,Beijing,Beijing,Dongcheng
40,Drum Tower (鼓楼),Monument / Landmark,39.940723,116.396205,9 Zhonglouwan Linzi,Beijing,Beijing,Dongcheng
41,Poly Theatre (保利剧院 Poly Theatre),Concert Hall,39.93357917149298,116.43037006868528,14 Dongzhimen S. Ave.,Beijing,Beijing,Dongcheng
42,Grand Hyatt Beijing (北京东方君悦大酒店),Hotel,39.90805986614843,116.40834908694298,1 E Chang'an Ave,Beijing,Beijing,Dongcheng
43,Bell Tower (钟楼),Monument / Landmark,39.942451,116.395978,9 Zhonglouwan Linzi,Beijing,Beijing,Dongcheng
44,Raffles City (来福士中心),Shopping Mall,39.93877806059291,116.42619073390959,1 Dongzhimen S Ave,Beijing,Beijing,Dongcheng
45,Wangfujing Food Alley (王府井小吃街 Wangfujing Food Alley),Street Food Gathering,39.90983458333595,116.40452202642197,Wangfujing Ave,Beijing,Beijing,Dongcheng
46,全聚德 Quanjude Peking Duck (全聚德),Peking Duck Restaurant,39.910726235331616,116.40564468406113,9 Shuaifuyuan Hutong,Beijing,Beijing,Dongcheng
47,Oriental Plaza (东方广场),Building,39.90841557412842,116.40745384427815,1 E Chang'an Ave,Beijing,Beijing,Dongcheng
48,Nanluoguxiang Metro Station (地铁南锣鼓巷站),Metro Station,39.932313399226146,116.39769058674574,Di'anmen E Ave,Beijing,Beijing,Dongcheng
49,Dadong Roast Duck Restaurant (大董烤鸭店),Peking Duck Restaurant,39.9089677351135,116.40461424547517,301 Wangfujing Ave,Beijing,Beijing,Dongcheng
50,Beijing (北京),City,39.922972415131525,116.42400250286477,,Beijing,Beijing,Dongcheng
51,Dengshikou Metro Station (地铁灯市口站),Metro Station,39.91559547306282,116.41216278076172,Jinbao St.,Beijing,Beijing,Dongcheng
52,Made In China (长安壹号),Chinese Restaurant,39.90892215318206,116.40870066620656,1A E Chang'an Ave,Beijing,Beijing,Dongcheng
53,Yonghegong Lama Temple (雍和宫),Buddhist Temple,39.945910354882905,116.41088505680857,Yonghegong Ave,Beijing,Beijing,Dongcheng
54,Shichahai Park (什刹海公园 Shichahai Park),Park,39.93244621864724,116.3857913017273,West Bank of Qianhai,Beijing,Beijing,Dongcheng
55,Gate of Supreme Harmony (太和门),Historic Site,39.91371929434656,116.39088043068145,4 Jingshan Front St,Beijing,Beijing,Dongcheng
56,Beihai Park (北海公园),Park,39.92207949928855,116.38331069153004,1 Wenjin St,Beijing,Beijing,Dongcheng
57,U-Town Mall (悠唐广场),Shopping Mall,39.92061170006202,116.43416859820137,Bldg 2 Sanfeng Beili,Beijing,Beijing,Dongcheng
58,Houhai Lake (后海),Lake,39.93722369992521,116.38734560225828,Houhai,Beijing,Beijing,Dongcheng
59,Meridian Gate (午门),Historic Site,39.91133514459632,116.39099425540887,4 Jingshan Front St,Beijing,Beijing,Dongcheng
60,Sir Teen,Nightclub,39.92830466923337,116.43842373132985,,Beijing,Beijing,Dongcheng
61,Jingzun Peking Duck Restaurant (京尊烤鸭),Peking Duck Restaurant,39.93586598597585,116.4377117602467,"6 Taipingzhuang Nanli, Chunxiu Rd",Beijing,Beijing,Dongcheng
62,端门,Historic Site,39.90869438551294,116.3911917488673,北京市东城区,Beijing,Beijing,Dongcheng
63,Bodhi Therapeutic Retreat (菩提),Massage Studio,39.933876,116.441188,17 Gongrentiyuchang N Rd,Beijing,Beijing,Dongcheng
64,Holiday Inn Express Beijing Dongzhimen (北京东直门智选假日酒店),Hotel,39.935436628047874,116.437246799469,1 Chunxiu Rd,Beijing,Beijing,Dongcheng
65,Zhongshan Park (Zhongshan Park 中山公园),Park,39.908765132544616,116.38860225677489,West Chang'an St,Beijing,Beijing,Dongcheng
66,Ritan Park (日坛公园),Park,39.91449278949437,116.4380943775177,6 Ritan N Rd,Beijing,Beijing,Dongcheng
67,Tian'anmen Tower (天安门城楼),Historic Site,39.90656228127186,116.39158218479662,天安门附近,Beijing,Beijing,Dongcheng
68,Din Tai Fung (鼎泰丰),Dumpling Restaurant,39.91787397017969,116.44316738142668,9 Dongdaqiao Rd,Beijing,Beijing,Dongcheng
69,Parkview Green (侨福芳草地),Shopping Mall,39.918192722620375,116.44327967450147,9 Dongdaqiao Rd,Beijing,Beijing,Dongcheng
70,Din Tai Fung (鼎泰丰),Dumpling Restaurant,39.94513119136509,116.43877772141599,24 Xinyuan Xili M St,Beijing,Beijing,Dongcheng
71,InterContinental Beijing Sanlitun (北京三里屯通盈中心洲际酒店),Hotel,39.93140938840894,116.4490999747531,1 S Sanlitun Rd,Beijing,Beijing,Dongcheng
72,New World Beijing Hotel (北京新世界酒店),Hotel,39.897296488684425,116.40592320111824,8 Qinian Street,Beijing,Beijing,Dongcheng
73,The Opposite House (瑜舍),Hotel,39.93623854878213,116.44864160393983,"Bldg 1, 11 Sanlitun Rd",Beijing,Beijing,Dongcheng
74,Apple Xidan Joy City (Apple 西单大悦城),Electronics Store,39.909209536859834,116.36731624603271,"西单北大街131号, 大悦城, 西城区",Beijing,Beijing,Xicheng
75,The Westin Beijing Financial Street (北京金融街威斯汀大酒店),Hotel,39.915670300499386,116.35351315916103,"9C Financial Street, XiCheng District",Beijing,Beijing,Xicheng
76,Galeries Lafayette 老佛爷百货,Department Store,39.91272435422194,116.36762153023346,110 N Xidan St,Beijing,Beijing,Xicheng
77,Joy City (大悦城),Shopping Mall,39.90943264579762,116.36745859440644,131 Xidan N Ave,Beijing,Beijing,Xicheng
78,Capital Museum (首都博物馆),History Museum,39.90547500363378,116.33618364556303,16 Fuxingmen Outer St,Beijing,Beijing,Xicheng
79,Xidan Metro Station (地铁西单站),Metro Station,39.90666929267448,116.36799470073176,Xidan N St,Beijing,Beijing,Xicheng
80,National Centre for the Performing Arts (国家大剧院),Performing Arts Venue,39.903935870562655,116.38354141408601,2 W. Chang'an Ave.,Beijing,Beijing,Xicheng
81,Beihai Park (北海公园),Park,39.92207949928855,116.38331069153004,1 Wenjin St,Beijing,Beijing,Xicheng
82,Zhongshan Park (Zhongshan Park 中山公园),Park,39.908765132544616,116.38860225677489,West Chang'an St,Beijing,Beijing,Xicheng
83,Great Hall of the People (人民大会堂),Capitol Building,39.9034155951341,116.3874864578247,Guangchang West Side Rd,Beijing,Beijing,Xicheng
84,Gate of Supreme Harmony (太和门),Historic Site,39.91371929434656,116.39088043068145,4 Jingshan Front St,Beijing,Beijing,Xicheng
85,Hall of Supreme Harmony (太和殿),Historic Site,39.915466461530265,116.39086168289484,4 Jingshan Front St,Beijing,Beijing,Xicheng
86,Hall of Central Harmony (中和殿),Historic Site,39.91630354654006,116.39074709206193,4 Jingshan Front St,Beijing,Beijing,Xicheng
87,Forbidden City (Palace Museum) (故宫（博物院）),History Museum,39.91770204306014,116.39066219329834,4 Jingshan Front St,Beijing,Beijing,Xicheng
88,Hall of Preserving Harmony (保和殿),Historic Site,39.91679870678914,116.39080883242923,4 Jingshan Front St,Beijing,Beijing,Xicheng
89,Palace of Heavenly Purity (乾清宫),Historic Site,39.91849073015163,116.39063683482365,4 Jingshan Front St,Beijing,Beijing,Xicheng
90,端门,Historic Site,39.90869438551294,116.3911917488673,北京市东城区,Beijing,Beijing,Xicheng
91,Tian'anmen Tower (天安门城楼),Historic Site,39.90656228127186,116.39158218479662,天安门附近,Beijing,Beijing,Xicheng
92,Meridian Gate (午门),Historic Site,39.91133514459632,116.39099425540887,4 Jingshan Front St,Beijing,Beijing,Xicheng
93,Gate of Divine Might (神武门 Gate of Divine Might),Historic Site,39.921316157985224,116.39056771749101,4 Jingshan Front St,Beijing,Beijing,Xicheng
94,Wanchun Pavilion (万春亭),Historic Site,39.923488838611725,116.39042011936871,44 Jingshan W St,Beijing,Beijing,Xicheng
95,Jingshan Park (景山公园),Park,39.92353591625474,116.39057636260986,44 Jingshan W St,Beijing,Beijing,Xicheng
96,Gate of Heavenly Purity (乾清门),Historic Site,39.917988592418176,116.3906263074563,4 Jingshan Front St,Beijing,Beijing,Xicheng
97,Imperial Garden (御花园),Garden,39.92006113053615,116.39067176308858,4 Jingshan Front St,Beijing,Beijing,Xicheng
98,Palace of Earthly Tranquility (坤宁宫),Historic Site,39.91911130032792,116.39065962816352,4 Jingshan Front St,Beijing,Beijing,Xicheng
99,Monument to the People's Heroes (人民英雄纪念碑),Monument / Landmark,39.90316045291408,116.3914132118225,Tian'anmen Square,Beijing,Beijing,Xicheng
100,Tian'anmen Square (天安门广场),Plaza,39.90484766609122,116.39130592346193,Chang'an Ave,Beijing,Beijing,Xicheng
101,Shichahai Park (什刹海公园 Shichahai Park),Park,39.93244621864724,116.3857913017273,West Bank of Qianhai,Beijing,Beijing,Xicheng
102,Starbucks (星巴克),Coffee Shop,39.89683198039926,116.39173830845957,1-2 Qianmen Ave,Beijing,Beijing,Xicheng
103,Temple Restaurant Beijing,French Restaurant,39.9265275764491,116.39720388581632,23 Shatan N St,Beijing,Beijing,Xicheng
104,恭王府 Prince Gong's Mansion,Historic Site,39.934455730430116,116.38038245630929,17 Qianhai W St,Beijing,Beijing,Xicheng
105,Chairman Mao's Mausoleum (毛主席纪念堂),Monument / Landmark,39.90114397291038,116.39160633087158,11 Qianmen E Ave,Beijing,Beijing,Xicheng
106,National Museum of China (中国国家博物馆),History Museum,39.903727,116.395236,16 E Chang'an Ave,Beijing,Beijing,Xicheng
107,Siji Minfu Roast Duck (四季民福 Siji Minfu Roast Duck),Chinese Restaurant,39.916945001926365,116.4025068283081,32 Dengshikou W St,Beijing,Beijing,Xicheng
108,DoubleTree by Hilton Hotel Beijing (北京希尔顿逸林酒店),Hotel,39.887840458325066,116.33431154171716,168 Guang'anmen Outer Ave,Beijing,Beijing,Xicheng
109,全聚德 Quanjude Peking Roast Duck,Peking Duck Restaurant,39.89501300731703,116.3921748671842,30 Qianmen St,Beijing,Beijing,Xicheng
110,Capita Mall (凯德 Mall),Shopping Mall,39.939956922984194,116.34626557852152,1 Xizhimen Outer St | 西直门外大街1号,Beijing,Beijing,Xicheng
111,Subway Xizhimen (地铁西直门站),Metro Station,39.94039183193597,116.34716060887379,Xizhimen Bridge,Beijing,Beijing,Xicheng
112,Yuyuantan Park (玉渊潭公园 Yu Yuan Tan Park),Park,39.915602,116.315129,10 W 3rd Ring Rd M,Beijing,Beijing,Xicheng
113,Great Leap Brewing (Great Leap Brewing 大跃啤酒),Brewery,39.93593690654814,116.39308082174908,6 Doujiao Hutong,Beijing,Beijing,Xicheng
114,Apple Wangfujing (Apple 王府井),Electronics Store,39.91394967016644,116.4052963256836,138 Wangfujing St | 王府井大街138号,Beijing,Beijing,Xicheng
115,东堂 St. Joseph's Cathedral (East Church),Church,39.915965042661135,116.4051497190644,74 Wangfujing Ave.,Beijing,Beijing,Xicheng
116,New World Beijing Hotel (北京新世界酒店),Hotel,39.897296488684425,116.40592320111824,8 Qinian Street,Beijing,Beijing,Xicheng
117,Hilton Beijing Wangfujing (北京王府井希尔顿酒店),Hotel,39.91282930105268,116.4072672612987,8 Wangfujing E St,Beijing,Beijing,Xicheng
118,Houhai Lake (后海),Lake,39.93722369992521,116.38734560225828,Houhai,Beijing,Beijing,Xicheng
119,Waldorf Astoria Beijing,Hotel,39.9145339347225,116.40772104263306,5-15 Jinyu Hutong,Beijing,Beijing,Xicheng
120,The Peninsula Beijing (王府半岛酒店),Hotel,39.91416688489904,116.41019181892923,"8 Goldfish Lane, Wangfujing",Beijing,Beijing,Xicheng
121,Grand Hyatt Beijing (北京东方君悦大酒店),Hotel,39.90805986614843,116.40834908694298,1 E Chang'an Ave,Beijing,Beijing,Xicheng
122,National Art Museum of China (中国美术馆),Art Museum,39.923377884619505,116.40265458286883,1 Wusi Ave,Beijing,Beijing,Xicheng
123,Zarah Café,Café,39.93938938524772,116.39995713841657,46 Gulou Dongdajie 鼓楼东大街46号,Beijing,Beijing,Xicheng
124,Novotel Beijing Peace (北京诺富特和平宾馆),Hotel,39.91417851891671,116.40920819409575,"3 Jinyu Hutong, Wangfujing",Beijing,Beijing,Xicheng
125,North Gate: Temple of Heaven (天坛北门),Park,39.886261338761116,116.40632629394531,天坛北门,Beijing,Beijing,Xicheng
126,Regent Beijing (北京丽晶酒店),Hotel,39.914873193875884,116.41298288045519,99 Jinbao St,Beijing,Beijing,Xicheng
127,Hall of Prayer for Good Harvests (祈年殿),Temple,39.88213116420549,116.40677971583875,Tiantan N Rd,Beijing,Beijing,Xicheng
128,Temple of Heaven (天坛),Historic Site,39.88217073859758,116.407179073501,Tiantan N Rd | 天坛东里甲1号,Beijing,Beijing,Xicheng
129,Dadong Roast Duck Restaurant (大董烤鸭店),Peking Duck Restaurant,39.91409044595065,116.4150309179308,88 Jinbao St,Beijing,Beijing,Xicheng
130,Nanluogu Alley (南锣鼓巷),Pedestrian Plaza,39.934778897719355,116.39689653926962,Near Drum Tower,Beijing,Beijing,Xicheng
131,Bell Tower (钟楼),Monument / Landmark,39.942451,116.395978,9 Zhonglouwan Linzi,Beijing,Beijing,Xicheng
132,Tiantan Park (天坛公园),Park,39.882392760373115,116.41074673188058,Tiantan Road,Beijing,Beijing,Xicheng
133,Imperial Vault of Heaven (皇穹宇),Temple,39.87680554678105,116.40687839954148,天坛 Temple Of Heaven,Beijing,Beijing,Xicheng
134,Yonghegong Lama Temple (雍和宫),Buddhist Temple,39.945910354882905,116.41088505680857,Yonghegong Ave,Beijing,Beijing,Xicheng
135,Hua's Restaurant (花家怡园),Chinese Restaurant,39.94002052854349,116.41278479962595,235 Dongzhimen Inner St,Beijing,Beijing,Xicheng
136,U-Town Mall (悠唐广场),Shopping Mall,39.92061170006202,116.43416859820137,Bldg 2 Sanfeng Beili,Beijing,Beijing,Chaoyang
137,Parkview Green (侨福芳草地),Shopping Mall,39.918192722620375,116.44327967450147,9 Dongdaqiao Rd,Beijing,Beijing,Chaoyang
138,Din Tai Fung (鼎泰丰),Dumpling Restaurant,39.91787397017969,116.44316738142668,9 Dongdaqiao Rd,Beijing,Beijing,Chaoyang
139,Ritan Park (日坛公园),Park,39.91449278949437,116.4380943775177,6 Ritan N Rd,Beijing,Beijing,Chaoyang
140,Sir Teen,Nightclub,39.92830466923337,116.43842373132985,,Beijing,Beijing,Chaoyang
141,Starbucks (星巴克),Coffee Shop,39.922562694945,116.42656254969349,#2 Chaoyangmen Inner Street,Beijing,Beijing,Chaoyang
142,The Place (世贸天阶),Shopping Mall,39.91526235674141,116.44642034949067,9A Guanghua Rd,Beijing,Beijing,Chaoyang
143,Dadong Roast Duck (大董烤鸭店),Peking Duck Restaurant,39.93040526375193,116.44333411184576,工人体育场东门北侧(工体东门),Beijing,Beijing,Chaoyang
144,Workers Stadium (工人体育场),Stadium,39.92956674637532,116.4410877227783,1 Gongti N Rd,Beijing,Beijing,Chaoyang
145,The St. Regis Beijing,Hotel,39.90965838256524,116.43396898518948,"21 Jianguomenwai Dajie, Chaoyang District",Beijing,Beijing,Chaoyang
146,Rosewood Beijing (北京瑰丽酒店),Hotel,39.918612033898874,116.45491627740178,1 Chaoyangmen Outer St,Beijing,Beijing,Chaoyang
147,Slow Boat Brewpub (悠航鲜啤),Brewery,39.92958207951827,116.44915346250912,"6, South Sanlitun St",Beijing,Beijing,Chaoyang
148,Bodhi Therapeutic Retreat (菩提),Massage Studio,39.933876,116.441188,17 Gongrentiyuchang N Rd,Beijing,Beijing,Chaoyang
149,"Kerry Hotel, Beijing (北京嘉里大酒店)",Hotel,39.912512834672604,116.45144865986528,1 Guanghua Rd,Beijing,Beijing,Chaoyang
150,Haidilao Hot Pot (海底捞火锅),Hotpot Restaurant,39.92991884548946,116.44700467586517,2A Baijiazhuang Rd,Beijing,Beijing,Chaoyang
151,InterContinental Beijing Sanlitun (北京三里屯通盈中心洲际酒店),Hotel,39.93140938840894,116.4490999747531,1 S Sanlitun Rd,Beijing,Beijing,Chaoyang
152,MEI (魅),Bar,39.91843817329836,116.45449779437018,1 Chaoyangmen Outer St,Beijing,Beijing,Chaoyang
153,Elements (爱乐),Nightclub,39.93021878860064,116.43817529392861,58 Gongti Ximen,Beijing,Beijing,Chaoyang
154,Dadong Roast Duck Restaurant (大董烤鸭店),Peking Duck Restaurant,39.931008497717926,116.42567668287623,22A Dongsishitiao,Beijing,Beijing,Chaoyang
155,Conrad Beijing (北京康莱德酒店),Hotel,39.92569983592333,116.45432710647583,29 E 3rd Ring Rd N,Beijing,Beijing,Chaoyang
156,Jingkelong Supermarket (京客隆),Grocery Store,39.93264145140255,116.44448408510442,Nan 27 N Sanlitun Rd,Beijing,Beijing,Chaoyang
157,The Taco Bar,Mexican Restaurant,39.93124961998479,116.45086803916747,Sanlitun South,Beijing,Beijing,Chaoyang
158,Shangri-La China World Summit Wing (国贸大酒店),Hotel,39.91089335048794,116.4522360276891,1 Jianguomen Outer Ave,Beijing,Beijing,Chaoyang
159,D.Lounge,Lounge,39.93036461195083,116.4499931763745,4 Gongti N Rd,Beijing,Beijing,Chaoyang
160,Qmex,Mexican Restaurant,39.930657783297846,116.45045889881246,"Courtyard 4, Gongti N Rd",Beijing,Beijing,Chaoyang
161,China World Mall (国贸商城),Shopping Mall,39.91092128950456,116.4525032043457,1 Jianguomenwai Dajie | 建国门外大街1号,Beijing,Beijing,Chaoyang
162,Grand Millennium Beijing (北京千禧大酒店 Grand Millennium Beijing),Hotel,39.91530722168496,116.4534868557886,"No. 7 Dongsanhuan Middle Road, Chaoyang",Beijing,Beijing,Chaoyang
163,Topwin Center (通盈中心),Shopping Plaza,39.930328530081155,116.44918665617956,朝阳区南三里屯路,Beijing,Beijing,Chaoyang
164,Taikoo Li Sanlitun (三里屯太古里),Shopping Mall,39.9332539813485,116.44858133999325,19 Sanlitun Rd,Beijing,Beijing,Chaoyang
165,工人体育馆 Workers' Gymnasium,Stadium,39.93220992996441,116.43733820937642,工人体育馆,Beijing,Beijing,Chaoyang
166,Jingzun Peking Duck Restaurant (京尊烤鸭),Peking Duck Restaurant,39.93586598597585,116.4377117602467,"6 Taipingzhuang Nanli, Chunxiu Rd",Beijing,Beijing,Chaoyang
167,Holiday Inn Express Beijing Dongzhimen (北京东直门智选假日酒店),Hotel,39.935436628047874,116.437246799469,1 Chunxiu Rd,Beijing,Beijing,Chaoyang
168,Janes + Hooch,Cocktail Bar,39.930682717362515,116.45097857550822,4 Gongti Bei Lu,Beijing,Beijing,Chaoyang
169,Poly Theatre (保利剧院 Poly Theatre),Concert Hall,39.93357917149298,116.43037006868528,14 Dongzhimen S. Ave.,Beijing,Beijing,Chaoyang
170,Page One (叶壹堂),Bookstore,39.93434940900254,116.44905410767903,"Yard 19, Sanlitun Rd",Beijing,Beijing,Chaoyang
171,Chaoyang Theater 朝阳剧场,Theater,39.92092505727756,116.45636290186336,36 E 3rd Ring Rd N,Beijing,Beijing,Chaoyang
172,北京丽亭酒店 Park Plaza Beijing Wangfujing,Hotel,39.91672,116.41949,"97 Jinbao Street, Dongcheng District",Beijing,Beijing,Chaoyang
173,Starbucks (星巴克),Coffee Shop,39.93299851154642,116.44850077313005,Gongti N Rd,Beijing,Beijing,Chaoyang
174,Home Plate BBQ (本垒美式烤肉),Southern / Soul Food Restaurant,39.9311388922045,116.45123610522832,Sanlitun,Beijing,Beijing,Chaoyang
175,The Bookworm (老书虫),Bookstore,39.931059813583154,116.44970549621301,4 Sanlitun S Rd,Beijing,Beijing,Chaoyang
176,MIX Club,Nightclub,39.931410012393584,116.44064274790814,Gongti N Rd,Beijing,Beijing,Chaoyang
177,Atmosphere 云·酷 (云 • 酷),Cocktail Bar,39.910818999030695,116.45225061404302,1 Jianguomen Outer Ave,Beijing,Beijing,Chaoyang
178,Starbucks (星巴克),Coffee Shop,39.9122845730916,116.45389034303878,1 Guanghua Rd,Beijing,Beijing,Chaoyang
179,VICS 威克斯,Nightclub,39.93132728012812,116.44167911519601,工体北门内东侧,Beijing,Beijing,Chaoyang
180,The Opposite House (瑜舍),Hotel,39.93623854878213,116.44864160393983,"Bldg 1, 11 Sanlitun Rd",Beijing,Beijing,Chaoyang
181,MOKA Bros,Café,39.934622652320456,116.44848435379373,"B101b, S Bldg, Nali Huayuan, 81 Sanlitun N Rd",Beijing,Beijing,Chaoyang
182,Apple Sanlitun (Apple 三里屯),Electronics Store,39.933565066622684,116.44795417785645,"三里屯路19号院, 三里屯太古里6号楼, 朝阳区",Beijing,Beijing,Chaoyang
183,Dongdaqiao (东大桥),Plaza,39.921649215510804,116.44425357637598,Dongdaqiao,Beijing,Beijing,Chaoyang
184,长富宫饭店,Hotel,39.90645665263572,116.4318984746933,26 Jianguomen Outer Ave,Beijing,Beijing,Chaoyang
185,Shangri-La China World Hotel (中国大饭店),Hotel,39.90828919141828,116.45308614503857,1 Jianguomen Outer Ave,Beijing,Beijing,Chaoyang
186,Taikoo Li Sanlitun North (三里屯太古里北区),Shop & Service,39.9371282871573,116.44821420535987,11 Sanlitun Rd,Beijing,Beijing,Chaoyang
187,Dadong Roast Duck Restaurant (大董烤鸭店),Peking Duck Restaurant,39.91409044595065,116.4150309179308,88 Jinbao St,Beijing,Beijing,Chaoyang
188,Park Hyatt Beijing (北京柏悦酒店),Hotel,39.90619222764913,116.45303579895203,2 Jianguomen Outer St,Beijing,Beijing,Chaoyang
189,The Peninsula Beijing (王府半岛酒店),Hotel,39.91416688489904,116.41019181892923,"8 Goldfish Lane, Wangfujing",Beijing,Beijing,Chaoyang
190,Fairmont Beijing I 北京华彬费尔蒙酒店,Hotel,39.90410781030198,116.4456239062542,8 Yong'an Dongli,Beijing,Beijing,Chaoyang
191,Regent Beijing (北京丽晶酒店),Hotel,39.914873193875884,116.41298288045519,99 Jinbao St,Beijing,Beijing,Chaoyang
192,Din Tai Fung (鼎泰丰),Dumpling Restaurant,39.94513119136509,116.43877772141599,24 Xinyuan Xili M St,Beijing,Beijing,Chaoyang
193,Waldorf Astoria Beijing,Hotel,39.9145339347225,116.40772104263306,5-15 Jinyu Hutong,Beijing,Beijing,Chaoyang
194,Element Fresh (新元素),New American Restaurant,39.93331709444462,116.44860882321272,"8-3-3, Bldg 8, 19 S Sanlitun St",Beijing,Beijing,Chaoyang
195,Hilton Beijing Wangfujing (北京王府井希尔顿酒店),Hotel,39.91282930105268,116.4072672612987,8 Wangfujing E St,Beijing,Beijing,Chaoyang
196,Apple Wangfujing (Apple 王府井),Electronics Store,39.91394967016644,116.4052963256836,138 Wangfujing St | 王府井大街138号,Beijing,Beijing,Chaoyang
197,东堂 St. Joseph's Cathedral (East Church),Church,39.915965042661135,116.4051497190644,74 Wangfujing Ave.,Beijing,Beijing,Chaoyang
198,Din Tai Fung (鼎泰丰),Dumpling Restaurant,39.909209536859834,116.47376775741577,87 Jianguo Rd,Beijing,Beijing,Chaoyang
199,Hua's Restaurant (花家怡园),Chinese Restaurant,39.94002052854349,116.41278479962595,235 Dongzhimen Inner St,Beijing,Beijing,Chaoyang
200,Temple Restaurant Beijing,French Restaurant,39.9265275764491,116.39720388581632,23 Shatan N St,Beijing,Beijing,Chaoyang
201,Yonghegong Lama Temple (雍和宫),Buddhist Temple,39.945910354882905,116.41088505680857,Yonghegong Ave,Beijing,Beijing,Chaoyang
202,Beijing West Railway Station (北京西站),Train Station,39.893682925110284,116.31519111345561,118 Lianhuachi E Rd,Beijing,Beijing,Fengtai
203,DoubleTree by Hilton Hotel Beijing (北京希尔顿逸林酒店),Hotel,39.887840458325066,116.33431154171716,168 Guang'anmen Outer Ave,Beijing,Beijing,Fengtai
204,Wukesong Stadium (乐视体育中心),Stadium,39.90904494300517,116.27461910247803,69 Fuxing Rd.,Beijing,Beijing,Fengtai
205,Yuyuantan Park (玉渊潭公园 Yu Yuan Tan Park),Park,39.915602,116.315129,10 W 3rd Ring Rd M,Beijing,Beijing,Fengtai
206,Capital Museum (首都博物馆),History Museum,39.90547500363378,116.33618364556303,16 Fuxingmen Outer St,Beijing,Beijing,Fengtai
207,Beijing South Railway Station (北京南站),Train Station,39.863273,116.373092,12 Yongwai Avenue,Beijing,Beijing,Fengtai
208,Shangri-la Hotel Beijing (北京香格里拉饭店),Hotel,39.94297206671486,116.30234446602807,29 Zizhuyuan Rd,Beijing,Beijing,Fengtai
209,Apple Xidan Joy City (Apple 西单大悦城),Electronics Store,39.909209536859834,116.36731624603271,"西单北大街131号, 大悦城, 西城区",Beijing,Beijing,Fengtai
210,The Westin Beijing Financial Street (北京金融街威斯汀大酒店),Hotel,39.915670300499386,116.35351315916103,"9C Financial Street, XiCheng District",Beijing,Beijing,Fengtai
211,Galeries Lafayette 老佛爷百货,Department Store,39.91272435422194,116.36762153023346,110 N Xidan St,Beijing,Beijing,Fengtai
212,Joy City (大悦城),Shopping Mall,39.90943264579762,116.36745859440644,131 Xidan N Ave,Beijing,Beijing,Fengtai
213,Xidan Metro Station (地铁西单站),Metro Station,39.90666929267448,116.36799470073176,Xidan N St,Beijing,Beijing,Fengtai
214,Beijing Zoo (北京动物园),Zoo,39.937648442331074,116.33320870982297,137 Xizhimen Outer Ave,Beijing,Beijing,Fengtai
215,Panda Pavilion of Beijing Zoo (北京动物园熊猫馆),Zoo Exhibit,39.938474587116055,116.33331248727106,137 Xizhimen Outer Ave,Beijing,Beijing,Fengtai
216,National Centre for the Performing Arts (国家大剧院),Performing Arts Venue,39.903935870562655,116.38354141408601,2 W. Chang'an Ave.,Beijing,Beijing,Fengtai
217,Great Hall of the People (人民大会堂),Capitol Building,39.9034155951341,116.3874864578247,Guangchang West Side Rd,Beijing,Beijing,Fengtai
218,Hall of Prayer for Good Harvests (祈年殿),Temple,39.88213116420549,116.40677971583875,Tiantan N Rd,Beijing,Beijing,Fengtai
219,Temple of Heaven (天坛),Historic Site,39.88217073859758,116.407179073501,Tiantan N Rd | 天坛东里甲1号,Beijing,Beijing,Fengtai
220,Imperial Vault of Heaven (皇穹宇),Temple,39.87680554678105,116.40687839954148,天坛 Temple Of Heaven,Beijing,Beijing,Fengtai
221,Zhongshan Park (Zhongshan Park 中山公园),Park,39.908765132544616,116.38860225677489,West Chang'an St,Beijing,Beijing,Fengtai
222,Tian'anmen Tower (天安门城楼),Historic Site,39.90656228127186,116.39158218479662,天安门附近,Beijing,Beijing,Fengtai
223,Gate of Supreme Harmony (太和门),Historic Site,39.91371929434656,116.39088043068145,4 Jingshan Front St,Beijing,Beijing,Fengtai
224,Hall of Supreme Harmony (太和殿),Historic Site,39.915466461530265,116.39086168289484,4 Jingshan Front St,Beijing,Beijing,Fengtai
225,端门,Historic Site,39.90869438551294,116.3911917488673,北京市东城区,Beijing,Beijing,Fengtai
226,Tiantan Park (天坛公园),Park,39.882392760373115,116.41074673188058,Tiantan Road,Beijing,Beijing,Fengtai
227,Hall of Central Harmony (中和殿),Historic Site,39.91630354654006,116.39074709206193,4 Jingshan Front St,Beijing,Beijing,Fengtai
228,Beihai Park (北海公园),Park,39.92207949928855,116.38331069153004,1 Wenjin St,Beijing,Beijing,Fengtai
229,New World Beijing Hotel (北京新世界酒店),Hotel,39.897296488684425,116.40592320111824,8 Qinian Street,Beijing,Beijing,Fengtai
230,Monument to the People's Heroes (人民英雄纪念碑),Monument / Landmark,39.90316045291408,116.3914132118225,Tian'anmen Square,Beijing,Beijing,Fengtai
231,North Gate: Temple of Heaven (天坛北门),Park,39.886261338761116,116.40632629394531,天坛北门,Beijing,Beijing,Fengtai
232,Circular Mound Altar (圜丘坛),Historic Site,39.87560196682971,116.40697802447241,Tiantan Park,Beijing,Beijing,Fengtai
233,Palace of Heavenly Purity (乾清宫),Historic Site,39.91849073015163,116.39063683482365,4 Jingshan Front St,Beijing,Beijing,Fengtai
234,Hall of Preserving Harmony (保和殿),Historic Site,39.91679870678914,116.39080883242923,4 Jingshan Front St,Beijing,Beijing,Fengtai
235,Forbidden City (Palace Museum) (故宫（博物院）),History Museum,39.91770204306014,116.39066219329834,4 Jingshan Front St,Beijing,Beijing,Fengtai
236,Starbucks (星巴克),Coffee Shop,39.89683198039926,116.39173830845957,1-2 Qianmen Ave,Beijing,Beijing,Fengtai
237,Tian'anmen Square (天安门广场),Plaza,39.90484766609122,116.39130592346193,Chang'an Ave,Beijing,Beijing,Fengtai
238,Meridian Gate (午门),Historic Site,39.91133514459632,116.39099425540887,4 Jingshan Front St,Beijing,Beijing,Fengtai
239,Imperial Garden (御花园),Garden,39.92006113053615,116.39067176308858,4 Jingshan Front St,Beijing,Beijing,Fengtai
240,Palace of Earthly Tranquility (坤宁宫),Historic Site,39.91911130032792,116.39065962816352,4 Jingshan Front St,Beijing,Beijing,Fengtai
241,Gate of Heavenly Purity (乾清门),Historic Site,39.917988592418176,116.3906263074563,4 Jingshan Front St,Beijing,Beijing,Fengtai
242,Golden Resources Mall (金源时代购物中心),Shopping Mall,39.95728691872636,116.28264427185057,1 Yuanda Rd,Beijing,Beijing,Fengtai
243,Jingshan Park (景山公园),Park,39.92353591625474,116.39057636260986,44 Jingshan W St,Beijing,Beijing,Fengtai
244,Wanchun Pavilion (万春亭),Historic Site,39.923488838611725,116.39042011936871,44 Jingshan W St,Beijing,Beijing,Fengtai
245,Gate of Divine Might (神武门 Gate of Divine Might),Historic Site,39.921316157985224,116.39056771749101,4 Jingshan Front St,Beijing,Beijing,Fengtai
246,Shichahai Park (什刹海公园 Shichahai Park),Park,39.93244621864724,116.3857913017273,West Bank of Qianhai,Beijing,Beijing,Fengtai
247,Temple Restaurant Beijing,French Restaurant,39.9265275764491,116.39720388581632,23 Shatan N St,Beijing,Beijing,Fengtai
248,The Peninsula Beijing (王府半岛酒店),Hotel,39.91416688489904,116.41019181892923,"8 Goldfish Lane, Wangfujing",Beijing,Beijing,Fengtai
249,Apple Wangfujing (Apple 王府井),Electronics Store,39.91394967016644,116.4052963256836,138 Wangfujing St | 王府井大街138号,Beijing,Beijing,Fengtai
250,Hilton Beijing Wangfujing (北京王府井希尔顿酒店),Hotel,39.91282930105268,116.4072672612987,8 Wangfujing E St,Beijing,Beijing,Fengtai
251,Siji Minfu Roast Duck (四季民福 Siji Minfu Roast Duck),Chinese Restaurant,39.916945001926365,116.4025068283081,32 Dengshikou W St,Beijing,Beijing,Fengtai
252,Great Leap Brewing (Great Leap Brewing 大跃啤酒),Brewery,39.93593690654814,116.39308082174908,6 Doujiao Hutong,Beijing,Beijing,Fengtai
253,Waldorf Astoria Beijing,Hotel,39.9145339347225,116.40772104263306,5-15 Jinyu Hutong,Beijing,Beijing,Fengtai
254,东堂 St. Joseph's Cathedral (East Church),Church,39.915965042661135,116.4051497190644,74 Wangfujing Ave.,Beijing,Beijing,Fengtai
255,Grand Hyatt Beijing (北京东方君悦大酒店),Hotel,39.90805986614843,116.40834908694298,1 E Chang'an Ave,Beijing,Beijing,Fengtai
256,Houhai Lake (后海),Lake,39.93722369992521,116.38734560225828,Houhai,Beijing,Beijing,Fengtai
257,恭王府 Prince Gong's Mansion,Historic Site,39.934455730430116,116.38038245630929,17 Qianhai W St,Beijing,Beijing,Fengtai
258,Zarah Café,Café,39.93938938524772,116.39995713841657,46 Gulou Dongdajie 鼓楼东大街46号,Beijing,Beijing,Fengtai
259,Wukesong Stadium (乐视体育中心),Stadium,39.90904494300517,116.27461910247803,69 Fuxing Rd.,Beijing,Beijing,Shijingshan
260,Yuyuantan Park (玉渊潭公园 Yu Yuan Tan Park),Park,39.915602,116.315129,10 W 3rd Ring Rd M,Beijing,Beijing,Shijingshan
261,Shangri-la Hotel Beijing (北京香格里拉饭店),Hotel,39.94297206671486,116.30234446602807,29 Zizhuyuan Rd,Beijing,Beijing,Shijingshan
262,Golden Resources Mall (金源时代购物中心),Shopping Mall,39.95728691872636,116.28264427185057,1 Yuanda Rd,Beijing,Beijing,Shijingshan
263,Beijing West Railway Station (北京西站),Train Station,39.893682925110284,116.31519111345561,118 Lianhuachi E Rd,Beijing,Beijing,Shijingshan
264,Fragrant Hills Park (香山公园),Mountain,39.99230647646565,116.19081886808922,Xiangshangongyuan,Beijing,Beijing,Shijingshan
265,Capital Museum (首都博物馆),History Museum,39.90547500363378,116.33618364556303,16 Fuxingmen Outer St,Beijing,Beijing,Shijingshan
266,Summer Palace (颐和园),Historic Site,39.99648725080977,116.27432942390442,Beiqing Rd,Beijing,Beijing,Shijingshan
267,北宫门 North Palace Gate,Park,40.000712193584036,116.2681545352693,Gongqian Rd.,Beijing,Beijing,Shijingshan
268,DoubleTree by Hilton Hotel Beijing (北京希尔顿逸林酒店),Hotel,39.887840458325066,116.33431154171716,168 Guang'anmen Outer Ave,Beijing,Beijing,Shijingshan
269,The Westin Beijing Financial Street (北京金融街威斯汀大酒店),Hotel,39.915670300499386,116.35351315916103,"9C Financial Street, XiCheng District",Beijing,Beijing,Shijingshan
270,The Gate City Mall (新中关购物中心),Shopping Mall,39.97716914105238,116.3098889281426,19 Zhongguancun Ave,Beijing,Beijing,Shijingshan
271,EC Mall (欧美汇购物中心),Shopping Mall,39.97850157619947,116.3081016048199,1A Danling St,Beijing,Beijing,Shijingshan
272,Beijing Zoo (北京动物园),Zoo,39.937648442331074,116.33320870982297,137 Xizhimen Outer Ave,Beijing,Beijing,Shijingshan
273,Panda Pavilion of Beijing Zoo (北京动物园熊猫馆),Zoo Exhibit,39.938474587116055,116.33331248727106,137 Xizhimen Outer Ave,Beijing,Beijing,Shijingshan
274,Capita Mall (凯德 Mall),Shopping Mall,39.939956922984194,116.34626557852152,1 Xizhimen Outer St | 西直门外大街1号,Beijing,Beijing,Shijingshan
275,十七孔桥,Bridge,39.989419266060246,116.27234131582198,Kunming Lake E Rd,Beijing,Beijing,Shijingshan
276,Kunming Lake (昆明湖),Lake,39.99554579399772,116.27256622348413,Beiqing Rd,Beijing,Beijing,Shijingshan
277,Haidian Huangzhuang Metro Station (地铁海淀黄庄站),Metro Station,39.97470247962019,116.31151288747787,Haidian Huangzhuang,Beijing,Beijing,Shijingshan
278,Apple Xidan Joy City (Apple 西单大悦城),Electronics Store,39.909209536859834,116.36731624603271,"西单北大街131号, 大悦城, 西城区",Beijing,Beijing,Shijingshan
279,Peking University (北京大学),University,39.988874691670595,116.31426621500631,5 Yiheyuan Rd,Beijing,Beijing,Shijingshan
280,National Centre for the Performing Arts (国家大剧院),Performing Arts Venue,39.903935870562655,116.38354141408601,2 W. Chang'an Ave.,Beijing,Beijing,Shijingshan
281,Beihai Park (北海公园),Park,39.92207949928855,116.38331069153004,1 Wenjin St,Beijing,Beijing,Shijingshan
282,Shichahai Park (什刹海公园 Shichahai Park),Park,39.93244621864724,116.3857913017273,West Bank of Qianhai,Beijing,Beijing,Shijingshan
283,Jingshan Park (景山公园),Park,39.92353591625474,116.39057636260986,44 Jingshan W St,Beijing,Beijing,Shijingshan
284,Hall of Supreme Harmony (太和殿),Historic Site,39.915466461530265,116.39086168289484,4 Jingshan Front St,Beijing,Beijing,Shijingshan
285,Wanchun Pavilion (万春亭),Historic Site,39.923488838611725,116.39042011936871,44 Jingshan W St,Beijing,Beijing,Shijingshan
286,Palace of Heavenly Purity (乾清宫),Historic Site,39.91849073015163,116.39063683482365,4 Jingshan Front St,Beijing,Beijing,Shijingshan
287,Gate of Supreme Harmony (太和门),Historic Site,39.91371929434656,116.39088043068145,4 Jingshan Front St,Beijing,Beijing,Shijingshan
288,Great Hall of the People (人民大会堂),Capitol Building,39.9034155951341,116.3874864578247,Guangchang West Side Rd,Beijing,Beijing,Shijingshan
289,Hall of Central Harmony (中和殿),Historic Site,39.91630354654006,116.39074709206193,4 Jingshan Front St,Beijing,Beijing,Shijingshan
290,Forbidden City (Palace Museum) (故宫（博物院）),History Museum,39.91770204306014,116.39066219329834,4 Jingshan Front St,Beijing,Beijing,Shijingshan
291,Hall of Preserving Harmony (保和殿),Historic Site,39.91679870678914,116.39080883242923,4 Jingshan Front St,Beijing,Beijing,Shijingshan
292,Gate of Divine Might (神武门 Gate of Divine Might),Historic Site,39.921316157985224,116.39056771749101,4 Jingshan Front St,Beijing,Beijing,Shijingshan
293,Zhongshan Park (Zhongshan Park 中山公园),Park,39.908765132544616,116.38860225677489,West Chang'an St,Beijing,Beijing,Shijingshan
294,Lush,Bar,39.99154591507671,116.33070135692375,35 Chengfu Rd,Beijing,Beijing,Shijingshan
295,Tian'anmen Tower (天安门城楼),Historic Site,39.90656228127186,116.39158218479662,天安门附近,Beijing,Beijing,Shijingshan
296,端门,Historic Site,39.90869438551294,116.3911917488673,北京市东城区,Beijing,Beijing,Shijingshan
297,Imperial Garden (御花园),Garden,39.92006113053615,116.39067176308858,4 Jingshan Front St,Beijing,Beijing,Shijingshan
298,Palace of Earthly Tranquility (坤宁宫),Historic Site,39.91911130032792,116.39065962816352,4 Jingshan Front St,Beijing,Beijing,Shijingshan
299,Gate of Heavenly Purity (乾清门),Historic Site,39.917988592418176,116.3906263074563,4 Jingshan Front St,Beijing,Beijing,Shijingshan
300,Meridian Gate (午门),Historic Site,39.91133514459632,116.39099425540887,4 Jingshan Front St,Beijing,Beijing,Shijingshan
301,Monument to the People's Heroes (人民英雄纪念碑),Monument / Landmark,39.90316045291408,116.3914132118225,Tian'anmen Square,Beijing,Beijing,Shijingshan
302,Tian'anmen Square (天安门广场),Plaza,39.90484766609122,116.39130592346193,Chang'an Ave,Beijing,Beijing,Shijingshan
303,Houhai Lake (后海),Lake,39.93722369992521,116.38734560225828,Houhai,Beijing,Beijing,Shijingshan
304,恭王府 Prince Gong's Mansion,Historic Site,39.934455730430116,116.38038245630929,17 Qianhai W St,Beijing,Beijing,Shijingshan
305,Starbucks (星巴克),Coffee Shop,39.89683198039926,116.39173830845957,1-2 Qianmen Ave,Beijing,Beijing,Shijingshan
306,Beijing South Railway Station (北京南站),Train Station,39.863273,116.373092,12 Yongwai Avenue,Beijing,Beijing,Shijingshan
307,Golden Resources Mall (金源时代购物中心),Shopping Mall,39.95728691872636,116.28264427185057,1 Yuanda Rd,Beijing,Beijing,Haidian
308,Shangri-la Hotel Beijing (北京香格里拉饭店),Hotel,39.94297206671486,116.30234446602807,29 Zizhuyuan Rd,Beijing,Beijing,Haidian
309,The Gate City Mall (新中关购物中心),Shopping Mall,39.97716914105238,116.3098889281426,19 Zhongguancun Ave,Beijing,Beijing,Haidian
310,EC Mall (欧美汇购物中心),Shopping Mall,39.97850157619947,116.3081016048199,1A Danling St,Beijing,Beijing,Haidian
311,Haidian Huangzhuang Metro Station (地铁海淀黄庄站),Metro Station,39.97470247962019,116.31151288747787,Haidian Huangzhuang,Beijing,Beijing,Haidian
312,Summer Palace (颐和园),Historic Site,39.99648725080977,116.27432942390442,Beiqing Rd,Beijing,Beijing,Haidian
313,Yuyuantan Park (玉渊潭公园 Yu Yuan Tan Park),Park,39.915602,116.315129,10 W 3rd Ring Rd M,Beijing,Beijing,Haidian
314,北宫门 North Palace Gate,Park,40.000712193584036,116.2681545352693,Gongqian Rd.,Beijing,Beijing,Haidian
315,Lush,Bar,39.99154591507671,116.33070135692375,35 Chengfu Rd,Beijing,Beijing,Haidian
316,Beijing Zoo (北京动物园),Zoo,39.937648442331074,116.33320870982297,137 Xizhimen Outer Ave,Beijing,Beijing,Haidian
317,十七孔桥,Bridge,39.989419266060246,116.27234131582198,Kunming Lake E Rd,Beijing,Beijing,Haidian
318,Peking University (北京大学),University,39.988874691670595,116.31426621500631,5 Yiheyuan Rd,Beijing,Beijing,Haidian
319,Panda Pavilion of Beijing Zoo (北京动物园熊猫馆),Zoo Exhibit,39.938474587116055,116.33331248727106,137 Xizhimen Outer Ave,Beijing,Beijing,Haidian
320,Zhichunlu Metro Station (地铁知春路站),Metro Station,39.97504695971765,116.3349822163582,Zhichun Rd,Beijing,Beijing,Haidian
321,Capita Mall (凯德 Mall),Shopping Mall,39.939956922984194,116.34626557852152,1 Xizhimen Outer St | 西直门外大街1号,Beijing,Beijing,Haidian
322,Kunming Lake (昆明湖),Lake,39.99554579399772,116.27256622348413,Beiqing Rd,Beijing,Beijing,Haidian
323,WDK Shopping Center (五道口购物中心),Shopping Mall,39.99119910192832,116.33328366020663,28 Chengfu Rd,Beijing,Beijing,Haidian
324,Wudaokou Metro Station (地铁五道口站),Metro Station,39.991522680794006,116.33154630661011,Chengfu Rd,Beijing,Beijing,Haidian
325,Wudaokou (五道口),Neighborhood,39.991438480268314,116.33182500623435,,Beijing,Beijing,Haidian
326,Subway Xizhimen (地铁西直门站),Metro Station,39.94039183193597,116.34716060887379,Xizhimen Bridge,Beijing,Beijing,Haidian
327,Tsinghua University (清华大学),University,39.99801653395893,116.32446241620242,Qinghua S Rd,Beijing,Beijing,Haidian
328,圆明园遗址公园 Old Summer Palace,Historic Site,40.00540908268601,116.30386095950504,28 Qinghua W Rd,Beijing,Beijing,Haidian
329,Capital Museum (首都博物馆),History Museum,39.90547500363378,116.33618364556303,16 Fuxingmen Outer St,Beijing,Beijing,Haidian
330,Wukesong Stadium (乐视体育中心),Stadium,39.90904494300517,116.27461910247803,69 Fuxing Rd.,Beijing,Beijing,Haidian
331,The Westin Beijing Financial Street (北京金融街威斯汀大酒店),Hotel,39.915670300499386,116.35351315916103,"9C Financial Street, XiCheng District",Beijing,Beijing,Haidian
332,Shichahai Park (什刹海公园 Shichahai Park),Park,39.93244621864724,116.3857913017273,West Bank of Qianhai,Beijing,Beijing,Haidian
333,Apple Xidan Joy City (Apple 西单大悦城),Electronics Store,39.909209536859834,116.36731624603271,"西单北大街131号, 大悦城, 西城区",Beijing,Beijing,Haidian
334,恭王府 Prince Gong's Mansion,Historic Site,39.934455730430116,116.38038245630929,17 Qianhai W St,Beijing,Beijing,Haidian
335,Houhai Lake (后海),Lake,39.93722369992521,116.38734560225828,Houhai,Beijing,Beijing,Haidian
336,Beijing West Railway Station (北京西站),Train Station,39.893682925110284,116.31519111345561,118 Lianhuachi E Rd,Beijing,Beijing,Haidian
337,Beihai Park (北海公园),Park,39.92207949928855,116.38331069153004,1 Wenjin St,Beijing,Beijing,Haidian
338,Great Leap Brewing (Great Leap Brewing 大跃啤酒),Brewery,39.93593690654814,116.39308082174908,6 Doujiao Hutong,Beijing,Beijing,Haidian
339,Jingshan Park (景山公园),Park,39.92353591625474,116.39057636260986,44 Jingshan W St,Beijing,Beijing,Haidian
340,Wanchun Pavilion (万春亭),Historic Site,39.923488838611725,116.39042011936871,44 Jingshan W St,Beijing,Beijing,Haidian
341,Gate of Divine Might (神武门 Gate of Divine Might),Historic Site,39.921316157985224,116.39056771749101,4 Jingshan Front St,Beijing,Beijing,Haidian
342,Palace of Heavenly Purity (乾清宫),Historic Site,39.91849073015163,116.39063683482365,4 Jingshan Front St,Beijing,Beijing,Haidian
343,Zarah Café,Café,39.93938938524772,116.39995713841657,46 Gulou Dongdajie 鼓楼东大街46号,Beijing,Beijing,Haidian
344,National Aquatic Center (Water Cube) (国家游泳中心 (水立方)),Pool,39.99155555992817,116.3840103149414,11 Tianchen E. Rd.,Beijing,Beijing,Haidian
345,Forbidden City (Palace Museum) (故宫（博物院）),History Museum,39.91770204306014,116.39066219329834,4 Jingshan Front St,Beijing,Beijing,Haidian
346,Temple Restaurant Beijing,French Restaurant,39.9265275764491,116.39720388581632,23 Shatan N St,Beijing,Beijing,Haidian
347,Hall of Supreme Harmony (太和殿),Historic Site,39.915466461530265,116.39086168289484,4 Jingshan Front St,Beijing,Beijing,Haidian
348,Hall of Central Harmony (中和殿),Historic Site,39.91630354654006,116.39074709206193,4 Jingshan Front St,Beijing,Beijing,Haidian
349,Hall of Preserving Harmony (保和殿),Historic Site,39.91679870678914,116.39080883242923,4 Jingshan Front St,Beijing,Beijing,Haidian
350,Imperial Garden (御花园),Garden,39.92006113053615,116.39067176308858,4 Jingshan Front St,Beijing,Beijing,Haidian
351,Gate of Supreme Harmony (太和门),Historic Site,39.91371929434656,116.39088043068145,4 Jingshan Front St,Beijing,Beijing,Haidian
352,Palace of Earthly Tranquility (坤宁宫),Historic Site,39.91911130032792,116.39065962816352,4 Jingshan Front St,Beijing,Beijing,Haidian
353,Bell Tower (钟楼),Monument / Landmark,39.942451,116.395978,9 Zhonglouwan Linzi,Beijing,Beijing,Haidian
354,National Centre for the Performing Arts (国家大剧院),Performing Arts Venue,39.903935870562655,116.38354141408601,2 W. Chang'an Ave.,Beijing,Beijing,Haidian
355,National Stadium (Bird's Nest) (国家体育场 (鸟巢)),Stadium,39.993415,116.396021,1 National Stadium S Rd,Beijing,Beijing,Haidian
356,Gate of Heavenly Purity (乾清门),Historic Site,39.917988592418176,116.3906263074563,4 Jingshan Front St,Beijing,Beijing,Haidian
357,Zhongshan Park (Zhongshan Park 中山公园),Park,39.908765132544616,116.38860225677489,West Chang'an St,Beijing,Beijing,Haidian
358,Drum Tower (鼓楼),Monument / Landmark,39.940723,116.396205,9 Zhonglouwan Linzi,Beijing,Beijing,Haidian
359,Great Hall of the People (人民大会堂),Capitol Building,39.9034155951341,116.3874864578247,Guangchang West Side Rd,Beijing,Beijing,Haidian
360,端门,Historic Site,39.90869438551294,116.3911917488673,北京市东城区,Beijing,Beijing,Haidian
361,Confucius Temple (北京孔庙),Historic Site,39.9444580195364,116.40838366853306,13 Guozijian St,Beijing,Beijing,Haidian
362,Meridian Gate (午门),Historic Site,39.91133514459632,116.39099425540887,4 Jingshan Front St,Beijing,Beijing,Haidian
363,Ditan Park (地坛公园),Historic Site,39.95255298696162,116.41060840687166,202 Andingmen Outer St.,Beijing,Beijing,Haidian
364,DoubleTree by Hilton Hotel Beijing (北京希尔顿逸林酒店),Hotel,39.887840458325066,116.33431154171716,168 Guang'anmen Outer Ave,Beijing,Beijing,Haidian
365,Jin Ding Xuan (金鼎轩 Jin Ding Xuan),Dim Sum Restaurant,39.949562978691596,116.41000751270207,77 Hepingli W St,Beijing,Beijing,Haidian
366,National Art Museum of China (中国美术馆),Art Museum,39.923377884619505,116.40265458286883,1 Wusi Ave,Beijing,Beijing,Haidian
367,Fragrant Hills Park (香山公园),Mountain,39.99230647646565,116.19081886808922,Xiangshangongyuan,Beijing,Beijing,Haidian
368,Yonghegong Lama Temple (雍和宫),Buddhist Temple,39.945910354882905,116.41088505680857,Yonghegong Ave,Beijing,Beijing,Haidian
369,Tian'anmen Tower (天安门城楼),Historic Site,39.90656228127186,116.39158218479662,天安门附近,Beijing,Beijing,Haidian
370,Hua's Restaurant (花家怡园),Chinese Restaurant,39.94002052854349,116.41278479962595,235 Dongzhimen Inner St,Beijing,Beijing,Haidian
371,Olympic Forest Park (奥林匹克森林公园),Park,40.01517,116.38935,15 Beichen E Rd,Beijing,Beijing,Haidian
372,Siji Minfu Roast Duck (四季民福 Siji Minfu Roast Duck),Chinese Restaurant,39.916945001926365,116.4025068283081,32 Dengshikou W St,Beijing,Beijing,Haidian
373,The Peninsula Beijing (王府半岛酒店),Hotel,39.91416688489904,116.41019181892923,"8 Goldfish Lane, Wangfujing",Beijing,Beijing,Haidian
374,Apple Wangfujing (Apple 王府井),Electronics Store,39.91394967016644,116.4052963256836,138 Wangfujing St | 王府井大街138号,Beijing,Beijing,Haidian
375,东堂 St. Joseph's Cathedral (East Church),Church,39.915965042661135,116.4051497190644,74 Wangfujing Ave.,Beijing,Beijing,Haidian
376,Monument to the People's Heroes (人民英雄纪念碑),Monument / Landmark,39.90316045291408,116.3914132118225,Tian'anmen Square,Beijing,Beijing,Haidian
377,Hilton Beijing Wangfujing (北京王府井希尔顿酒店),Hotel,39.91282930105268,116.4072672612987,8 Wangfujing E St,Beijing,Beijing,Haidian
378,Waldorf Astoria Beijing,Hotel,39.9145339347225,116.40772104263306,5-15 Jinyu Hutong,Beijing,Beijing,Haidian
379,Fragrant Hills Park (香山公园),Mountain,39.99230647646565,116.19081886808922,Xiangshangongyuan,Beijing,Beijing,Mentougou
380,Joy City Chaoyang (朝阳大悦城),Shopping Mall,39.92307881290099,116.51266247034073,101 Chaoyang N Rd,Beijing,Beijing,Tongzhou
381,JW Marriott Hotel Beijing (北京 JW 万豪酒店),Hotel,39.90874012777894,116.47565923822333,83 Jianguo Rd,Beijing,Beijing,Tongzhou
382,Starbucks (星巴克),Coffee Shop,40.07648206107818,116.60667093916038,T3-E Beijing Int'l Airport,Beijing,Beijing,Shunyi
383,Gate E13,Airport Gate,40.07757333175465,116.60778271248671,Terminal 3,Beijing,Beijing,Shunyi
384,Air China First Class Lounge,Airport Lounge,40.07617716805583,116.60597317910208,"Terminal 3, 4th Floor,  E20",Beijing,Beijing,Shunyi
385,Air China Business Class Lounge,Airport Lounge,40.07637719943013,116.60636806884088,"Terminal 3, 4:th Floor,  E19",Beijing,Beijing,Shunyi
386,BGS Premier Lounge,Airport Lounge,40.07731083244551,116.60740052697281,Terminal 3-E,Beijing,Beijing,Shunyi
387,Starbucks 星巴克 (星巴克),Coffee Shop,40.079498793745394,116.58233556799843,T1 Beijing Capital International Airport,Beijing,Beijing,Shunyi
388,Starbucks (Starbucks (星巴克)),Coffee Shop,40.07831267397139,116.58725698712215,"Arrivals Area, T2 Beijing Capital Int'l Airport",Beijing,Beijing,Shunyi
389,Starbucks (星巴克),Coffee Shop,40.07637615699396,116.5893691044635,"Departures Area (South End), T2 Beijing Capital Intl Airport",Beijing,Beijing,Shunyi
390,Air China First and Business Class Lounge,Airport Lounge,40.06562969112909,116.60755713289905,Beijing Int'l Capital Airport,Beijing,Beijing,Shunyi
391,Sunrise Duty Free (日上免税行),Duty-free Shop,40.07603487027167,116.60596384424367,BCIA T3首都机场3航站楼,Beijing,Beijing,Shunyi
392,International Transfer Security Check,Border Crossing,40.07606475161004,116.60605608653321,,Beijing,Beijing,Shunyi
393,Arrivals Immigration - T3-E Beijing Int'l Airport,Government Building,40.07593441772094,116.60601413270628,首都国际机场3号航站楼,Beijing,Beijing,Shunyi
394,Terminal 3-E (三号航站楼E区),Airport Terminal,40.07561302223617,116.60605476052896,Beijing Capital Int'l Airport 北京首都国际机场,Beijing,Beijing,Shunyi
395,Departures Immigration - T3-E Beijing Int'l Airport,Government Building,40.07554209750502,116.60608332174566,T3-E Beijing Capital Int'l Airport,Beijing,Beijing,Shunyi
396,Tramway To T3-C (Arrivals) / T3-D (Domestic Transfers),Airport Tram,40.074850554265915,116.60616058678846,T3-E Beijing Int'l Airport,Beijing,Beijing,Shunyi
397,Gate E09,Airport Gate,40.07458994730356,116.606403520704,Terminal 3,Beijing,Beijing,Shunyi
398,Beijing Capital International Airport (PEK) (北京首都国际机场),Airport,40.06874495519652,116.60176277160646,Airport Expressway | 机场高,Beijing,Beijing,Shunyi
399,Gate E08,Airport Gate,40.07332865772781,116.6067637830119,Terminal 3,Beijing,Beijing,Shunyi
400,China Eastern Airlines (MU) Check In Area,Airport Terminal,40.07956413293013,116.58819180981521,T2 Beijing Int'l Airport,Beijing,Beijing,Shunyi
401,Cathay Pacific / Dragon Air Lounge (Dragonair & Cathay Pacific Lounge),Airport Lounge,40.077044086252954,116.60403508056505,Beijing Capital Int'l Airport T3-E,Beijing,Beijing,Shunyi
402,Baggage Claim - T2 Beijing Capital Int'l Airport,Baggage Claim,40.07889770980771,116.58814454046389,Beijing Int'l Airport T2,Beijing,Beijing,Shunyi
403,Terminal 2 (二号航站楼),Airport Terminal,40.07893540066259,116.58798904364312,Beijing Capital Int'l Airport 北京首都国际机场,Beijing,Beijing,Shunyi
404,Arrivals Immigration (中国海关),Government Building,40.07799959550686,116.58904641866684,T2 Beijing Capital Int'l Airport,Beijing,Beijing,Shunyi
405,Departures Immigration (边防检查),Government Building,40.07831067697958,116.58858223464954,T2 Beijing Capital Int'l Airport,Beijing,Beijing,Shunyi
406,Gate 12,Airport Gate,40.07585418989458,116.59033909704988,Terminal 2,Beijing,Beijing,Shunyi
407,Terminal 1 (一号航站楼),Airport Terminal,40.07950520729433,116.58224885649071,Beijing Capital Int'l Airport 北京首都国际机场,Beijing,Beijing,Shunyi
408,BGS Premier Lounge (Beijing Int'l Airport T2),Travel Lounge,40.07583748433923,116.58798884673581,,Beijing,Beijing,Shunyi
409,Hilton Beijing Capital Airport (北京首都机场希尔顿酒店),Hotel,40.04795830854769,116.6134860678028,"Terminal 3, Beijing Capital Intl Airport",Beijing,Beijing,Shunyi
410,Burger King (汉堡王),Fast Food Restaurant,40.05493312138513,116.60899790579491,T3 Beijing Capital Int'l Airport,Beijing,Beijing,Shunyi
411,Starbucks (星巴克),Coffee Shop,40.05507444601717,116.60923147663932,Terminal 3 Beijing Capital Int'l Airport,Beijing,Beijing,Shunyi
412,Tramway to T3-E (Int'l Departures),Airport Tram,40.05653907150477,116.60897620430751,T3-C Beijing Int'l Airport,Beijing,Beijing,Shunyi
413,Terminal 3-C (三号航站楼C区),Airport Terminal,40.05441260077424,116.60924505051506,Beijing Capital Int'l Airport 北京首都国际机场,Beijing,Beijing,Shunyi
414,International Baggage Claim (Int'l Baggage Claim),Baggage Claim,40.054400524156925,116.60914715419612,T3 Beijing Int'l Airport,Beijing,Beijing,Shunyi
415,China Customs (T3-C),Government Building,40.054019433942564,116.60927384352911,,Beijing,Beijing,Shunyi
416,T3 Parking Lot (T3 Parking Lot 停车场),Parking,40.0523247852821,116.60971149710245,三号航站楼 T3,Beijing,Beijing,Shunyi
417,T3 Terminal Metro Station (地铁T3航站楼站),Metro Station,40.05232129078925,116.60967532740706,Beijing Capital Int'l Airport,Beijing,Beijing,Shunyi
418,Air China (CA) Check-in Area,General Travel,40.054502832268454,116.60885922360177,T3 Beijing Int'l Airport,Beijing,Beijing,Shunyi
419,Air China First Class Lounge (Domestic),Airport Lounge,40.05570425851534,116.60891211573268,Beijing Capital Int'l Airport,Beijing,Beijing,Shunyi
420,Crowne Plaza Beijing International Airport (北京临空皇冠假日酒店),Hotel,40.062810367751474,116.55066066564592,60 Fuqian 1st St Tianzhu,Beijing,Beijing,Shunyi
421,New China International Exhibition Center (NCIEC) (中国国际展览中心新馆 New China International Exhibition Center (NCIEC)),Event Space,40.069245405209955,116.54304603369806,88 Yuxiang St,Beijing,Beijing,Shunyi
422,Longdi Jade Gallery,Art Gallery,40.225120271280495,116.19468392061714,,Beijing,Beijing,Changping
423,Ming Tombs (明十三陵),Historic Site,40.25594869423264,116.21818542480467,"Ming Shisan Ling Area, Changling Town",Beijing,Beijing,Changping
424,Dingling Underground Palace,Historic Site,40.293601312755776,116.21903813028719,Tianshou Mountains,Beijing,Beijing,Changping
425,Great Wall at Juyongguan (居庸关长城),Historic Site,40.28851862020052,116.06750386374195,昌平区南口镇居庸关村,Beijing,Beijing,Changping
426,Beijing Nanyuan Airport (NAY) (北京南苑机场),Airport,39.789659346512536,116.39141220195387,Jingbei E Rd,Beijing,Beijing,Daxing
427,Mutianyu Great Wall Travel Service (中国慕田峪长城旅游),Transportation Service,40.41604181823573,116.53805559683772,Beijing Huairou district,Beijing,Beijing,Huairou
428,"塔一 Tower Guard House Tower, 慕田峪长城 Great Wall at Mutianyu",Historic Site,40.430699177972286,116.56487067221114,,Beijing,Beijing,Huairou
429,Great Wall Mutianyu Cable Car Station,Ski Chairlift,40.43329780714515,116.55861552470274,Mutianyu Great Wall,Beijing,Beijing,Huairou
430,Toboggan Mutianyu Great Wall (慕天峪滑车),Theme Park Ride / Attraction,40.430884003170426,116.56424186577992,,Beijing,Beijing,Huairou
431,Great wall tower 15,Monument / Landmark,40.440486,116.560092,,Beijing,Beijing,Huairou
432,Great Wall Top Point,Castle,40.430789519249196,116.55685875370392,,Beijing,Beijing,Huairou
433,Great Wall at Mutianyu,Historic Site,40.43253274356686,116.55788183212279,Mutianyu road Bohai Town,Beijing,Beijing,Huairou
434,Subway (赛百味),Sandwich Place,40.430519678562455,116.55693233013153,Great Wall at Mutianyu,Beijing,Beijing,Huairou
435,Great Wall at Badaling (八达岭长城),Historic Site,40.35615947439847,116.00815773010254,"216 Provincial Road, Yanqing",Beijing,Beijing,Yanqing
436,Chongqing People's Liberation Monument (解放碑),Monument / Landmark,29.560187344927996,106.57342314720154,民族路177号解放碑商圈,Chongqing,Chongqing,Yuzhong
437,Hongyadong (洪崖洞),Scenic Lookout,29.564941572775037,106.5747419365107,洪崖洞,Chongqing,Chongqing,Yuzhong
438,Yangtze River Cable Car (长江索道),Cable Car,29.560935313156843,106.57891046897143,上新街12号,Chongqing,Chongqing,Yuzhong
439,重庆北站 Chongqing North Railway Station (重庆北站),Train Station,29.613826714247164,106.54691273626312,渝北区龙头寺,Chongqing,Chongqing,Yuzhong
440,磁器口 Ciqikou Ancient Town,Historic Site,29.581477033657716,106.44793460527356,沙坪坝区,Chongqing,Chongqing,Yuzhong
441,重庆北站 Chongqing North Railway Station (重庆北站),Train Station,29.613826714247164,106.54691273626312,渝北区龙头寺,Chongqing,Chongqing,Jiangbei
442,Hongyadong (洪崖洞),Scenic Lookout,29.564941572775037,106.5747419365107,洪崖洞,Chongqing,Chongqing,Jiangbei
443,Chongqing People's Liberation Monument (解放碑),Monument / Landmark,29.560187344927996,106.57342314720154,民族路177号解放碑商圈,Chongqing,Chongqing,Jiangbei
444,Yangtze River Cable Car (长江索道),Cable Car,29.560935313156843,106.57891046897143,上新街12号,Chongqing,Chongqing,Jiangbei
445,磁器口 Ciqikou Ancient Town,Historic Site,29.581477033657716,106.44793460527356,沙坪坝区,Chongqing,Chongqing,Jiangbei
446,Terminal T3,Airport Terminal,29.712898165969452,106.65211915969849,翔安路,Chongqing,Chongqing,Jiangbei
447,Chongqing Jiangbei International Airport (CKG) (重庆江北国际机场),Airport,29.719356459310653,106.63513842970133,两路镇,Chongqing,Chongqing,Jiangbei
448,磁器口 Ciqikou Ancient Town,Historic Site,29.581477033657716,106.44793460527356,沙坪坝区,Chongqing,Chongqing,Shapingba
449,重庆北站 Chongqing North Railway Station (重庆北站),Train Station,29.613826714247164,106.54691273626312,渝北区龙头寺,Chongqing,Chongqing,Shapingba
450,Chongqing People's Liberation Monument (解放碑),Monument / Landmark,29.560187344927996,106.57342314720154,民族路177号解放碑商圈,Chongqing,Chongqing,Nan'an
451,Hongyadong (洪崖洞),Scenic Lookout,29.564941572775037,106.5747419365107,洪崖洞,Chongqing,Chongqing,Nan'an
452,Yangtze River Cable Car (长江索道),Cable Car,29.560935313156843,106.57891046897143,上新街12号,Chongqing,Chongqing,Nan'an
453,重庆北站 Chongqing North Railway Station (重庆北站),Train Station,29.613826714247164,106.54691273626312,渝北区龙头寺,Chongqing,Chongqing,Nan'an
454,磁器口 Ciqikou Ancient Town,Historic Site,29.581477033657716,106.44793460527356,沙坪坝区,Chongqing,Chongqing,Nan'an
455,Chongqing Jiangbei International Airport (CKG) (重庆江北国际机场),Airport,29.719356459310653,106.63513842970133,两路镇,Chongqing,Chongqing,Yubei
456,Terminal T3,Airport Terminal,29.712898165969452,106.65211915969849,翔安路,Chongqing,Chongqing,Yubei
457,重庆北站 Chongqing North Railway Station (重庆北站),Train Station,29.613826714247164,106.54691273626312,渝北区龙头寺,Chongqing,Chongqing,Yubei
458,Chongqing People's Liberation Monument (解放碑),Monument / Landmark,29.560187344927996,106.57342314720154,民族路177号解放碑商圈,Chongqing,Chongqing,County
459,Hongyadong (洪崖洞),Scenic Lookout,29.564941572775037,106.5747419365107,洪崖洞,Chongqing,Chongqing,County
460,Yangtze River Cable Car (长江索道),Cable Car,29.560935313156843,106.57891046897143,上新街12号,Chongqing,Chongqing,County
461,重庆北站 Chongqing North Railway Station (重庆北站),Train Station,29.613826714247164,106.54691273626312,渝北区龙头寺,Chongqing,Chongqing,County
462,磁器口 Ciqikou Ancient Town,Historic Site,29.581477033657716,106.44793460527356,沙坪坝区,Chongqing,Chongqing,County
463,Fuzhou Railway Station (福州站),Train Station,26.11694914639816,119.31544248014688,华林路502号,Fujian,Fuzhou,Gulou District
464,Fuzhou Railway Station (福州站),Train Station,26.11694914639816,119.31544248014688,华林路502号,Fujian,Fuzhou,Taijiang District
465,Fuzhou Railway Station (福州站),Train Station,26.11694914639816,119.31544248014688,华林路502号,Fujian,Fuzhou,Cangshan
466,Fuzhou Railway Station (福州站),Train Station,26.11694914639816,119.31544248014688,华林路502号,Fujian,Fuzhou,Jin'an
467,Zhongshan Road Walking Street (中山路步行街),Pedestrian Plaza,24.456354053135907,118.07456496485118,Zhongshan Rd | 中山路,Fujian,Xiamen,Siming
468,Nanputuo Temple (南普陀寺),Buddhist Temple,24.44319,118.091879,515 Siming S Rd,Fujian,Xiamen,Siming
469,Gulangyu Island (鼓浪屿 Gulangyu Island),Island,24.44827911096251,118.06489859901326,,Fujian,Xiamen,Siming
470,Ferry Terminal (轮渡码头),Boat or Ferry,24.45734584703334,118.06842148303984,15 Lujiang Rd,Fujian,Xiamen,Siming
471,Xiamen University (厦门大学),University,24.43749949832758,118.09637546539307,思明区思明南路422号,Fujian,Xiamen,Siming
472,Zeng Cuo An (曾厝垵),Beach,24.42864815627972,118.11976859686078,,Fujian,Xiamen,Siming
473,Xiamen International Cruise Center (厦门国际邮轮中心),Pier,24.484317022638287,118.07032585144043,2 Donggang Rd,Fujian,Xiamen,Siming
474,Xiamen Railway Station (厦门站),Train Station,24.471076284103045,118.10989379882812,900 Xiahe Rd,Fujian,Xiamen,Siming
475,Xiamen (厦门),City,24.497818466692113,118.11315081459071,,Fujian,Xiamen,Siming
476,SM City Xiamen (SM城市广场),Shopping Mall,24.502635946697197,118.12140871657391,湖里区嘉禾路468号,Fujian,Xiamen,Siming
477,First Class Lounge,Airport Lounge,24.539876897095017,118.12960027914816,Xiamen Gaoqi Int'l Airport,Fujian,Xiamen,Siming
478,Xiamen Int'l Conf. & Exhi. Center 厦门国际会展中心 (XICEC) (厦门国际会展中心 (XICEC)),Convention Center,24.468302713821195,118.1782661735505,会展路198号,Fujian,Xiamen,Siming
479,Xiamen Gaoqi International Airport (XMN) (厦门高崎国际机场),Airport,24.536892072886047,118.12722044532796,121 Heshan St | 禾山街道121号,Fujian,Xiamen,Siming
480,T4 Xiamen Gaoqi Int'l Airport (厦门高崎国际机场T4航站楼),Airport Terminal,24.54679587850848,118.143180273414,湖里区高崎南八路,Fujian,Xiamen,Siming
481,First Class Lounge,Airport Lounge,24.539876897095017,118.12960027914816,Xiamen Gaoqi Int'l Airport,Fujian,Xiamen,Jimei
482,Xiamen Gaoqi International Airport (XMN) (厦门高崎国际机场),Airport,24.536892072886047,118.12722044532796,121 Heshan St | 禾山街道121号,Fujian,Xiamen,Jimei
483,T4 Xiamen Gaoqi Int'l Airport (厦门高崎国际机场T4航站楼),Airport Terminal,24.54679587850848,118.143180273414,湖里区高崎南八路,Fujian,Xiamen,Jimei
484,Xiamen North Railway Station (厦门北站),Train Station,24.63884470814063,118.0690410733223,集美区后溪镇中铺路,Fujian,Xiamen,Jimei
485,SM City Xiamen (SM城市广场),Shopping Mall,24.502635946697197,118.12140871657391,湖里区嘉禾路468号,Fujian,Xiamen,Jimei
486,Xiamen (厦门),City,24.497818466692113,118.11315081459071,,Fujian,Xiamen,Jimei
487,Xiamen International Cruise Center (厦门国际邮轮中心),Pier,24.484317022638287,118.07032585144043,2 Donggang Rd,Fujian,Xiamen,Jimei
488,Xiamen Railway Station (厦门站),Train Station,24.471076284103045,118.10989379882812,900 Xiahe Rd,Fujian,Xiamen,Jimei
489,Zhongshan Road Walking Street (中山路步行街),Pedestrian Plaza,24.456354053135907,118.07456496485118,Zhongshan Rd | 中山路,Fujian,Xiamen,Jimei
490,Nanputuo Temple (南普陀寺),Buddhist Temple,24.44319,118.091879,515 Siming S Rd,Fujian,Xiamen,Jimei
491,Ferry Terminal (轮渡码头),Boat or Ferry,24.45734584703334,118.06842148303984,15 Lujiang Rd,Fujian,Xiamen,Jimei
492,Gulangyu Island (鼓浪屿 Gulangyu Island),Island,24.44827911096251,118.06489859901326,,Fujian,Xiamen,Jimei
493,Xiamen Int'l Conf. & Exhi. Center 厦门国际会展中心 (XICEC) (厦门国际会展中心 (XICEC)),Convention Center,24.468302713821195,118.1782661735505,会展路198号,Fujian,Xiamen,Jimei
494,Xiamen International Cruise Center (厦门国际邮轮中心),Pier,24.484317022638287,118.07032585144043,2 Donggang Rd,Fujian,Xiamen,Haicang District
495,Zhongshan Road Walking Street (中山路步行街),Pedestrian Plaza,24.456354053135907,118.07456496485118,Zhongshan Rd | 中山路,Fujian,Xiamen,Haicang District
496,Xiamen North Railway Station (厦门北站),Train Station,24.63884470814063,118.0690410733223,集美区后溪镇中铺路,Fujian,Xiamen,Haicang District
497,Ferry Terminal (轮渡码头),Boat or Ferry,24.45734584703334,118.06842148303984,15 Lujiang Rd,Fujian,Xiamen,Haicang District
498,Gulangyu Island (鼓浪屿 Gulangyu Island),Island,24.44827911096251,118.06489859901326,,Fujian,Xiamen,Haicang District
499,SM City Xiamen (SM城市广场),Shopping Mall,24.502635946697197,118.12140871657391,湖里区嘉禾路468号,Fujian,Xiamen,Huli District
500,Xiamen Gaoqi International Airport (XMN) (厦门高崎国际机场),Airport,24.536892072886047,118.12722044532796,121 Heshan St | 禾山街道121号,Fujian,Xiamen,Huli District
501,First Class Lounge,Airport Lounge,24.539876897095017,118.12960027914816,Xiamen Gaoqi Int'l Airport,Fujian,Xiamen,Huli District
502,Xiamen (厦门),City,24.497818466692113,118.11315081459071,,Fujian,Xiamen,Huli District
503,T4 Xiamen Gaoqi Int'l Airport (厦门高崎国际机场T4航站楼),Airport Terminal,24.54679587850848,118.143180273414,湖里区高崎南八路,Fujian,Xiamen,Huli District
504,Xiamen Railway Station (厦门站),Train Station,24.471076284103045,118.10989379882812,900 Xiahe Rd,Fujian,Xiamen,Huli District
505,Xiamen International Cruise Center (厦门国际邮轮中心),Pier,24.484317022638287,118.07032585144043,2 Donggang Rd,Fujian,Xiamen,Huli District
506,Xiamen Int'l Conf. & Exhi. Center 厦门国际会展中心 (XICEC) (厦门国际会展中心 (XICEC)),Convention Center,24.468302713821195,118.1782661735505,会展路198号,Fujian,Xiamen,Huli District
507,Zhongshan Road Walking Street (中山路步行街),Pedestrian Plaza,24.456354053135907,118.07456496485118,Zhongshan Rd | 中山路,Fujian,Xiamen,Huli District
508,Nanputuo Temple (南普陀寺),Buddhist Temple,24.44319,118.091879,515 Siming S Rd,Fujian,Xiamen,Huli District
509,Zeng Cuo An (曾厝垵),Beach,24.42864815627972,118.11976859686078,,Fujian,Xiamen,Huli District
510,Ferry Terminal (轮渡码头),Boat or Ferry,24.45734584703334,118.06842148303984,15 Lujiang Rd,Fujian,Xiamen,Huli District
511,Xiamen University (厦门大学),University,24.43749949832758,118.09637546539307,思明区思明南路422号,Fujian,Xiamen,Huli District
512,Gulangyu Island (鼓浪屿 Gulangyu Island),Island,24.44827911096251,118.06489859901326,,Fujian,Xiamen,Huli District
513,Xiamen North Railway Station (厦门北站),Train Station,24.63884470814063,118.0690410733223,集美区后溪镇中铺路,Fujian,Xiamen,Huli District
514,Xiamen North Railway Station (厦门北站),Train Station,24.63884470814063,118.0690410733223,集美区后溪镇中铺路,Fujian,Xiamen,Tongan
515,Quanzhou Railway Station (泉州站 Quanzhou Railway Station),Train Station,24.9755614176106,118.56316993286477,丰泽区北峰组团北,Fujian,Quanzhou,Licheng District
516,Quanzhou Jinjiang International Airport (JJN) (泉州晋江国际机场),Airport,24.8024351334193,118.58771324157715,Donghuan E Rd | 东环路东侧,Fujian,Quanzhou,Licheng District
517,Quanzhou Jinjiang International Airport (JJN) (泉州晋江国际机场),Airport,24.8024351334193,118.58771324157715,Donghuan E Rd | 东环路东侧,Fujian,Quanzhou,Shishi
518,Quanzhou Railway Station (泉州站 Quanzhou Railway Station),Train Station,24.9755614176106,118.56316993286477,丰泽区北峰组团北,Fujian,Quanzhou,Fengze District
519,Quanzhou Jinjiang International Airport (JJN) (泉州晋江国际机场),Airport,24.8024351334193,118.58771324157715,Donghuan E Rd | 东环路东侧,Fujian,Quanzhou,Fengze District
520,Quanzhou Jinjiang International Airport (JJN) (泉州晋江国际机场),Airport,24.8024351334193,118.58771324157715,Donghuan E Rd | 东环路东侧,Fujian,Quanzhou,Jinjiang
521,Guangdong Folk Art Museum (Chen Clan Academy) (广东民间工艺博物馆 (陈家祠)),Historic Site,23.12908820240468,113.24016920271951,中山七路恩龙里34号,Guangdong,Guangzhou,Liwan
522,荔湾湖公园 Liwan Lake Park,Park,23.124606399143243,113.22738057076941,荔湾区龙津西路9号,Guangdong,Guangzhou,Liwan
523,南信牛奶甜品专家,Dessert Shop,23.116120361434948,113.23747669124896,,Guangdong,Guangzhou,Liwan
524,Shangxiajiu Pedestrian Street (上下九步行街),Pedestrian Plaza,23.11717022400253,113.24258267444277,荔湾区上下九,Guangdong,Guangzhou,Liwan
525,Shamian Island (沙面岛),Island,23.110614066104826,113.23760451635096,,Guangdong,Guangzhou,Liwan
526,Metropolitan Plaza (西城都荟),Shopping Mall,23.11281494051007,113.23524918380808,8 Huangsha Ave,Guangdong,Guangzhou,Liwan
527,广州文化公园 Guangzhou Cultural Park (广州文化公园),Park,23.11202051911282,113.24625811404174,中国,Guangdong,Guangzhou,Liwan
528,Starbucks (星巴克),Coffee Shop,23.10993619677242,113.23845414839055,50-52 Shamian St,Guangdong,Guangzhou,Liwan
529,Dong Fang Hotel (东方宾馆),Hotel,23.141678904503102,113.25291107529442,120 Liu Hua Road,Guangdong,Guangzhou,Liwan
530,Nan Fang Dasha Mobile and Electronics Market (Nan Fang Dasha Mobile and Electronics Market | 南方大厦 手机和电子产品市场),Electronics Store,23.111334107334752,113.24725228809591,,Guangdong,Guangzhou,Liwan
531,New Asia International Electronic and Digital City,Market,23.11146051552329,113.24791609900126,Liwan District,Guangdong,Guangzhou,Liwan
532,Gongyuanqian Metro Station (地铁公园前站),Metro Station,23.128198024305032,113.25872654828183,地铁一号线、二号线 - Metro Line 1 and Line 2.,Guangdong,Guangzhou,Liwan
533,Guangzhou (广州),City,23.128639087606913,113.25904369354248,,Guangdong,Guangzhou,Liwan
534,Cathedral of Sacred Heart of Jesus (石室圣心大教堂),Church,23.116733912019214,113.25488006037357,一德路旧部前56-7号,Guangdong,Guangzhou,Liwan
535,White Swan Hotel (白天鵝賓館),Hotel,23.108194569944274,113.2374586971612,1 Shamian S. St.,Guangdong,Guangzhou,Liwan
536,"China Hotel, A Marriott Hotel (中国大酒店)",Hotel,23.142622980670616,113.25424446031138,122 Linhua Rd,Guangdong,Guangzhou,Liwan
537,Sun Yat Sen Memorial Hall (中山纪念堂),History Museum,23.135431152822193,113.25924412299439,越秀区东风中路259号,Guangdong,Guangzhou,Liwan
538,Tiger Prawn Vietnamese Restaurant (大头虾越式风味餐厅 Tiger Prawn Vietnamese Restaurant),Vietnamese Restaurant,23.123946925558776,113.26200481501625,惠福东路548号,Guangdong,Guangzhou,Liwan
539,Great Buddha Temple (大佛古寺),Temple,23.124673907341958,113.2626132795644,惠福东路,Guangdong,Guangzhou,Liwan
540,Onelink International Plaza (万菱广场),Shopping Mall,23.116980346636325,113.256998681715,越秀区解放南路39号,Guangdong,Guangzhou,Liwan
541,Shamian Park (沙面公园),Park,23.10796222544435,113.23929727077484,at Shamian Island,Guangdong,Guangzhou,Liwan
542,Starbucks (星巴克),Coffee Shop,23.142940694151967,113.25520811386632,流花路120号,Guangdong,Guangzhou,Liwan
543,Yuexiu Park (越秀公园),Park,23.142471219611572,113.25976252555847,越秀区解放北路988号,Guangdong,Guangzhou,Liwan
544,Beijing Road Pedestrian Street (北京路步行街),Pedestrian Plaza,23.126428971429053,113.26350688934326,北京路,Guangdong,Guangzhou,Liwan
545,Haiying Clock & Watch City,Miscellaneous Shop,23.15192908619454,113.24661867826838,,Guangdong,Guangzhou,Liwan
546,Southern Watch Trade Center,Watch Shop,23.152038314880254,113.24767168416778,,Guangdong,Guangzhou,Liwan
547,Hui Mei Intl Panxin Fashion City,Women's Store,23.150807176790646,113.24572889846577,Guangzhou,Guangdong,Guangzhou,Liwan
548,Starbucks (星巴克),Coffee Shop,23.125035031749523,113.2648430803927,名盛廣場一層,Guangdong,Guangzhou,Liwan
549,Bai Yun World Leather Trade Center,Department Store,23.153521050181368,113.2575957818634,,Guangdong,Guangzhou,Liwan
550,HongXing Seafood Restaurant (鸿星海鲜酒家),Seafood Restaurant,23.116720604247494,113.26278155542111,越秀区沿江中路198号,Guangdong,Guangzhou,Liwan
551,UN Bookstore (聯合書店),Bookstore,23.127723236573406,113.26359196777958,越秀区北京路314号,Guangdong,Guangzhou,Liwan
552,Bai Ma Building (白马服装批发),Clothing Store,23.149419490021117,113.24849709853832,越秀区站南路16号,Guangdong,Guangzhou,Liwan
553,Bosphorus TURKİYE,Turkish Restaurant,23.142116551972965,113.27123435109812,Xiaobei Lu,Guangdong,Guangzhou,Liwan
554,Hotel Landmark Canton Guangzhou (华厦大酒店),Hotel,23.117514863361098,113.2621280008589,8 Qiaoguang Rd.,Guangdong,Guangzhou,Liwan
555,Mayflower Plaza (五月花广场),Shopping Mall,23.12842180607867,113.26167825891982,中山五路68号,Guangdong,Guangzhou,Liwan
556,珠江 Pearl River,River,23.111481402570217,113.25045693096374,Guangzhou,Guangdong,Guangzhou,Liwan
557,丽都酒店 Lido Hotel,Hotel,23.123399926800698,113.26398283985345,No.182 Beijing Road,Guangdong,Guangzhou,Liwan
558,Haizhu Square Metro Station (地铁海珠广场站),Metro Station,23.11788169513252,113.26056718826294,地铁二号线、六号线 - Metro Line 2、6,Guangdong,Guangzhou,Liwan
559,Beijing Lu Metro Station (地铁北京路站),Metro Station,23.121564074668026,113.26494187116623,地铁六号线 - Metro Line 6,Guangdong,Guangzhou,Liwan
560,Metro Guangzhou Railway Station (地铁广州火车站),Metro Station,23.15031397634976,113.25227718577048,地铁二号线、五号线 Gaungzhou Metro Line 2 and 5,Guangdong,Guangzhou,Liwan
561,Guangzhou Railway Station (广州站),Train Station,23.15129067850995,113.25284242630005,环市西路159号,Guangdong,Guangzhou,Liwan
562,Tianzi Wharf (天字码头),Pier,23.11759519558597,113.26566809082391,Yanjiang M Rd | 沿江中路,Guangdong,Guangzhou,Liwan
563,Pearl River Cruise,Boat or Ferry,23.11375968018658,113.27140992384696,pearl river guangzhou,Guangdong,Guangzhou,Liwan
564,Sadda Restaurant,Middle Eastern Restaurant,23.14193197962413,113.27282517618029,,Guangdong,Guangzhou,Liwan
565,Bosphorus Turkish Restaurant (铂斯西餐厅 Bosphorus Turkish Restaurant),Turkish Restaurant,23.134480522023395,113.27970658607721,No:1 Jienshi 6 Road Yuexiu District,Guangdong,Guangzhou,Liwan
566,Mado,Dessert Shop,23.13974006684029,113.28016598252135,,Guangdong,Guangzhou,Liwan
567,The Garden Hotel (The Garden Hotel | 花园酒店),Hotel,23.138203197285073,113.28088886301053,368 Huanshi E Rd,Guangdong,Guangzhou,Liwan
568,Crowne Plaza Guangzhou City Centre (广州中心皇冠假日酒店),Hotel,23.14100347704612,113.27751773427009,339 Huanshi E Rd,Guangdong,Guangzhou,Liwan
569,Sultan Turkish Restaurant,Turkish Restaurant,23.140702867450646,113.28152458771676,"No:367, HuangShi Dong Lu",Guangdong,Guangzhou,Liwan
570,Starbucks (星巴克),Coffee Shop,23.138962158055342,113.28015495794388,环市东路362-363号,Guangdong,Guangzhou,Liwan
571,Shengxian Dashatou Trading Market (盛贤大沙头旧货交易市场),Electronics Store,23.11909147869467,113.2795875336228,,Guangdong,Guangzhou,Liwan
572,Garden Hotel Carousel Restaurant,BBQ Joint,23.138166603639093,113.28088706893303,,Guangdong,Guangzhou,Liwan
573,Highsun Electronic Market (海印广场),Electronics Store,23.118121489034632,113.28222637137867,,Guangdong,Guangzhou,Liwan
574,GZ Friendship Store (广州友谊商店),Shopping Mall,23.13979641934375,113.2815692480321,世贸新天地,Guangdong,Guangzhou,Liwan
575,Guangzhou Baiyun Hotel (白云宾馆),Hotel,23.139814476349603,113.28068699039636,367 Huan Shi Dong Road | 环市东路367号,Guangdong,Guangzhou,Liwan
576,China Plaza (中华广场 China Plaza),Shopping Mall,23.128998728591753,113.27752763468278,中山三路33号,Guangdong,Guangzhou,Liwan
577,Asia International Hotel,Hotel,23.1413226079048,113.27496923216759,,Guangdong,Guangzhou,Liwan
578,Baiyun Mountain (白云山风景名胜区),Mountain,23.16324610393233,113.2918621686893,No.801 Guangyuan Middle Rd.,Guangdong,Guangzhou,Liwan
579,Four Seasons Hotel Guangzhou (广州四季酒店),Hotel,23.120497676964256,113.3177461645547,5 Zhujiang West Rd,Guangdong,Guangzhou,Liwan
580,Guangzhou Opera House (广州大剧院),Opera House,23.117864427356658,113.31697940826416,1 Zhujiang W Rd | 珠江西路1号,Guangdong,Guangzhou,Liwan
581,Grand Hyatt Guangzhou (广州富力君悦大酒店),Hotel,23.1248858947745,113.31838393860215,12 Zhujiang W Rd,Guangdong,Guangzhou,Liwan
582,Huacheng Plaza (花城广场),Plaza,23.121843997790997,113.31920451662414,珠江新城珠江西路和珠江东路,Guangdong,Guangzhou,Liwan
583,Sheraton Guangzhou Hotel (广州喜来登酒店),Hotel,23.135251176959414,113.3163082756132,"208 Tianhe Road, Tianhe District",Guangdong,Guangzhou,Liwan
584,W Guangzhou (广州 W 酒店),Hotel,23.124509457423283,113.32240880410977,"26 Xian Cun Road, Tianhe District",Guangdong,Guangzhou,Liwan
585,Guangzhou Library (广州图书馆),Library,23.11883959401955,113.31952015654117,珠江东路4号,Guangdong,Guangzhou,Liwan
586,"The Ritz-Carlton, Guangzhou",Hotel,23.118934590863454,113.32185030312567,"3 Xing An Road, Pearl River New City, Tianhe District",Guangdong,Guangzhou,Liwan
587,Guangzhou Bridge (广州大桥),Bridge,23.109694053364795,113.31037044525146,越秀区广州大道中,Guangdong,Guangzhou,Liwan
588,Canton Tower (广州塔),Monument / Landmark,23.109086730624032,113.3191607379922,222 Yuejiang W Rd,Guangdong,Guangzhou,Liwan
589,Apple Parc Central (Apple 天环广场),Electronics Store,23.13497489488063,113.31936151963467,218 Tianhe Rd | 天河路218号,Guangdong,Guangzhou,Liwan
590,Hilton Guangzhou Tianhe,Hotel,23.148496945170077,113.31516741733634,215 Linhe West Cross Rd,Guangdong,Guangzhou,Liwan
591,K11 Art Mall,Shopping Mall,23.118268,113.321398,天河区珠江新城 珠江东路6号,Guangdong,Guangzhou,Liwan
592,Tai Koo Hui (太古汇),Shopping Mall,23.136507346468647,113.32714254615725,383 Tianhe E. Rd.,Guangdong,Guangzhou,Liwan
593,IGC Mall (天汇广场),Shopping Mall,23.1186806140694,113.32651965435518,222 Xingmin Rd | 兴民路222号,Guangdong,Guangzhou,Liwan
594,Guangzhou Marriott Hotel Tianhe (广州天河万豪酒店),Hotel,23.135506676315504,113.32054444058743,"228 Tianhe Rd, 天河路228号",Guangdong,Guangzhou,Liwan
595,方所 Fangsuo Commune (方所),Bookstore,23.136570664982244,113.32585494848622,383 Tianhe Rd,Guangdong,Guangzhou,Liwan
596,Chimelong International Circus (长隆国际大马戏),Theme Park,23.003401,113.331416,,Guangdong,Guangzhou,Panyu
597,Chimelong Paradise Theme Park,Theme Park,23.000602539971528,113.32427511354976,,Guangdong,Guangzhou,Panyu
598,Chimelong Safari Park (长隆野生动物世界),Park,23.00296531820421,113.31031924868662,,Guangdong,Guangzhou,Panyu
599,Guangzhou South Railway Station (广州南站),Train Station,22.99143403737055,113.26429190983004,番禺区钟村镇石壁街,Guangdong,Guangzhou,Panyu
600,The Garden Hotel (The Garden Hotel | 花园酒店),Hotel,23.138203197285073,113.28088886301053,368 Huanshi E Rd,Guangdong,Guangzhou,Luogang
601,Sultan Turkish Restaurant,Turkish Restaurant,23.140702867450646,113.28152458771676,"No:367, HuangShi Dong Lu",Guangdong,Guangzhou,Luogang
602,Mado,Dessert Shop,23.13974006684029,113.28016598252135,,Guangdong,Guangzhou,Luogang
603,Garden Hotel Carousel Restaurant,BBQ Joint,23.138166603639093,113.28088706893303,,Guangdong,Guangzhou,Luogang
604,Starbucks (星巴克),Coffee Shop,23.138962158055342,113.28015495794388,环市东路362-363号,Guangdong,Guangzhou,Luogang
605,Bosphorus Turkish Restaurant (铂斯西餐厅 Bosphorus Turkish Restaurant),Turkish Restaurant,23.134480522023395,113.27970658607721,No:1 Jienshi 6 Road Yuexiu District,Guangdong,Guangzhou,Luogang
606,GZ Friendship Store (广州友谊商店),Shopping Mall,23.13979641934375,113.2815692480321,世贸新天地,Guangdong,Guangzhou,Luogang
607,Crowne Plaza Guangzhou City Centre (广州中心皇冠假日酒店),Hotel,23.14100347704612,113.27751773427009,339 Huanshi E Rd,Guangdong,Guangzhou,Luogang
608,Guangzhou Baiyun Hotel (白云宾馆),Hotel,23.139814476349603,113.28068699039636,367 Huan Shi Dong Road | 环市东路367号,Guangdong,Guangzhou,Luogang
609,Sadda Restaurant,Middle Eastern Restaurant,23.14193197962413,113.27282517618029,,Guangdong,Guangzhou,Luogang
610,Bosphorus TURKİYE,Turkish Restaurant,23.142116551972965,113.27123435109812,Xiaobei Lu,Guangdong,Guangzhou,Luogang
611,Kama Club,Nightclub,23.146428514986827,113.28515143481914,"248号 Hengfu Road, 金怡楼,",Guangdong,Guangzhou,Luogang
612,China Plaza (中华广场 China Plaza),Shopping Mall,23.128998728591753,113.27752763468278,中山三路33号,Guangdong,Guangzhou,Luogang
613,Asia International Hotel,Hotel,23.1413226079048,113.27496923216759,,Guangdong,Guangzhou,Luogang
614,Guangzhou Zoo (广州动物园),Zoo,23.143371759627346,113.29943347096167,120 Xianlie M Rd | 先烈中路120,Guangdong,Guangzhou,Luogang
615,Shengxian Dashatou Trading Market (盛贤大沙头旧货交易市场),Electronics Store,23.11909147869467,113.2795875336228,,Guangdong,Guangzhou,Luogang
616,Great Buddha Temple (大佛古寺),Temple,23.124673907341958,113.2626132795644,惠福东路,Guangdong,Guangzhou,Luogang
617,Highsun Electronic Market (海印广场),Electronics Store,23.118121489034632,113.28222637137867,,Guangdong,Guangzhou,Luogang
618,Tiger Prawn Vietnamese Restaurant (大头虾越式风味餐厅 Tiger Prawn Vietnamese Restaurant),Vietnamese Restaurant,23.123946925558776,113.26200481501625,惠福东路548号,Guangdong,Guangzhou,Luogang
619,Beijing Road Pedestrian Street (北京路步行街),Pedestrian Plaza,23.126428971429053,113.26350688934326,北京路,Guangdong,Guangzhou,Luogang
620,Yuexiu Park (越秀公园),Park,23.142471219611572,113.25976252555847,越秀区解放北路988号,Guangdong,Guangzhou,Luogang
621,Sun Yat Sen Memorial Hall (中山纪念堂),History Museum,23.135431152822193,113.25924412299439,越秀区东风中路259号,Guangdong,Guangzhou,Luogang
622,Starbucks (星巴克),Coffee Shop,23.125035031749523,113.2648430803927,名盛廣場一層,Guangdong,Guangzhou,Luogang
623,Sheraton Guangzhou Hotel (广州喜来登酒店),Hotel,23.135251176959414,113.3163082756132,"208 Tianhe Road, Tianhe District",Guangdong,Guangzhou,Luogang
624,Baiyun Mountain (白云山风景名胜区),Mountain,23.16324610393233,113.2918621686893,No.801 Guangyuan Middle Rd.,Guangdong,Guangzhou,Luogang
625,Hilton Guangzhou Tianhe,Hotel,23.148496945170077,113.31516741733634,215 Linhe West Cross Rd,Guangdong,Guangzhou,Luogang
626,"China Hotel, A Marriott Hotel (中国大酒店)",Hotel,23.142622980670616,113.25424446031138,122 Linhua Rd,Guangdong,Guangzhou,Luogang
627,Apple Parc Central (Apple 天环广场),Electronics Store,23.13497489488063,113.31936151963467,218 Tianhe Rd | 天河路218号,Guangdong,Guangzhou,Luogang
628,Grand Hyatt Guangzhou (广州富力君悦大酒店),Hotel,23.1248858947745,113.31838393860215,12 Zhujiang W Rd,Guangdong,Guangzhou,Luogang
629,Four Seasons Hotel Guangzhou (广州四季酒店),Hotel,23.120497676964256,113.3177461645547,5 Zhujiang West Rd,Guangdong,Guangzhou,Luogang
630,Bai Yun World Leather Trade Center,Department Store,23.153521050181368,113.2575957818634,,Guangdong,Guangzhou,Luogang
631,Guangzhou Marriott Hotel Tianhe (广州天河万豪酒店),Hotel,23.135506676315504,113.32054444058743,"228 Tianhe Rd, 天河路228号",Guangdong,Guangzhou,Luogang
632,Starbucks (星巴克),Coffee Shop,23.142940694151967,113.25520811386632,流花路120号,Guangdong,Guangzhou,Luogang
633,Dong Fang Hotel (东方宾馆),Hotel,23.141678904503102,113.25291107529442,120 Liu Hua Road,Guangdong,Guangzhou,Luogang
634,UN Bookstore (聯合書店),Bookstore,23.127723236573406,113.26359196777958,越秀区北京路314号,Guangdong,Guangzhou,Luogang
635,AEON (AEON 永旺),Supermarket,23.134767424175212,113.31729457955643,天河区天河路208号天河城广场B1层,Guangdong,Guangzhou,Luogang
636,Tee Mall (天河城广场),Shopping Mall,23.134564605876143,113.31728136386869,天河区天河路208号,Guangdong,Guangzhou,Luogang
637,The Westin Guangzhou (广州海航威斯汀酒店),Hotel,23.14591466750057,113.32072221083351,"6 Lin He Zhong Road, Tian He District",Guangdong,Guangzhou,Luogang
638,Grandview Mall (正佳广场),Shopping Mall,23.13483583980339,113.32170493051557,228 Tianhe Rd | 天河路228号,Guangdong,Guangzhou,Luogang
639,HongXing Seafood Restaurant (鸿星海鲜酒家),Seafood Restaurant,23.116720604247494,113.26278155542111,越秀区沿江中路198号,Guangdong,Guangzhou,Luogang
640,IKEA (宜家家居),Furniture / Home Store,23.148928307302167,113.32042087500238,天河区林和中路156号天誉花园1-2层,Guangdong,Guangzhou,Luogang
641,Starbucks (星巴克),Coffee Shop,23.13615171563284,113.31709483786352,Tianhe Road,Guangdong,Guangzhou,Luogang
642,UA Cinemas (UA花城汇电影院),Movie Theater,23.126939948721656,113.31961737631282,花城大道89号,Guangdong,Guangzhou,Luogang
643,Mall of the World (花城汇),Shopping Mall,23.128836417637824,113.31972599029541,Zhujiang E Rd,Guangdong,Guangzhou,Luogang
644,Hotel Landmark Canton Guangzhou (华厦大酒店),Hotel,23.117514863361098,113.2621280008589,8 Qiaoguang Rd.,Guangdong,Guangzhou,Luogang
645,Mayflower Plaza (五月花广场),Shopping Mall,23.12842180607867,113.26167825891982,中山五路68号,Guangdong,Guangzhou,Luogang
646,Fashion Tianhe Plaza (时尚天河商业广场),Shopping Mall,23.13666539815365,113.31931500022803,天河区天河体育中心南门旁,Guangdong,Guangzhou,Luogang
647,丽都酒店 Lido Hotel,Hotel,23.123399926800698,113.26398283985345,No.182 Beijing Road,Guangdong,Guangzhou,Luogang
648,Tianhe Sports Center (天河体育中心),Stadium,23.140297860198004,113.31922777633177,267号-307号 Tianhe Zhijie,Guangdong,Guangzhou,Luogang
649,Guangzhou Opera House (广州大剧院),Opera House,23.117864427356658,113.31697940826416,1 Zhujiang W Rd | 珠江西路1号,Guangdong,Guangzhou,Luogang
650,Huacheng Plaza (花城广场),Plaza,23.121843997790997,113.31920451662414,珠江新城珠江西路和珠江东路,Guangdong,Guangzhou,Luogang
651,W Guangzhou (广州 W 酒店),Hotel,23.124509457423283,113.32240880410977,"26 Xian Cun Road, Tianhe District",Guangdong,Guangzhou,Luogang
652,Guangzhou Library (广州图书馆),Library,23.11883959401955,113.31952015654117,珠江东路4号,Guangdong,Guangzhou,Luogang
653,方所 Fangsuo Commune (方所),Bookstore,23.136570664982244,113.32585494848622,383 Tianhe Rd,Guangdong,Guangzhou,Luogang
654,Onelink International Plaza (万菱广场),Shopping Mall,23.116980346636325,113.256998681715,越秀区解放南路39号,Guangdong,Guangzhou,Luogang
655,Tai Koo Hui (太古汇),Shopping Mall,23.136507346468647,113.32714254615725,383 Tianhe E. Rd.,Guangdong,Guangzhou,Luogang
656,"The Ritz-Carlton, Guangzhou",Hotel,23.118934590863454,113.32185030312567,"3 Xing An Road, Pearl River New City, Tianhe District",Guangdong,Guangzhou,Luogang
657,K11 Art Mall,Shopping Mall,23.118268,113.321398,天河区珠江新城 珠江东路6号,Guangdong,Guangzhou,Luogang
658,Guangzhou Bridge (广州大桥),Bridge,23.109694053364795,113.31037044525146,越秀区广州大道中,Guangdong,Guangzhou,Luogang
659,辉盛阁国际公寓 Fraser Suites Guangzhou,Hotel,23.135507701843984,113.32585136015608,232-2 Tianhe Road,Guangdong,Guangzhou,Luogang
660,Bosphorus Turkish Restaurant 铂斯土耳其西餐厅,Turkish Restaurant,23.123140696532108,113.32575137961592,兴盛路11，17号越和兴盛汇G层G区9号铺,Guangdong,Guangzhou,Luogang
661,IGC Mall (天汇广场),Shopping Mall,23.1186806140694,113.32651965435518,222 Xingmin Rd | 兴民路222号,Guangdong,Guangzhou,Luogang
662,Starbucks (星巴克),Coffee Shop,23.123307471811117,113.32792270943935,猎德大道31号中海璟晖华庭二期商铺1楼101铺,Guangdong,Guangzhou,Luogang
663,Sultan Restaurant Turkish BBQ (苏坦土耳其餐厅),Turkish Restaurant,23.12317494410899,113.32741121567639,兴盛路,Guangdong,Guangzhou,Luogang
664,Canton Tower (广州塔),Monument / Landmark,23.109086730624032,113.3191607379922,222 Yuejiang W Rd,Guangdong,Guangzhou,Luogang
665,Hooley's Irish Pub & Restaurant,Pub,23.123390898268976,113.32420794283897,"101, 8 Xing Sheng Lu, Zhujiang New Town",Guangdong,Guangzhou,Luogang
666,Jianguo Hotel (广州建国酒店),Hotel,23.150531129401454,113.32029618597709,172 Linhe M Rd,Guangdong,Guangzhou,Luogang
667,Haixinsha Asian Olympic Games Park (海心沙亚运公园),Park,23.113956919230027,113.31899642944336,天河区海心沙岛,Guangdong,Guangzhou,Luogang
668,广州文化公园 Guangzhou Cultural Park (广州文化公园),Park,23.11202051911282,113.24625811404174,中国,Guangdong,Guangzhou,Luogang
669,Haiying Clock & Watch City,Miscellaneous Shop,23.15192908619454,113.24661867826838,,Guangdong,Guangzhou,Luogang
670,Sun Yat Sen Memorial Hall (中山纪念堂),History Museum,23.135431152822193,113.25924412299439,越秀区东风中路259号,Guangdong,Guangzhou,Yuexiu
671,Mayflower Plaza (五月花广场),Shopping Mall,23.12842180607867,113.26167825891982,中山五路68号,Guangdong,Guangzhou,Yuexiu
672,UN Bookstore (聯合書店),Bookstore,23.127723236573406,113.26359196777958,越秀区北京路314号,Guangdong,Guangzhou,Yuexiu
673,Guangzhou (广州),City,23.128639087606913,113.25904369354248,,Guangdong,Guangzhou,Yuexiu
674,Gongyuanqian Metro Station (地铁公园前站),Metro Station,23.128198024305032,113.25872654828183,地铁一号线、二号线 - Metro Line 1 and Line 2.,Guangdong,Guangzhou,Yuexiu
675,Great Buddha Temple (大佛古寺),Temple,23.124673907341958,113.2626132795644,惠福东路,Guangdong,Guangzhou,Yuexiu
676,Beijing Road Pedestrian Street (北京路步行街),Pedestrian Plaza,23.126428971429053,113.26350688934326,北京路,Guangdong,Guangzhou,Yuexiu
677,Tiger Prawn Vietnamese Restaurant (大头虾越式风味餐厅 Tiger Prawn Vietnamese Restaurant),Vietnamese Restaurant,23.123946925558776,113.26200481501625,惠福东路548号,Guangdong,Guangzhou,Yuexiu
678,Starbucks (星巴克),Coffee Shop,23.125035031749523,113.2648430803927,名盛廣場一層,Guangdong,Guangzhou,Yuexiu
679,Yuexiu Park (越秀公园),Park,23.142471219611572,113.25976252555847,越秀区解放北路988号,Guangdong,Guangzhou,Yuexiu
680,"China Hotel, A Marriott Hotel (中国大酒店)",Hotel,23.142622980670616,113.25424446031138,122 Linhua Rd,Guangdong,Guangzhou,Yuexiu
681,Dong Fang Hotel (东方宾馆),Hotel,23.141678904503102,113.25291107529442,120 Liu Hua Road,Guangdong,Guangzhou,Yuexiu
682,Starbucks (星巴克),Coffee Shop,23.142940694151967,113.25520811386632,流花路120号,Guangdong,Guangzhou,Yuexiu
683,Sadda Restaurant,Middle Eastern Restaurant,23.14193197962413,113.27282517618029,,Guangdong,Guangzhou,Yuexiu
684,Bosphorus TURKİYE,Turkish Restaurant,23.142116551972965,113.27123435109812,Xiaobei Lu,Guangdong,Guangzhou,Yuexiu
685,Onelink International Plaza (万菱广场),Shopping Mall,23.116980346636325,113.256998681715,越秀区解放南路39号,Guangdong,Guangzhou,Yuexiu
686,Bosphorus Turkish Restaurant (铂斯西餐厅 Bosphorus Turkish Restaurant),Turkish Restaurant,23.134480522023395,113.27970658607721,No:1 Jienshi 6 Road Yuexiu District,Guangdong,Guangzhou,Yuexiu
687,Crowne Plaza Guangzhou City Centre (广州中心皇冠假日酒店),Hotel,23.14100347704612,113.27751773427009,339 Huanshi E Rd,Guangdong,Guangzhou,Yuexiu
688,HongXing Seafood Restaurant (鸿星海鲜酒家),Seafood Restaurant,23.116720604247494,113.26278155542111,越秀区沿江中路198号,Guangdong,Guangzhou,Yuexiu
689,Starbucks (星巴克),Coffee Shop,23.138962158055342,113.28015495794388,环市东路362-363号,Guangdong,Guangzhou,Yuexiu
690,丽都酒店 Lido Hotel,Hotel,23.123399926800698,113.26398283985345,No.182 Beijing Road,Guangdong,Guangzhou,Yuexiu
691,Hotel Landmark Canton Guangzhou (华厦大酒店),Hotel,23.117514863361098,113.2621280008589,8 Qiaoguang Rd.,Guangdong,Guangzhou,Yuexiu
692,China Plaza (中华广场 China Plaza),Shopping Mall,23.128998728591753,113.27752763468278,中山三路33号,Guangdong,Guangzhou,Yuexiu
693,Asia International Hotel,Hotel,23.1413226079048,113.27496923216759,,Guangdong,Guangzhou,Yuexiu
694,Beijing Lu Metro Station (地铁北京路站),Metro Station,23.121564074668026,113.26494187116623,地铁六号线 - Metro Line 6,Guangdong,Guangzhou,Yuexiu
695,Haizhu Square Metro Station (地铁海珠广场站),Metro Station,23.11788169513252,113.26056718826294,地铁二号线、六号线 - Metro Line 2、6,Guangdong,Guangzhou,Yuexiu
696,Tianzi Wharf (天字码头),Pier,23.11759519558597,113.26566809082391,Yanjiang M Rd | 沿江中路,Guangdong,Guangzhou,Yuexiu
697,Cathedral of Sacred Heart of Jesus (石室圣心大教堂),Church,23.116733912019214,113.25488006037357,一德路旧部前56-7号,Guangdong,Guangzhou,Yuexiu
698,Mado,Dessert Shop,23.13974006684029,113.28016598252135,,Guangdong,Guangzhou,Yuexiu
699,The Garden Hotel (The Garden Hotel | 花园酒店),Hotel,23.138203197285073,113.28088886301053,368 Huanshi E Rd,Guangdong,Guangzhou,Yuexiu
700,Sultan Turkish Restaurant,Turkish Restaurant,23.140702867450646,113.28152458771676,"No:367, HuangShi Dong Lu",Guangdong,Guangzhou,Yuexiu
701,Garden Hotel Carousel Restaurant,BBQ Joint,23.138166603639093,113.28088706893303,,Guangdong,Guangzhou,Yuexiu
702,Shengxian Dashatou Trading Market (盛贤大沙头旧货交易市场),Electronics Store,23.11909147869467,113.2795875336228,,Guangdong,Guangzhou,Yuexiu
703,Bai Yun World Leather Trade Center,Department Store,23.153521050181368,113.2575957818634,,Guangdong,Guangzhou,Yuexiu
704,Guangdong Folk Art Museum (Chen Clan Academy) (广东民间工艺博物馆 (陈家祠)),Historic Site,23.12908820240468,113.24016920271951,中山七路恩龙里34号,Guangdong,Guangzhou,Yuexiu
705,广州文化公园 Guangzhou Cultural Park (广州文化公园),Park,23.11202051911282,113.24625811404174,中国,Guangdong,Guangzhou,Yuexiu
706,GZ Friendship Store (广州友谊商店),Shopping Mall,23.13979641934375,113.2815692480321,世贸新天地,Guangdong,Guangzhou,Yuexiu
707,Guangzhou Baiyun Hotel (白云宾馆),Hotel,23.139814476349603,113.28068699039636,367 Huan Shi Dong Road | 环市东路367号,Guangdong,Guangzhou,Yuexiu
708,Southern Watch Trade Center,Watch Shop,23.152038314880254,113.24767168416778,,Guangdong,Guangzhou,Yuexiu
709,Haiying Clock & Watch City,Miscellaneous Shop,23.15192908619454,113.24661867826838,,Guangdong,Guangzhou,Yuexiu
710,Nan Fang Dasha Mobile and Electronics Market (Nan Fang Dasha Mobile and Electronics Market | 南方大厦 手机和电子产品市场),Electronics Store,23.111334107334752,113.24725228809591,,Guangdong,Guangzhou,Yuexiu
711,New Asia International Electronic and Digital City,Market,23.11146051552329,113.24791609900126,Liwan District,Guangdong,Guangzhou,Yuexiu
712,Highsun Electronic Market (海印广场),Electronics Store,23.118121489034632,113.28222637137867,,Guangdong,Guangzhou,Yuexiu
713,Hui Mei Intl Panxin Fashion City,Women's Store,23.150807176790646,113.24572889846577,Guangzhou,Guangdong,Guangzhou,Yuexiu
714,Shamian Island (沙面岛),Island,23.110614066104826,113.23760451635096,,Guangdong,Guangzhou,Yuexiu
715,Starbucks (星巴克),Coffee Shop,23.10993619677242,113.23845414839055,50-52 Shamian St,Guangdong,Guangzhou,Yuexiu
716,南信牛奶甜品专家,Dessert Shop,23.116120361434948,113.23747669124896,,Guangdong,Guangzhou,Yuexiu
717,Shangxiajiu Pedestrian Street (上下九步行街),Pedestrian Plaza,23.11717022400253,113.24258267444277,荔湾区上下九,Guangdong,Guangzhou,Yuexiu
718,White Swan Hotel (白天鵝賓館),Hotel,23.108194569944274,113.2374586971612,1 Shamian S. St.,Guangdong,Guangzhou,Yuexiu
719,Shamian Park (沙面公园),Park,23.10796222544435,113.23929727077484,at Shamian Island,Guangdong,Guangzhou,Yuexiu
720,Bai Ma Building (白马服装批发),Clothing Store,23.149419490021117,113.24849709853832,越秀区站南路16号,Guangdong,Guangzhou,Yuexiu
721,Metropolitan Plaza (西城都荟),Shopping Mall,23.11281494051007,113.23524918380808,8 Huangsha Ave,Guangdong,Guangzhou,Yuexiu
722,荔湾湖公园 Liwan Lake Park,Park,23.124606399143243,113.22738057076941,荔湾区龙津西路9号,Guangdong,Guangzhou,Yuexiu
723,Kama Club,Nightclub,23.146428514986827,113.28515143481914,"248号 Hengfu Road, 金怡楼,",Guangdong,Guangzhou,Yuexiu
724,Baiyun Mountain (白云山风景名胜区),Mountain,23.16324610393233,113.2918621686893,No.801 Guangyuan Middle Rd.,Guangdong,Guangzhou,Yuexiu
725,Four Seasons Hotel Guangzhou (广州四季酒店),Hotel,23.120497676964256,113.3177461645547,5 Zhujiang West Rd,Guangdong,Guangzhou,Yuexiu
726,Guangzhou Opera House (广州大剧院),Opera House,23.117864427356658,113.31697940826416,1 Zhujiang W Rd | 珠江西路1号,Guangdong,Guangzhou,Yuexiu
727,Grand Hyatt Guangzhou (广州富力君悦大酒店),Hotel,23.1248858947745,113.31838393860215,12 Zhujiang W Rd,Guangdong,Guangzhou,Yuexiu
728,Sheraton Guangzhou Hotel (广州喜来登酒店),Hotel,23.135251176959414,113.3163082756132,"208 Tianhe Road, Tianhe District",Guangdong,Guangzhou,Yuexiu
729,Huacheng Plaza (花城广场),Plaza,23.121843997790997,113.31920451662414,珠江新城珠江西路和珠江东路,Guangdong,Guangzhou,Yuexiu
730,W Guangzhou (广州 W 酒店),Hotel,23.124509457423283,113.32240880410977,"26 Xian Cun Road, Tianhe District",Guangdong,Guangzhou,Yuexiu
731,Guangzhou Library (广州图书馆),Library,23.11883959401955,113.31952015654117,珠江东路4号,Guangdong,Guangzhou,Yuexiu
732,"The Ritz-Carlton, Guangzhou",Hotel,23.118934590863454,113.32185030312567,"3 Xing An Road, Pearl River New City, Tianhe District",Guangdong,Guangzhou,Yuexiu
733,Apple Parc Central (Apple 天环广场),Electronics Store,23.13497489488063,113.31936151963467,218 Tianhe Rd | 天河路218号,Guangdong,Guangzhou,Yuexiu
734,Hilton Guangzhou Tianhe,Hotel,23.148496945170077,113.31516741733634,215 Linhe West Cross Rd,Guangdong,Guangzhou,Yuexiu
735,Guangzhou Bridge (广州大桥),Bridge,23.109694053364795,113.31037044525146,越秀区广州大道中,Guangdong,Guangzhou,Yuexiu
736,Tai Koo Hui (太古汇),Shopping Mall,23.136507346468647,113.32714254615725,383 Tianhe E. Rd.,Guangdong,Guangzhou,Yuexiu
737,Guangzhou Marriott Hotel Tianhe (广州天河万豪酒店),Hotel,23.135506676315504,113.32054444058743,"228 Tianhe Rd, 天河路228号",Guangdong,Guangzhou,Yuexiu
738,K11 Art Mall,Shopping Mall,23.118268,113.321398,天河区珠江新城 珠江东路6号,Guangdong,Guangzhou,Yuexiu
739,Canton Tower (广州塔),Monument / Landmark,23.109086730624032,113.3191607379922,222 Yuejiang W Rd,Guangdong,Guangzhou,Yuexiu
740,方所 Fangsuo Commune (方所),Bookstore,23.136570664982244,113.32585494848622,383 Tianhe Rd,Guangdong,Guangzhou,Yuexiu
741,IGC Mall (天汇广场),Shopping Mall,23.1186806140694,113.32651965435518,222 Xingmin Rd | 兴民路222号,Guangdong,Guangzhou,Yuexiu
742,Bai Yun World Leather Trade Center,Department Store,23.153521050181368,113.2575957818634,,Guangdong,Guangzhou,Baiyun
743,Bosphorus TURKİYE,Turkish Restaurant,23.142116551972965,113.27123435109812,Xiaobei Lu,Guangdong,Guangzhou,Baiyun
744,Guangzhou Railway Station (广州站),Train Station,23.15129067850995,113.25284242630005,环市西路159号,Guangdong,Guangzhou,Baiyun
745,Metro Guangzhou Railway Station (地铁广州火车站),Metro Station,23.15031397634976,113.25227718577048,地铁二号线、五号线 Gaungzhou Metro Line 2 and 5,Guangdong,Guangzhou,Baiyun
746,Sadda Restaurant,Middle Eastern Restaurant,23.14193197962413,113.27282517618029,,Guangdong,Guangzhou,Baiyun
747,Yuexiu Park (越秀公园),Park,23.142471219611572,113.25976252555847,越秀区解放北路988号,Guangdong,Guangzhou,Baiyun
748,Crowne Plaza Guangzhou City Centre (广州中心皇冠假日酒店),Hotel,23.14100347704612,113.27751773427009,339 Huanshi E Rd,Guangdong,Guangzhou,Baiyun
749,"China Hotel, A Marriott Hotel (中国大酒店)",Hotel,23.142622980670616,113.25424446031138,122 Linhua Rd,Guangdong,Guangzhou,Baiyun
750,Mado,Dessert Shop,23.13974006684029,113.28016598252135,,Guangdong,Guangzhou,Baiyun
751,Sultan Turkish Restaurant,Turkish Restaurant,23.140702867450646,113.28152458771676,"No:367, HuangShi Dong Lu",Guangdong,Guangzhou,Baiyun
752,Southern Watch Trade Center,Watch Shop,23.152038314880254,113.24767168416778,,Guangdong,Guangzhou,Baiyun
753,Haiying Clock & Watch City,Miscellaneous Shop,23.15192908619454,113.24661867826838,,Guangdong,Guangzhou,Baiyun
754,Starbucks (星巴克),Coffee Shop,23.142940694151967,113.25520811386632,流花路120号,Guangdong,Guangzhou,Baiyun
755,Baiyun Mountain (白云山风景名胜区),Mountain,23.16324610393233,113.2918621686893,No.801 Guangyuan Middle Rd.,Guangdong,Guangzhou,Baiyun
756,The Garden Hotel (The Garden Hotel | 花园酒店),Hotel,23.138203197285073,113.28088886301053,368 Huanshi E Rd,Guangdong,Guangzhou,Baiyun
757,Dong Fang Hotel (东方宾馆),Hotel,23.141678904503102,113.25291107529442,120 Liu Hua Road,Guangdong,Guangzhou,Baiyun
758,Starbucks (星巴克),Coffee Shop,23.138962158055342,113.28015495794388,环市东路362-363号,Guangdong,Guangzhou,Baiyun
759,Garden Hotel Carousel Restaurant,BBQ Joint,23.138166603639093,113.28088706893303,,Guangdong,Guangzhou,Baiyun
760,Hui Mei Intl Panxin Fashion City,Women's Store,23.150807176790646,113.24572889846577,Guangzhou,Guangdong,Guangzhou,Baiyun
761,Sun Yat Sen Memorial Hall (中山纪念堂),History Museum,23.135431152822193,113.25924412299439,越秀区东风中路259号,Guangdong,Guangzhou,Baiyun
762,Bosphorus Turkish Restaurant (铂斯西餐厅 Bosphorus Turkish Restaurant),Turkish Restaurant,23.134480522023395,113.27970658607721,No:1 Jienshi 6 Road Yuexiu District,Guangdong,Guangzhou,Baiyun
763,GZ Friendship Store (广州友谊商店),Shopping Mall,23.13979641934375,113.2815692480321,世贸新天地,Guangdong,Guangzhou,Baiyun
764,Guangzhou Baiyun Hotel (白云宾馆),Hotel,23.139814476349603,113.28068699039636,367 Huan Shi Dong Road | 环市东路367号,Guangdong,Guangzhou,Baiyun
765,Asia International Hotel,Hotel,23.1413226079048,113.27496923216759,,Guangdong,Guangzhou,Baiyun
766,Bai Ma Building (白马服装批发),Clothing Store,23.149419490021117,113.24849709853832,越秀区站南路16号,Guangdong,Guangzhou,Baiyun
767,Kama Club,Nightclub,23.146428514986827,113.28515143481914,"248号 Hengfu Road, 金怡楼,",Guangdong,Guangzhou,Baiyun
768,UN Bookstore (聯合書店),Bookstore,23.127723236573406,113.26359196777958,越秀区北京路314号,Guangdong,Guangzhou,Baiyun
769,China Plaza (中华广场 China Plaza),Shopping Mall,23.128998728591753,113.27752763468278,中山三路33号,Guangdong,Guangzhou,Baiyun
770,Mayflower Plaza (五月花广场),Shopping Mall,23.12842180607867,113.26167825891982,中山五路68号,Guangdong,Guangzhou,Baiyun
771,Guangzhou (广州),City,23.128639087606913,113.25904369354248,,Guangdong,Guangzhou,Baiyun
772,Great Buddha Temple (大佛古寺),Temple,23.124673907341958,113.2626132795644,惠福东路,Guangdong,Guangzhou,Baiyun
773,Tiger Prawn Vietnamese Restaurant (大头虾越式风味餐厅 Tiger Prawn Vietnamese Restaurant),Vietnamese Restaurant,23.123946925558776,113.26200481501625,惠福东路548号,Guangdong,Guangzhou,Baiyun
774,Beijing Road Pedestrian Street (北京路步行街),Pedestrian Plaza,23.126428971429053,113.26350688934326,北京路,Guangdong,Guangzhou,Baiyun
775,Starbucks (星巴克),Coffee Shop,23.125035031749523,113.2648430803927,名盛廣場一層,Guangdong,Guangzhou,Baiyun
776,Shengxian Dashatou Trading Market (盛贤大沙头旧货交易市场),Electronics Store,23.11909147869467,113.2795875336228,,Guangdong,Guangzhou,Baiyun
777,Hilton Guangzhou Tianhe,Hotel,23.148496945170077,113.31516741733634,215 Linhe West Cross Rd,Guangdong,Guangzhou,Baiyun
778,Guangdong Folk Art Museum (Chen Clan Academy) (广东民间工艺博物馆 (陈家祠)),Historic Site,23.12908820240468,113.24016920271951,中山七路恩龙里34号,Guangdong,Guangzhou,Baiyun
779,Onelink International Plaza (万菱广场),Shopping Mall,23.116980346636325,113.256998681715,越秀区解放南路39号,Guangdong,Guangzhou,Baiyun
780,Highsun Electronic Market (海印广场),Electronics Store,23.118121489034632,113.28222637137867,,Guangdong,Guangzhou,Baiyun
781,HongXing Seafood Restaurant (鸿星海鲜酒家),Seafood Restaurant,23.116720604247494,113.26278155542111,越秀区沿江中路198号,Guangdong,Guangzhou,Baiyun
782,Hotel Landmark Canton Guangzhou (华厦大酒店),Hotel,23.117514863361098,113.2621280008589,8 Qiaoguang Rd.,Guangdong,Guangzhou,Baiyun
783,Guangzhou Zoo (广州动物园),Zoo,23.143371759627346,113.29943347096167,120 Xianlie M Rd | 先烈中路120,Guangdong,Guangzhou,Baiyun
784,Gongyuanqian Metro Station (地铁公园前站),Metro Station,23.128198024305032,113.25872654828183,地铁一号线、二号线 - Metro Line 1 and Line 2.,Guangdong,Guangzhou,Baiyun
785,丽都酒店 Lido Hotel,Hotel,23.123399926800698,113.26398283985345,No.182 Beijing Road,Guangdong,Guangzhou,Baiyun
786,Beijing Lu Metro Station (地铁北京路站),Metro Station,23.121564074668026,113.26494187116623,地铁六号线 - Metro Line 6,Guangdong,Guangzhou,Baiyun
787,Tianzi Wharf (天字码头),Pier,23.11759519558597,113.26566809082391,Yanjiang M Rd | 沿江中路,Guangdong,Guangzhou,Baiyun
788,Haizhu Square Metro Station (地铁海珠广场站),Metro Station,23.11788169513252,113.26056718826294,地铁二号线、六号线 - Metro Line 2、6,Guangdong,Guangzhou,Baiyun
789,Cathedral of Sacred Heart of Jesus (石室圣心大教堂),Church,23.116733912019214,113.25488006037357,一德路旧部前56-7号,Guangdong,Guangzhou,Baiyun
790,Pearl River Cruise,Boat or Ferry,23.11375968018658,113.27140992384696,pearl river guangzhou,Guangdong,Guangzhou,Baiyun
791,Sheraton Guangzhou Hotel (广州喜来登酒店),Hotel,23.135251176959414,113.3163082756132,"208 Tianhe Road, Tianhe District",Guangdong,Guangzhou,Baiyun
792,广州文化公园 Guangzhou Cultural Park (广州文化公园),Park,23.11202051911282,113.24625811404174,中国,Guangdong,Guangzhou,Baiyun
793,Apple Parc Central (Apple 天环广场),Electronics Store,23.13497489488063,113.31936151963467,218 Tianhe Rd | 天河路218号,Guangdong,Guangzhou,Baiyun
794,The Westin Guangzhou (广州海航威斯汀酒店),Hotel,23.14591466750057,113.32072221083351,"6 Lin He Zhong Road, Tian He District",Guangdong,Guangzhou,Baiyun
795,Jianguo Hotel (广州建国酒店),Hotel,23.150531129401454,113.32029618597709,172 Linhe M Rd,Guangdong,Guangzhou,Baiyun
796,Guangzhou Marriott Hotel Tianhe (广州天河万豪酒店),Hotel,23.135506676315504,113.32054444058743,"228 Tianhe Rd, 天河路228号",Guangdong,Guangzhou,Baiyun
797,Shamian Island (沙面岛),Island,23.110614066104826,113.23760451635096,,Guangdong,Guangzhou,Baiyun
798,Starbucks (星巴克),Coffee Shop,23.10993619677242,113.23845414839055,50-52 Shamian St,Guangdong,Guangzhou,Baiyun
799,IKEA (宜家家居),Furniture / Home Store,23.148928307302167,113.32042087500238,天河区林和中路156号天誉花园1-2层,Guangdong,Guangzhou,Baiyun
800,Grand Hyatt Guangzhou (广州富力君悦大酒店),Hotel,23.1248858947745,113.31838393860215,12 Zhujiang W Rd,Guangdong,Guangzhou,Baiyun
801,方所 Fangsuo Commune (方所),Bookstore,23.136570664982244,113.32585494848622,383 Tianhe Rd,Guangdong,Guangzhou,Baiyun
802,White Swan Hotel (白天鵝賓館),Hotel,23.108194569944274,113.2374586971612,1 Shamian S. St.,Guangdong,Guangzhou,Baiyun
803,Tai Koo Hui (太古汇),Shopping Mall,23.136507346468647,113.32714254615725,383 Tianhe E. Rd.,Guangdong,Guangzhou,Baiyun
804,Four Seasons Hotel Guangzhou (广州四季酒店),Hotel,23.120497676964256,113.3177461645547,5 Zhujiang West Rd,Guangdong,Guangzhou,Baiyun
805,荔湾湖公园 Liwan Lake Park,Park,23.124606399143243,113.22738057076941,荔湾区龙津西路9号,Guangdong,Guangzhou,Baiyun
806,W Guangzhou (广州 W 酒店),Hotel,23.124509457423283,113.32240880410977,"26 Xian Cun Road, Tianhe District",Guangdong,Guangzhou,Baiyun
807,Huacheng Plaza (花城广场),Plaza,23.121843997790997,113.31920451662414,珠江新城珠江西路和珠江东路,Guangdong,Guangzhou,Baiyun
808,Guangzhou Opera House (广州大剧院),Opera House,23.117864427356658,113.31697940826416,1 Zhujiang W Rd | 珠江西路1号,Guangdong,Guangzhou,Baiyun
809,Nan Fang Dasha Mobile and Electronics Market (Nan Fang Dasha Mobile and Electronics Market | 南方大厦 手机和电子产品市场),Electronics Store,23.111334107334752,113.24725228809591,,Guangdong,Guangzhou,Baiyun
810,南信牛奶甜品专家,Dessert Shop,23.116120361434948,113.23747669124896,,Guangdong,Guangzhou,Baiyun
811,Shamian Park (沙面公园),Park,23.10796222544435,113.23929727077484,at Shamian Island,Guangdong,Guangzhou,Baiyun
812,Guangzhou Library (广州图书馆),Library,23.11883959401955,113.31952015654117,珠江东路4号,Guangdong,Guangzhou,Baiyun
813,辉盛阁国际公寓 Fraser Suites Guangzhou,Hotel,23.135507701843984,113.32585136015608,232-2 Tianhe Road,Guangdong,Guangzhou,Baiyun
814,"The Ritz-Carlton, Guangzhou",Hotel,23.118934590863454,113.32185030312567,"3 Xing An Road, Pearl River New City, Tianhe District",Guangdong,Guangzhou,Baiyun
815,Metropolitan Plaza (西城都荟),Shopping Mall,23.11281494051007,113.23524918380808,8 Huangsha Ave,Guangdong,Guangzhou,Baiyun
816,K11 Art Mall,Shopping Mall,23.118268,113.321398,天河区珠江新城 珠江东路6号,Guangdong,Guangzhou,Baiyun
817,IGC Mall (天汇广场),Shopping Mall,23.1186806140694,113.32651965435518,222 Xingmin Rd | 兴民路222号,Guangdong,Guangzhou,Baiyun
818,Starbucks (星巴克),Coffee Shop,23.392442817521175,113.29576443133647,"Departure B, Guangzhou Baiyun Int'l Airport",Guangdong,Guangzhou,Huadu
819,China Southern Airlines First Class Lounge,Airport Lounge,23.399958957797697,113.30321327498645,,Guangdong,Guangzhou,Huadu
820,Premium Lounge (Terminal 2),Airport Lounge,23.399891043819903,113.30330156905282,Terminal 2,Guangdong,Guangzhou,Huadu
821,Pullman Hotel (铂尔曼大酒店),Hotel,23.39160403826613,113.29843663973044,CAN Airport,Guangdong,Guangzhou,Huadu
822,银记肠粉店,Cantonese Restaurant,23.400607,113.304421,Baiyun Airport T2 Gate B167,Guangdong,Guangzhou,Huadu
823,pacific coffee,Café,23.397784,113.301284,"Arrival Hall, T2 Terminal,",Guangdong,Guangzhou,Huadu
824,Guangzhou Baiyun International Airport (CAN) (广州白云国际机场),Airport,23.390661360953892,113.29911945551393,花都区机场大道,Guangdong,Guangzhou,Huadu
825,Starbucks (星巴克),Coffee Shop,23.388441297999904,113.30159224671422,"Departure Zone, Baiyun Airport, Gate A",Guangdong,Guangzhou,Huadu
826,Terminal 2,Airport Terminal,23.398595127767674,113.30118381363184,T2 Guangzhou Baiyun International Airport 广州白云国际机场,Guangdong,Guangzhou,Huadu
827,China Immigration Inspection (中国边检),Government Building,23.38792919322871,113.29957259353164,Guangzhou Baiyun Int'l Airport (CAN),Guangdong,Guangzhou,Huadu
828,Premium Lounge,Airport Lounge,23.386494326224106,113.29904763565234,Guangzhou Baiyun Int'l Airport (CAN),Guangdong,Guangzhou,Huadu
829,First Class Lounge,Airport Lounge,23.386272174951255,113.29919505183886,Baiyun Int'l Airport,Guangdong,Guangzhou,Huadu
830,Perch Coffee,Café,23.3840986681161,113.30064087168272,Baiyun Int' Airport,Guangdong,Guangzhou,Huadu
831,百怡咖啡 Blenz Coffee / Yeasun Coffee (百怡咖啡),Coffee Shop,23.385135153643038,113.299807589146,Guangzhou Baiyun Int'l Airport | CAN 广州白云国际机场,Guangdong,Guangzhou,Huadu
832,Canton Tower (广州塔),Monument / Landmark,23.109086730624032,113.3191607379922,222 Yuejiang W Rd,Guangdong,Guangzhou,Haizhu District
833,Guangzhou Bridge (广州大桥),Bridge,23.109694053364795,113.31037044525146,越秀区广州大道中,Guangdong,Guangzhou,Haizhu District
834,Party Pier (琶醍),Pedestrian Plaza,23.11033401366873,113.33421267274007,Yuejiang W Rd,Guangdong,Guangzhou,Haizhu District
835,China Fabric And Accessories Center,Building,23.091099965255328,113.29138532498588,,Guangdong,Guangzhou,Haizhu District
836,Sun Yat-sen University (中山大学),University,23.095910867051174,113.29244368494379,新港西路135号,Guangdong,Guangzhou,Haizhu District
837,Liede Bridge (猎德大桥),Bridge,23.111628148170936,113.32848072052002,猎德大道,Guangdong,Guangzhou,Haizhu District
838,Guangzhou Opera House (广州大剧院),Opera House,23.117864427356658,113.31697940826416,1 Zhujiang W Rd | 珠江西路1号,Guangdong,Guangzhou,Haizhu District
839,Haixinsha Asian Olympic Games Park (海心沙亚运公园),Park,23.113956919230027,113.31899642944336,天河区海心沙岛,Guangdong,Guangzhou,Haizhu District
840,IGC Mall (天汇广场),Shopping Mall,23.1186806140694,113.32651965435518,222 Xingmin Rd | 兴民路222号,Guangdong,Guangzhou,Haizhu District
841,"The Ritz-Carlton, Guangzhou",Hotel,23.118934590863454,113.32185030312567,"3 Xing An Road, Pearl River New City, Tianhe District",Guangdong,Guangzhou,Haizhu District
842,Guangzhou Library (广州图书馆),Library,23.11883959401955,113.31952015654117,珠江东路4号,Guangdong,Guangzhou,Haizhu District
843,K11 Art Mall,Shopping Mall,23.118268,113.321398,天河区珠江新城 珠江东路6号,Guangdong,Guangzhou,Haizhu District
844,Langham Place Hotel,Hotel,23.09930249298358,113.354717037559,,Guangdong,Guangzhou,Haizhu District
845,Four Seasons Hotel Guangzhou (广州四季酒店),Hotel,23.120497676964256,113.3177461645547,5 Zhujiang West Rd,Guangdong,Guangzhou,Haizhu District
846,Huacheng Plaza (花城广场),Plaza,23.121843997790997,113.31920451662414,珠江新城珠江西路和珠江东路,Guangdong,Guangzhou,Haizhu District
847,Museum of Guangdong (广东省博物馆),History Museum,23.117133242933384,113.32142919301987,天河区珠江东路2号,Guangdong,Guangzhou,Haizhu District
848,Bingsheng Restaurant (炳胜品味),Cantonese Restaurant,23.117430963747818,113.32279231686485,天河区珠江新城冼村路2号首府大厦1-4楼,Guangdong,Guangzhou,Haizhu District
849,W Guangzhou (广州 W 酒店),Hotel,23.124509457423283,113.32240880410977,"26 Xian Cun Road, Tianhe District",Guangdong,Guangzhou,Haizhu District
850,Grand Hyatt Guangzhou (广州富力君悦大酒店),Hotel,23.1248858947745,113.31838393860215,12 Zhujiang W Rd,Guangdong,Guangzhou,Haizhu District
851,Starbucks (星巴克),Coffee Shop,23.123307471811117,113.32792270943935,猎德大道31号中海璟晖华庭二期商铺1楼101铺,Guangdong,Guangzhou,Haizhu District
852,Sultan Restaurant Turkish BBQ (苏坦土耳其餐厅),Turkish Restaurant,23.12317494410899,113.32741121567639,兴盛路,Guangdong,Guangzhou,Haizhu District
853,Bosphorus Turkish Restaurant 铂斯土耳其西餐厅,Turkish Restaurant,23.123140696532108,113.32575137961592,兴盛路11，17号越和兴盛汇G层G区9号铺,Guangdong,Guangzhou,Haizhu District
854,Area A,Convention Center,23.102937355784327,113.35642481128853,,Guangdong,Guangzhou,Haizhu District
855,The Westin Hotel Pazhou (The Westin Hotel Pazhou 广交会威斯汀酒店),Hotel,23.095969,113.363606,"Area C, Canton Fair Complex 681 Fengpu Zhong Road, Haizhu District",Guangdong,Guangzhou,Haizhu District
856,Hooley's Irish Pub & Restaurant,Pub,23.123390898268976,113.32420794283897,"101, 8 Xing Sheng Lu, Zhujiang New Town",Guangdong,Guangzhou,Haizhu District
857,Starbucks (星巴克) (星巴克),Coffee Shop,23.104200835929866,113.3589490122867,Canton Fair 1 Fl,Guangdong,Guangzhou,Haizhu District
858,Revolucion Cocktail,Cocktail Bar,23.123254940320237,113.3248037972908,珠江新城兴盛路9号,Guangdong,Guangzhou,Haizhu District
859,Guangzhou Int'l Convention & Exhibition Center (Guangzhou Int'l Convention & Exhibition Center 广州国际会议展览中心),Convention Center,23.101996869422248,113.35744857788086,阅江中路300号,Guangdong,Guangzhou,Haizhu District
860,GTLand Plaza (高德置地广场),Shopping Mall,23.120042,113.322059,华夏路,Guangdong,Guangzhou,Haizhu District
861,UA Cinemas (UA花城汇电影院),Movie Theater,23.126939948721656,113.31961737631282,花城大道89号,Guangdong,Guangzhou,Haizhu District
862,International Finance Center (广州国际金融中心),Building,23.120744079006805,113.31801245551613,5 Zhujiang (W) Ave | 天河区珠江西路5号,Guangdong,Guangzhou,Haizhu District
863,Canton Fair Complex (广交会展馆),Convention Center,23.10370832915689,113.35741910657589,"No. 382, Yuejiang Zhong Rd.",Guangdong,Guangzhou,Haizhu District
864,Zhujiang New Town Metro Station (地铁珠江新城站),Metro Station,23.12232930684546,113.31552296876907,"地铁三号线、五号线 - Metro Line 3, 5",Guangdong,Guangzhou,Haizhu District
865,保利世界贸易中心博览馆 PWTC EXPO,Convention Center,23.100946425607663,113.36117531944187,海珠区新港东路1066号,Guangdong,Guangzhou,Haizhu District
866,Shangri-La Hotel Guangzhou (广州香格里拉大酒店),Hotel,23.1050416946793,113.36449183147862,1 Hui Zhan Dong Rd.,Guangdong,Guangzhou,Haizhu District
867,Tai Koo Hui (太古汇),Shopping Mall,23.136507346468647,113.32714254615725,383 Tianhe E. Rd.,Guangdong,Guangzhou,Haizhu District
868,方所 Fangsuo Commune (方所),Bookstore,23.136570664982244,113.32585494848622,383 Tianhe Rd,Guangdong,Guangzhou,Haizhu District
869,Apple Parc Central (Apple 天环广场),Electronics Store,23.13497489488063,113.31936151963467,218 Tianhe Rd | 天河路218号,Guangdong,Guangzhou,Haizhu District
870,Sheraton Guangzhou Hotel (广州喜来登酒店),Hotel,23.135251176959414,113.3163082756132,"208 Tianhe Road, Tianhe District",Guangdong,Guangzhou,Haizhu District
871,Shengxian Dashatou Trading Market (盛贤大沙头旧货交易市场),Electronics Store,23.11909147869467,113.2795875336228,,Guangdong,Guangzhou,Haizhu District
872,Guangzhou Marriott Hotel Tianhe (广州天河万豪酒店),Hotel,23.135506676315504,113.32054444058743,"228 Tianhe Rd, 天河路228号",Guangdong,Guangzhou,Haizhu District
873,辉盛阁国际公寓 Fraser Suites Guangzhou,Hotel,23.135507701843984,113.32585136015608,232-2 Tianhe Road,Guangdong,Guangzhou,Haizhu District
874,Highsun Electronic Market (海印广场),Electronics Store,23.118121489034632,113.28222637137867,,Guangdong,Guangzhou,Haizhu District
875,Grandview Mall (正佳广场),Shopping Mall,23.13483583980339,113.32170493051557,228 Tianhe Rd | 天河路228号,Guangdong,Guangzhou,Haizhu District
876,AEON (AEON 永旺),Supermarket,23.134767424175212,113.31729457955643,天河区天河路208号天河城广场B1层,Guangdong,Guangzhou,Haizhu District
877,Tee Mall (天河城广场),Shopping Mall,23.134564605876143,113.31728136386869,天河区天河路208号,Guangdong,Guangzhou,Haizhu District
878,Mall of the World (花城汇),Shopping Mall,23.128836417637824,113.31972599029541,Zhujiang E Rd,Guangdong,Guangzhou,Haizhu District
879,BingSheng Rest (炳胜品味),Cantonese Restaurant,23.1373607978066,113.32906007766724,天河区天河东路168号,Guangdong,Guangzhou,Haizhu District
880,Wuu's Hong Kong Cuisine (吴系茶餐厅),Cha Chaan Teng,23.13840459494483,113.32857251793897,天河东路75号B1楼103-107号,Guangdong,Guangzhou,Haizhu District
881,Onelink Walk Shopping Mall (万菱汇购物广场),Shopping Mall,23.135333346772814,113.32413017749786,天河区天河路232号,Guangdong,Guangzhou,Haizhu District
882,Starbucks (星巴克),Coffee Shop,23.13615171563284,113.31709483786352,Tianhe Road,Guangdong,Guangzhou,Haizhu District
883,Guangzhou Restaurant (广州酒家),Cantonese Restaurant,23.137767232871308,113.32332461902055,112 Tiyu E Rd | 体育东路112号,Guangdong,Guangzhou,Haizhu District
884,Bosphorus Turkish Restaurant (铂斯西餐厅 Bosphorus Turkish Restaurant),Turkish Restaurant,23.134480522023395,113.27970658607721,No:1 Jienshi 6 Road Yuexiu District,Guangdong,Guangzhou,Haizhu District
885,The Garden Hotel (The Garden Hotel | 花园酒店),Hotel,23.138203197285073,113.28088886301053,368 Huanshi E Rd,Guangdong,Guangzhou,Haizhu District
886,Mado,Dessert Shop,23.13974006684029,113.28016598252135,,Guangdong,Guangzhou,Haizhu District
887,Great Buddha Temple (大佛古寺),Temple,23.124673907341958,113.2626132795644,惠福东路,Guangdong,Guangzhou,Haizhu District
888,Tiger Prawn Vietnamese Restaurant (大头虾越式风味餐厅 Tiger Prawn Vietnamese Restaurant),Vietnamese Restaurant,23.123946925558776,113.26200481501625,惠福东路548号,Guangdong,Guangzhou,Haizhu District
889,Sultan Turkish Restaurant,Turkish Restaurant,23.140702867450646,113.28152458771676,"No:367, HuangShi Dong Lu",Guangdong,Guangzhou,Haizhu District
890,Garden Hotel Carousel Restaurant,BBQ Joint,23.138166603639093,113.28088706893303,,Guangdong,Guangzhou,Haizhu District
891,Starbucks (星巴克),Coffee Shop,23.138962158055342,113.28015495794388,环市东路362-363号,Guangdong,Guangzhou,Haizhu District
892,Hilton Guangzhou Tianhe,Hotel,23.148496945170077,113.31516741733634,215 Linhe West Cross Rd,Guangdong,Guangzhou,Haizhu District
893,Onelink International Plaza (万菱广场),Shopping Mall,23.116980346636325,113.256998681715,越秀区解放南路39号,Guangdong,Guangzhou,Haizhu District
894,Crowne Plaza Guangzhou City Centre (广州中心皇冠假日酒店),Hotel,23.14100347704612,113.27751773427009,339 Huanshi E Rd,Guangdong,Guangzhou,Haizhu District
895,The Westin Guangzhou (广州海航威斯汀酒店),Hotel,23.14591466750057,113.32072221083351,"6 Lin He Zhong Road, Tian He District",Guangdong,Guangzhou,Haizhu District
896,Chimelong Safari Park (长隆野生动物世界),Park,23.00296531820421,113.31031924868662,,Guangdong,Guangzhou,Haizhu District
897,Chimelong International Circus (长隆国际大马戏),Theme Park,23.003401,113.331416,,Guangdong,Guangzhou,Haizhu District
898,White Swan Hotel (白天鵝賓館),Hotel,23.108194569944274,113.2374586971612,1 Shamian S. St.,Guangdong,Guangzhou,Haizhu District
899,广州文化公园 Guangzhou Cultural Park (广州文化公园),Park,23.11202051911282,113.24625811404174,中国,Guangdong,Guangzhou,Haizhu District
900,Sadda Restaurant,Middle Eastern Restaurant,23.14193197962413,113.27282517618029,,Guangdong,Guangzhou,Haizhu District
901,Shangri-La Hotel Guangzhou (广州香格里拉大酒店),Hotel,23.1050416946793,113.36449183147862,1 Hui Zhan Dong Rd.,Guangdong,Guangzhou,Huangpu
902,The Westin Hotel Pazhou (The Westin Hotel Pazhou 广交会威斯汀酒店),Hotel,23.095969,113.363606,"Area C, Canton Fair Complex 681 Fengpu Zhong Road, Haizhu District",Guangdong,Guangzhou,Huangpu
903,Starbucks (星巴克) (星巴克),Coffee Shop,23.104200835929866,113.3589490122867,Canton Fair 1 Fl,Guangdong,Guangzhou,Huangpu
904,Dongmen Pedestrian Zone (东门步行街 Dongmen Pedestrian Zone),Pedestrian Plaza,22.54807506291811,114.1146056682924,深南东路,Guangdong,Shenzhen,Luohu District
905,King Glory Plaza (金光华广场),Shopping Mall,22.539496,114.119818,"2115-2871 Jiabin Rd., Luohu",Guangdong,Shenzhen,Luohu District
906,Laojie Metro Station (老街地铁站),Metro Station,22.547530771317586,114.11162701298564,Jianshe Rd. & Jiefang Rd.,Guangdong,Shenzhen,Luohu District
907,新都酒店 Century Plaza Hotel,Hotel,22.538741929752856,114.11279192423808,"4001 Chunfeng Rd, Luohu",Guangdong,Shenzhen,Luohu District
908,Shangri-La Shenzhen (深圳香格里拉大酒店),Hotel,22.536070270331557,114.11310182722639,建设路1002号,Guangdong,Shenzhen,Luohu District
909,The MixC (万象城),Shopping Mall,22.542563790131034,114.10586706254303,1881 Bao'an S Rd,Guangdong,Shenzhen,Luohu District
910,Grand Hyatt Shenzhen,Hotel,22.540134349354137,114.10619589307639,1881 Baoan Nan Road,Guangdong,Shenzhen,Luohu District
911,The St. Regis Shenzhen (深圳瑞吉酒店),Hotel,22.545239,114.101256,5016 Shennan E Rd,Guangdong,Shenzhen,Luohu District
912,KK Mall (京基·百纳空间),Shopping Mall,22.546511032347954,114.10147156728472,"5016 Shennan East Rd., Luohu",Guangdong,Shenzhen,Luohu District
913,Luohu Commercial City (罗湖商业城 Luohu Commercial City),Shopping Mall,22.530625,114.11891,Heping Rd.,Guangdong,Shenzhen,Luohu District
914,Shenzhen Railway Station (深圳站),Train Station,22.534320349570027,114.11303758621216,罗湖区建设路1号,Guangdong,Shenzhen,Luohu District
915,Best Western Shenzhen Felicity Hotel (富临大酒店),Hotel,22.53402462030169,114.11069218729729,1085 Heping Rd,Guangdong,Shenzhen,Luohu District
916,Luohu Metro Station (罗湖地铁站),Metro Station,22.53321045972794,114.11316633224486,Shenzhen Railway Station - Jianshe Rd.,Guangdong,Shenzhen,Luohu District
917,Grand Theater Metro Station (大剧院地铁站),Metro Station,22.54487661470182,114.10317286706172,Shennan E. Rd. & Hongling M. Rd.,Guangdong,Shenzhen,Luohu District
918,Luohu Immigration Port (罗湖口岸),Government Building,22.53144049140362,114.11349085222874,Renmin South Rd.,Guangdong,Shenzhen,Luohu District
919,Lo Wu Control Point (羅湖出入境管制站),Border Crossing,22.529424875493437,114.11345601081848,MTR Lo Wu Station,Guangdong,Shenzhen,Luohu District
920,MTR Lo Wu Station (港鐵羅湖站),Metro Station,22.528235961866624,114.11341492314725,Lo Wu Station Rd,Guangdong,Shenzhen,Luohu District
921,赛格数码广场 SEG Electronic Market,Electronics Store,22.543954433117648,114.08224585756001,福田区华强北路2号,Guangdong,Shenzhen,Luohu District
922,Huaqiang Electronics Market (华强电子世界),Electronics Store,22.545091,114.081356,1001-1015 Huaqiang N. Rd.,Guangdong,Shenzhen,Luohu District
923,Huaqiang Plaza Hotel (华强广场酒店),Hotel,22.546602509757065,114.0809916001232,1019 Huangqiang N Rd,Guangdong,Shenzhen,Luohu District
924,Starbucks (星巴克),Coffee Shop,22.547097688655835,114.08092772581,1019 Huaqiang N Rd,Guangdong,Shenzhen,Luohu District
925,Mevlana Turkish Restaurant,Turkish Restaurant,22.54918107857781,114.07793232647677,"No:154, ZhenXing Road, FuTian District",Guangdong,Shenzhen,Luohu District
926,华强北 Huaqiangbei,Neighborhood,22.546875785374286,114.08134581206208,,Guangdong,Shenzhen,Luohu District
927,Huaqiang Rd. Metro Station (华强路地铁站),Metro Station,22.54333393532505,114.0806025473502,Shennan M. Rd. & Huaqiang N. Rd.,Guangdong,Shenzhen,Luohu District
928,Sheraton Shenzhen Futian Hotel (深圳大中华喜来登酒店),Hotel,22.535925710165536,114.06200051307678,"Great China International Exchange Square, Fuhua Road, Futian District, Futian District",Guangdong,Shenzhen,Luohu District
929,MTR Sheung Shui Station (港鐵上水站),Train Station,22.501257,114.127945,San Wan Rd,Guangdong,Shenzhen,Luohu District
930,Huanggang Immigration Port (皇岗口岸),Border Crossing,22.52278498765332,114.06816959381104,Tongqing Rd.,Guangdong,Shenzhen,Luohu District
931,"The Ritz-Carlton, Shenzhen (The Ritz-Carlton, Shenzhen 深圳星河丽思卡尔顿酒店)",Hotel,22.5356267766216,114.05624844994014,"116 Fuhua San Road, Futian District",Guangdong,Shenzhen,Luohu District
932,Four Seasons Hotel Shenzhen (深圳四季酒店),Hotel,22.5358973864003,114.05316354558701,"138 Fuhua Third Road, Futian District, Shenzhen, Guangdong 518048 China",Guangdong,Shenzhen,Luohu District
933,"Shangri-La Hotel, Futian, Shenzhen (深圳福田香格里拉大酒店)",Hotel,22.538864679681616,114.05210783751474,4088 Yitian Rd,Guangdong,Shenzhen,Luohu District
934,Central Walk (中心城),Shopping Mall,22.5379053189778,114.05578378420552,"3 Fuahua Rd., Futian",Guangdong,Shenzhen,Luohu District
935,Coco Park (福田星河),Shopping Mall,22.53653708318164,114.04921978712082,168 Fuhua 3rd Rd,Guangdong,Shenzhen,Luohu District
936,Lianhua Hill Park (莲花山公园),Park,22.555525459338785,114.05439376831055,6026 Hongli Rd.,Guangdong,Shenzhen,Luohu District
937,Wong Tee Plaza (皇庭广场),Shopping Mall,22.53651240864365,114.05457591141355,福华三路118号,Guangdong,Shenzhen,Luohu District
938,Four Points by Sheraton Shenzhen,Hotel,22.51390792527878,114.05713853509158,"5 Guihua Road, Futian District",Guangdong,Shenzhen,Luohu District
939,McCawley's Irish Pub,Irish Pub,22.537385133496862,114.04840350046382,购物公园151-152号,Guangdong,Shenzhen,Luohu District
940,Marco Polo Shenzhen (深圳马哥孛罗好日子酒店),Hotel,22.539885175970156,114.04815903442733,"28 Fuhua 1st Rd, Futian",Guangdong,Shenzhen,Luohu District
941,Civic Center (深圳市民中心),Government Building,22.545623385468165,114.05487787990691,福田区福中路3号,Guangdong,Shenzhen,Luohu District
942,Starbucks (星巴克),Coffee Shop,22.537294680524848,114.04803667357726,Fuhua 3rd Rd,Guangdong,Shenzhen,Luohu District
943,Futian Railway Station (福田站),Train Station,22.540775887404983,114.05182628838185,Underground Yitian Rd.,Guangdong,Shenzhen,Luohu District
944,MTR Lok Ma Chau Station (港鐵落馬洲站),Train Station,22.514464,114.065647,Tun Yu Rd,Guangdong,Shenzhen,Luohu District
945,Lok Ma Chau Control Point (落馬洲出入境管制站),Border Crossing,22.509406,114.074036,San Sham Rd,Guangdong,Shenzhen,Luohu District
946,Futian Immigration Port (福田口岸),Border Crossing,22.518874126651035,114.0645639954561,"Yuheng Rd, Futian District",Guangdong,Shenzhen,Luohu District
947,Futian Checkpoint Metro Station (福田口岸地铁站),Metro Station,22.518753438241763,114.06419589837813,Futian Immigration Port - Yuheng Rd. & Guohua Rd.,Guangdong,Shenzhen,Luohu District
948,Convention & Exhibition Center Metro Station (会展中心地铁站),Metro Station,22.537230677652072,114.05594638222534,Fuhua Rd. & Zhongxin 5th Rd.,Guangdong,Shenzhen,Luohu District
949,Shenzhen (深圳),City,22.543952233157825,114.0545654296875,,Guangdong,Shenzhen,Luohu District
950,Shenzhen Convention & Exhibition Center (深圳会展中心),Convention Center,22.5344691114989,114.0545642972368,福华三路,Guangdong,Shenzhen,Luohu District
951,Futian Metro Station (福田地铁站),Metro Station,22.542547083419187,114.04791086912155,Futian Railway Station - Shennan Blvd. & Yitian Rd.,Guangdong,Shenzhen,Luohu District
952,The Langham Shenzhen (深圳东海朗廷酒店),Hotel,22.539095386562483,114.01576552292897,7888 Shennan Blvd,Guangdong,Shenzhen,Luohu District
953,Tsz Shan Monastery (慈山寺),Buddhist Temple,22.473694444444444,114.20625,88 Universal Gate Rd,Guangdong,Shenzhen,Luohu District
954,Mangrove Natural Reserve (红树林自然保护区),Nature Preserve,22.524547064673172,113.99347979575396,滨海大道,Guangdong,Shenzhen,Luohu District
955,OCT-LOFT (华侨城创意文化园),Art Gallery,22.540918342491583,113.98836460810224,"Enping St., OCT",Guangdong,Shenzhen,Luohu District
956,OCT Harbour (欢乐海岸),Shopping Mall,22.527472307194426,113.98650026622288,8 Baishi Rd. E.,Guangdong,Shenzhen,Luohu District
957,China Folk Culture Villages (中国民俗文化村),Theme Park,22.534879467732114,113.98201071519759,华侨城,Guangdong,Shenzhen,Luohu District
958,Splendid China (锦绣中华),Theme Park,22.53515377161989,113.98206879504077,深南大道9003号华侨城,Guangdong,Shenzhen,Luohu District
959,Shenzhen North Railway Station (深圳北站),Train Station,22.61217862909745,114.02356445789337,28 Zhiyuan M. Rd.,Guangdong,Shenzhen,Luohu District
960,MTR Tai Po Market Station (港鐵大埔墟站),Train Station,22.4445559,114.1704893,Nga Wan Rd,Guangdong,Shenzhen,Luohu District
961,HUAWEI HQ 华为总部 (华为总部),Office,22.65290813537321,114.05928611755371,龙岗区坂田华为基地,Guangdong,Shenzhen,Luohu District
962,Tencent Building (腾讯大厦),Building,22.543590874200962,113.92977619249008,Keji M 1st Rd,Guangdong,Shenzhen,Baoan District
963,Shenzhen University (深圳大学),University,22.53566806095694,113.93178462982178,南山大道2068号,Guangdong,Shenzhen,Baoan District
964,The MixC (万象天地),Shopping Mall,22.544616134531758,113.95049571990967,深南大道9668号,Guangdong,Shenzhen,Baoan District
965,Xiaomi Flagship Store (小米旗舰店),Electronics Store,22.544991182616887,113.95107988230275,华润万象天地NL162、NL262号商铺,Guangdong,Shenzhen,Baoan District
966,Coastal City (海岸城),Shopping Mall,22.51751,113.93542,南山区文心五路33号,Guangdong,Shenzhen,Baoan District
967,Shenzhen Bay Sports Center (深圳湾体育中心),Stadium,22.520790791115452,113.94417643547058,滨海大道3001号,Guangdong,Shenzhen,Baoan District
968,Houhai Metro Station (后海地铁站),Metro Station,22.520394159733232,113.93530999935174,Houhaibin Rd. & Haide 2nd Rd.,Guangdong,Shenzhen,Baoan District
969,Hi-Tech Park Metro Station (高新园地铁站),Metro Station,22.543377509986694,113.94905805587767,Shennan Blvd. & Keji S. Rd.,Guangdong,Shenzhen,Baoan District
970,Sea World (海上世界),Shopping Plaza,22.486471741854967,113.9106833877972,南山区蛇口太子路,Guangdong,Shenzhen,Baoan District
971,Window of the World (世界之窗),Theme Park,22.538751506046466,113.97034233160667,9037 Shennan Blvd.,Guangdong,Shenzhen,Baoan District
972,Apple Holiday Plaza Shenzhen (Apple 深圳益田假日广场),Electronics Store,22.53979039060095,113.97066593170166,"深南大道9028号, 益田假日广场, 南山区",Guangdong,Shenzhen,Baoan District
973,Shenzhen Bay Park (深圳湾公园),Park,22.49502655483222,113.94745945930481,南山区沙河西路,Guangdong,Shenzhen,Baoan District
974,Yitian Holiday Plaza (益田假日广场),Shopping Mall,22.54003445236148,113.97026682595879,深南大道9028号,Guangdong,Shenzhen,Baoan District
975,Shenzhen Bay Immigration Port (深圳湾口岸),Border Crossing,22.5046475487275,113.94455194473267,南山区东四路,Guangdong,Shenzhen,Baoan District
976,Window of the World Metro Station (世界之窗地铁站),Metro Station,22.539734787595304,113.9696331007668,Shennan Blvd. & Qiaocheng W. St.,Guangdong,Shenzhen,Baoan District
977,Shekou Cruise & Ferry Terminal (蛇口邮轮码头),Pier,22.472094046026285,113.90869851794324,1 Taizi Rd,Guangdong,Shenzhen,Baoan District
978,China Folk Culture Villages (中国民俗文化村),Theme Park,22.534879467732114,113.98201071519759,华侨城,Guangdong,Shenzhen,Baoan District
979,Splendid China (锦绣中华),Theme Park,22.53515377161989,113.98206879504077,深南大道9003号华侨城,Guangdong,Shenzhen,Baoan District
980,OCT-LOFT (华侨城创意文化园),Art Gallery,22.540918342491583,113.98836460810224,"Enping St., OCT",Guangdong,Shenzhen,Baoan District
981,The Westin Shenzhen Nanshan (深圳益田威斯汀酒店 The Westin Shenzhen Nanshan),Hotel,22.5376524,113.9759821,"9028-2 Shennan Road, Nanshan District",Guangdong,Shenzhen,Baoan District
982,OCT Harbour (欢乐海岸),Shopping Mall,22.527472307194426,113.98650026622288,8 Baishi Rd. E.,Guangdong,Shenzhen,Baoan District
983,InterContinental Shenzhen (深圳华侨城洲际大酒店),Hotel,22.53555422209268,113.97987968311644,深南大道9009号,Guangdong,Shenzhen,Baoan District
984,深圳宝安国际机场E-island(深圳航空公司）,Airport Service,22.627067419616818,113.80833114768818,,Guangdong,Shenzhen,Baoan District
985,Starbucks (星巴克),Coffee Shop,22.629967,113.807014,"Shop 3S-06-03, 3F, Shenzhen Bao'an Int'l Airport New Terminal, Bao'an",Guangdong,Shenzhen,Baoan District
986,Shenzhen Bao’an International Airport (SZX) (深圳宝安国际机场),Airport,22.62850951119376,113.80788803100586,Airport S Rd,Guangdong,Shenzhen,Baoan District
987,Starbucks (星巴克),Coffee Shop,22.628508,113.80939,4/F of Shenzhen Bao'an Int'l Airport New Terminal,Guangdong,Shenzhen,Baoan District
988,Shenzhen Airlines King Class Lounge,Airport Lounge,22.63283651950989,113.8049745636302,,Guangdong,Shenzhen,Baoan District
989,CSA VIP Lounge 南航明珠精英會員休息室,Airport Lounge,22.630058829345113,113.80698484007533,Shenzhen Int'l Airport,Guangdong,Shenzhen,Baoan District
990,Mangrove Natural Reserve (红树林自然保护区),Nature Preserve,22.524547064673172,113.99347979575396,滨海大道,Guangdong,Shenzhen,Baoan District
991,Shenzhen Bay Bridge (深圳湾公路大桥),Bridge,22.472222869582076,113.95924868228843,,Guangdong,Shenzhen,Baoan District
992,The Langham Shenzhen (深圳东海朗廷酒店),Hotel,22.539095386562483,114.01576552292897,7888 Shennan Blvd,Guangdong,Shenzhen,Baoan District
993,Four Seasons Hotel Shenzhen (深圳四季酒店),Hotel,22.5358973864003,114.05316354558701,"138 Fuhua Third Road, Futian District, Shenzhen, Guangdong 518048 China",Guangdong,Shenzhen,Futian District
994,"The Ritz-Carlton, Shenzhen (The Ritz-Carlton, Shenzhen 深圳星河丽思卡尔顿酒店)",Hotel,22.5356267766216,114.05624844994014,"116 Fuhua San Road, Futian District",Guangdong,Shenzhen,Futian District
995,Coco Park (福田星河),Shopping Mall,22.53653708318164,114.04921978712082,168 Fuhua 3rd Rd,Guangdong,Shenzhen,Futian District
996,Four Points by Sheraton Shenzhen,Hotel,22.51390792527878,114.05713853509158,"5 Guihua Road, Futian District",Guangdong,Shenzhen,Futian District
997,"Shangri-La Hotel, Futian, Shenzhen (深圳福田香格里拉大酒店)",Hotel,22.538864679681616,114.05210783751474,4088 Yitian Rd,Guangdong,Shenzhen,Futian District
998,McCawley's Irish Pub,Irish Pub,22.537385133496862,114.04840350046382,购物公园151-152号,Guangdong,Shenzhen,Futian District
999,Central Walk (中心城),Shopping Mall,22.5379053189778,114.05578378420552,"3 Fuahua Rd., Futian",Guangdong,Shenzhen,Futian District
1000,Wong Tee Plaza (皇庭广场),Shopping Mall,22.53651240864365,114.05457591141355,福华三路118号,Guangdong,Shenzhen,Futian District
1001,Starbucks (星巴克),Coffee Shop,22.537294680524848,114.04803667357726,Fuhua 3rd Rd,Guangdong,Shenzhen,Futian District
1002,Marco Polo Shenzhen (深圳马哥孛罗好日子酒店),Hotel,22.539885175970156,114.04815903442733,"28 Fuhua 1st Rd, Futian",Guangdong,Shenzhen,Futian District
1003,Sheraton Shenzhen Futian Hotel (深圳大中华喜来登酒店),Hotel,22.535925710165536,114.06200051307678,"Great China International Exchange Square, Fuhua Road, Futian District, Futian District",Guangdong,Shenzhen,Futian District
1004,Shenzhen Convention & Exhibition Center (深圳会展中心),Convention Center,22.5344691114989,114.0545642972368,福华三路,Guangdong,Shenzhen,Futian District
1005,Futian Railway Station (福田站),Train Station,22.540775887404983,114.05182628838185,Underground Yitian Rd.,Guangdong,Shenzhen,Futian District
1006,Convention & Exhibition Center Metro Station (会展中心地铁站),Metro Station,22.537230677652072,114.05594638222534,Fuhua Rd. & Zhongxin 5th Rd.,Guangdong,Shenzhen,Futian District
1007,Futian Checkpoint Metro Station (福田口岸地铁站),Metro Station,22.518753438241763,114.06419589837813,Futian Immigration Port - Yuheng Rd. & Guohua Rd.,Guangdong,Shenzhen,Futian District
1008,Futian Immigration Port (福田口岸),Border Crossing,22.518874126651035,114.0645639954561,"Yuheng Rd, Futian District",Guangdong,Shenzhen,Futian District
1009,MTR Lok Ma Chau Station (港鐵落馬洲站),Train Station,22.514464,114.065647,Tun Yu Rd,Guangdong,Shenzhen,Futian District
1010,Huanggang Immigration Port (皇岗口岸),Border Crossing,22.52278498765332,114.06816959381104,Tongqing Rd.,Guangdong,Shenzhen,Futian District
1011,Futian Metro Station (福田地铁站),Metro Station,22.542547083419187,114.04791086912155,Futian Railway Station - Shennan Blvd. & Yitian Rd.,Guangdong,Shenzhen,Futian District
1012,Civic Center (深圳市民中心),Government Building,22.545623385468165,114.05487787990691,福田区福中路3号,Guangdong,Shenzhen,Futian District
1013,Lianhua Hill Park (莲花山公园),Park,22.555525459338785,114.05439376831055,6026 Hongli Rd.,Guangdong,Shenzhen,Futian District
1014,Shenzhen (深圳),City,22.543952233157825,114.0545654296875,,Guangdong,Shenzhen,Futian District
1015,Lok Ma Chau Control Point (落馬洲出入境管制站),Border Crossing,22.509406,114.074036,San Sham Rd,Guangdong,Shenzhen,Futian District
1016,The Langham Shenzhen (深圳东海朗廷酒店),Hotel,22.539095386562483,114.01576552292897,7888 Shennan Blvd,Guangdong,Shenzhen,Futian District
1017,赛格数码广场 SEG Electronic Market,Electronics Store,22.543954433117648,114.08224585756001,福田区华强北路2号,Guangdong,Shenzhen,Futian District
1018,Huaqiang Electronics Market (华强电子世界),Electronics Store,22.545091,114.081356,1001-1015 Huaqiang N. Rd.,Guangdong,Shenzhen,Futian District
1019,Huaqiang Plaza Hotel (华强广场酒店),Hotel,22.546602509757065,114.0809916001232,1019 Huangqiang N Rd,Guangdong,Shenzhen,Futian District
1020,Mevlana Turkish Restaurant,Turkish Restaurant,22.54918107857781,114.07793232647677,"No:154, ZhenXing Road, FuTian District",Guangdong,Shenzhen,Futian District
1021,Starbucks (星巴克),Coffee Shop,22.547097688655835,114.08092772581,1019 Huaqiang N Rd,Guangdong,Shenzhen,Futian District
1022,Huaqiang Rd. Metro Station (华强路地铁站),Metro Station,22.54333393532505,114.0806025473502,Shennan M. Rd. & Huaqiang N. Rd.,Guangdong,Shenzhen,Futian District
1023,华强北 Huaqiangbei,Neighborhood,22.546875785374286,114.08134581206208,,Guangdong,Shenzhen,Futian District
1024,Mangrove Natural Reserve (红树林自然保护区),Nature Preserve,22.524547064673172,113.99347979575396,滨海大道,Guangdong,Shenzhen,Futian District
1025,Grand Hyatt Shenzhen,Hotel,22.540134349354137,114.10619589307639,1881 Baoan Nan Road,Guangdong,Shenzhen,Futian District
1026,The St. Regis Shenzhen (深圳瑞吉酒店),Hotel,22.545239,114.101256,5016 Shennan E Rd,Guangdong,Shenzhen,Futian District
1027,The MixC (万象城),Shopping Mall,22.542563790131034,114.10586706254303,1881 Bao'an S Rd,Guangdong,Shenzhen,Futian District
1028,OCT Harbour (欢乐海岸),Shopping Mall,22.527472307194426,113.98650026622288,8 Baishi Rd. E.,Guangdong,Shenzhen,Futian District
1029,OCT-LOFT (华侨城创意文化园),Art Gallery,22.540918342491583,113.98836460810224,"Enping St., OCT",Guangdong,Shenzhen,Futian District
1030,KK Mall (京基·百纳空间),Shopping Mall,22.546511032347954,114.10147156728472,"5016 Shennan East Rd., Luohu",Guangdong,Shenzhen,Futian District
1031,Shangri-La Shenzhen (深圳香格里拉大酒店),Hotel,22.536070270331557,114.11310182722639,建设路1002号,Guangdong,Shenzhen,Futian District
1032,新都酒店 Century Plaza Hotel,Hotel,22.538741929752856,114.11279192423808,"4001 Chunfeng Rd, Luohu",Guangdong,Shenzhen,Futian District
1033,Grand Theater Metro Station (大剧院地铁站),Metro Station,22.54487661470182,114.10317286706172,Shennan E. Rd. & Hongling M. Rd.,Guangdong,Shenzhen,Futian District
1034,Best Western Shenzhen Felicity Hotel (富临大酒店),Hotel,22.53402462030169,114.11069218729729,1085 Heping Rd,Guangdong,Shenzhen,Futian District
1035,Shenzhen Railway Station (深圳站),Train Station,22.534320349570027,114.11303758621216,罗湖区建设路1号,Guangdong,Shenzhen,Futian District
1036,MTR Lo Wu Station (港鐵羅湖站),Metro Station,22.528235961866624,114.11341492314725,Lo Wu Station Rd,Guangdong,Shenzhen,Futian District
1037,Lo Wu Control Point (羅湖出入境管制站),Border Crossing,22.529424875493437,114.11345601081848,MTR Lo Wu Station,Guangdong,Shenzhen,Futian District
1038,Luohu Metro Station (罗湖地铁站),Metro Station,22.53321045972794,114.11316633224486,Shenzhen Railway Station - Jianshe Rd.,Guangdong,Shenzhen,Futian District
1039,Luohu Immigration Port (罗湖口岸),Government Building,22.53144049140362,114.11349085222874,Renmin South Rd.,Guangdong,Shenzhen,Futian District
1040,Laojie Metro Station (老街地铁站),Metro Station,22.547530771317586,114.11162701298564,Jianshe Rd. & Jiefang Rd.,Guangdong,Shenzhen,Futian District
1041,China Folk Culture Villages (中国民俗文化村),Theme Park,22.534879467732114,113.98201071519759,华侨城,Guangdong,Shenzhen,Futian District
1042,Splendid China (锦绣中华),Theme Park,22.53515377161989,113.98206879504077,深南大道9003号华侨城,Guangdong,Shenzhen,Futian District
1043,InterContinental Shenzhen (深圳华侨城洲际大酒店),Hotel,22.53555422209268,113.97987968311644,深南大道9009号,Guangdong,Shenzhen,Futian District
1044,Dongmen Pedestrian Zone (东门步行街 Dongmen Pedestrian Zone),Pedestrian Plaza,22.54807506291811,114.1146056682924,深南东路,Guangdong,Shenzhen,Futian District
1045,Window of the World (世界之窗),Theme Park,22.538751506046466,113.97034233160667,9037 Shennan Blvd.,Guangdong,Shenzhen,Futian District
1046,The Westin Shenzhen Nanshan (深圳益田威斯汀酒店 The Westin Shenzhen Nanshan),Hotel,22.5376524,113.9759821,"9028-2 Shennan Road, Nanshan District",Guangdong,Shenzhen,Futian District
1047,Apple Holiday Plaza Shenzhen (Apple 深圳益田假日广场),Electronics Store,22.53979039060095,113.97066593170166,"深南大道9028号, 益田假日广场, 南山区",Guangdong,Shenzhen,Futian District
1048,Yitian Holiday Plaza (益田假日广场),Shopping Mall,22.54003445236148,113.97026682595879,深南大道9028号,Guangdong,Shenzhen,Futian District
1049,King Glory Plaza (金光华广场),Shopping Mall,22.539496,114.119818,"2115-2871 Jiabin Rd., Luohu",Guangdong,Shenzhen,Futian District
1050,Luohu Commercial City (罗湖商业城 Luohu Commercial City),Shopping Mall,22.530625,114.11891,Heping Rd.,Guangdong,Shenzhen,Futian District
1051,Shenzhen North Railway Station (深圳北站),Train Station,22.61217862909745,114.02356445789337,28 Zhiyuan M. Rd.,Guangdong,Shenzhen,Futian District
1052,The MixC (万象天地),Shopping Mall,22.544616134531758,113.95049571990967,深南大道9668号,Guangdong,Shenzhen,Futian District
1053,Xiaomi Flagship Store (小米旗舰店),Electronics Store,22.544991182616887,113.95107988230275,华润万象天地NL162、NL262号商铺,Guangdong,Shenzhen,Futian District
1054,Shenzhen Bay Park (深圳湾公园),Park,22.49502655483222,113.94745945930481,南山区沙河西路,Guangdong,Shenzhen,Futian District
1055,Shenzhen Bay Sports Center (深圳湾体育中心),Stadium,22.520790791115452,113.94417643547058,滨海大道3001号,Guangdong,Shenzhen,Futian District
1056,Coastal City (海岸城),Shopping Mall,22.51751,113.93542,南山区文心五路33号,Guangdong,Shenzhen,Futian District
1057,Sea World (海上世界),Shopping Plaza,22.486471741854967,113.9106833877972,南山区蛇口太子路,Guangdong,Shenzhen,Futian District
1058,Shenzhen University (深圳大学),University,22.53566806095694,113.93178462982178,南山大道2068号,Guangdong,Shenzhen,Nanshan District
1059,Tencent Building (腾讯大厦),Building,22.543590874200962,113.92977619249008,Keji M 1st Rd,Guangdong,Shenzhen,Nanshan District
1060,Houhai Metro Station (后海地铁站),Metro Station,22.520394159733232,113.93530999935174,Houhaibin Rd. & Haide 2nd Rd.,Guangdong,Shenzhen,Nanshan District
1061,Coastal City (海岸城),Shopping Mall,22.51751,113.93542,南山区文心五路33号,Guangdong,Shenzhen,Nanshan District
1062,The MixC (万象天地),Shopping Mall,22.544616134531758,113.95049571990967,深南大道9668号,Guangdong,Shenzhen,Nanshan District
1063,Shenzhen Bay Sports Center (深圳湾体育中心),Stadium,22.520790791115452,113.94417643547058,滨海大道3001号,Guangdong,Shenzhen,Nanshan District
1064,Xiaomi Flagship Store (小米旗舰店),Electronics Store,22.544991182616887,113.95107988230275,华润万象天地NL162、NL262号商铺,Guangdong,Shenzhen,Nanshan District
1065,Hi-Tech Park Metro Station (高新园地铁站),Metro Station,22.543377509986694,113.94905805587767,Shennan Blvd. & Keji S. Rd.,Guangdong,Shenzhen,Nanshan District
1066,Window of the World (世界之窗),Theme Park,22.538751506046466,113.97034233160667,9037 Shennan Blvd.,Guangdong,Shenzhen,Nanshan District
1067,Apple Holiday Plaza Shenzhen (Apple 深圳益田假日广场),Electronics Store,22.53979039060095,113.97066593170166,"深南大道9028号, 益田假日广场, 南山区",Guangdong,Shenzhen,Nanshan District
1068,Shenzhen Bay Park (深圳湾公园),Park,22.49502655483222,113.94745945930481,南山区沙河西路,Guangdong,Shenzhen,Nanshan District
1069,Yitian Holiday Plaza (益田假日广场),Shopping Mall,22.54003445236148,113.97026682595879,深南大道9028号,Guangdong,Shenzhen,Nanshan District
1070,The Westin Shenzhen Nanshan (深圳益田威斯汀酒店 The Westin Shenzhen Nanshan),Hotel,22.5376524,113.9759821,"9028-2 Shennan Road, Nanshan District",Guangdong,Shenzhen,Nanshan District
1071,Shenzhen Bay Immigration Port (深圳湾口岸),Border Crossing,22.5046475487275,113.94455194473267,南山区东四路,Guangdong,Shenzhen,Nanshan District
1072,Window of the World Metro Station (世界之窗地铁站),Metro Station,22.539734787595304,113.9696331007668,Shennan Blvd. & Qiaocheng W. St.,Guangdong,Shenzhen,Nanshan District
1073,Sea World (海上世界),Shopping Plaza,22.486471741854967,113.9106833877972,南山区蛇口太子路,Guangdong,Shenzhen,Nanshan District
1074,China Folk Culture Villages (中国民俗文化村),Theme Park,22.534879467732114,113.98201071519759,华侨城,Guangdong,Shenzhen,Nanshan District
1075,Splendid China (锦绣中华),Theme Park,22.53515377161989,113.98206879504077,深南大道9003号华侨城,Guangdong,Shenzhen,Nanshan District
1076,InterContinental Shenzhen (深圳华侨城洲际大酒店),Hotel,22.53555422209268,113.97987968311644,深南大道9009号,Guangdong,Shenzhen,Nanshan District
1077,OCT Harbour (欢乐海岸),Shopping Mall,22.527472307194426,113.98650026622288,8 Baishi Rd. E.,Guangdong,Shenzhen,Nanshan District
1078,OCT-LOFT (华侨城创意文化园),Art Gallery,22.540918342491583,113.98836460810224,"Enping St., OCT",Guangdong,Shenzhen,Nanshan District
1079,Mangrove Natural Reserve (红树林自然保护区),Nature Preserve,22.524547064673172,113.99347979575396,滨海大道,Guangdong,Shenzhen,Nanshan District
1080,Shekou Cruise & Ferry Terminal (蛇口邮轮码头),Pier,22.472094046026285,113.90869851794324,1 Taizi Rd,Guangdong,Shenzhen,Nanshan District
1081,Shenzhen Bay Bridge (深圳湾公路大桥),Bridge,22.472222869582076,113.95924868228843,,Guangdong,Shenzhen,Nanshan District
1082,The Langham Shenzhen (深圳东海朗廷酒店),Hotel,22.539095386562483,114.01576552292897,7888 Shennan Blvd,Guangdong,Shenzhen,Nanshan District
1083,Four Seasons Hotel Shenzhen (深圳四季酒店),Hotel,22.5358973864003,114.05316354558701,"138 Fuhua Third Road, Futian District, Shenzhen, Guangdong 518048 China",Guangdong,Shenzhen,Nanshan District
1084,Coco Park (福田星河),Shopping Mall,22.53653708318164,114.04921978712082,168 Fuhua 3rd Rd,Guangdong,Shenzhen,Nanshan District
1085,"Shangri-La Hotel, Futian, Shenzhen (深圳福田香格里拉大酒店)",Hotel,22.538864679681616,114.05210783751474,4088 Yitian Rd,Guangdong,Shenzhen,Nanshan District
1086,McCawley's Irish Pub,Irish Pub,22.537385133496862,114.04840350046382,购物公园151-152号,Guangdong,Shenzhen,Nanshan District
1087,Central Walk (中心城),Shopping Mall,22.5379053189778,114.05578378420552,"3 Fuahua Rd., Futian",Guangdong,Shenzhen,Nanshan District
1088,Wong Tee Plaza (皇庭广场),Shopping Mall,22.53651240864365,114.05457591141355,福华三路118号,Guangdong,Shenzhen,Nanshan District
1089,Marco Polo Shenzhen (深圳马哥孛罗好日子酒店),Hotel,22.539885175970156,114.04815903442733,"28 Fuhua 1st Rd, Futian",Guangdong,Shenzhen,Nanshan District
1090,Starbucks (星巴克),Coffee Shop,22.537294680524848,114.04803667357726,Fuhua 3rd Rd,Guangdong,Shenzhen,Nanshan District
1091,Civic Center (深圳市民中心),Government Building,22.545623385468165,114.05487787990691,福田区福中路3号,Guangdong,Shenzhen,Nanshan District
1092,Shenzhen North Railway Station (深圳北站),Train Station,22.61217862909745,114.02356445789337,28 Zhiyuan M. Rd.,Guangdong,Shenzhen,Nanshan District
1093,Futian Railway Station (福田站),Train Station,22.540775887404983,114.05182628838185,Underground Yitian Rd.,Guangdong,Shenzhen,Nanshan District
1094,Futian Metro Station (福田地铁站),Metro Station,22.542547083419187,114.04791086912155,Futian Railway Station - Shennan Blvd. & Yitian Rd.,Guangdong,Shenzhen,Nanshan District
1095,Shenzhen Convention & Exhibition Center (深圳会展中心),Convention Center,22.5344691114989,114.0545642972368,福华三路,Guangdong,Shenzhen,Nanshan District
1096,Shenzhen (深圳),City,22.543952233157825,114.0545654296875,,Guangdong,Shenzhen,Nanshan District
1097,Convention & Exhibition Center Metro Station (会展中心地铁站),Metro Station,22.537230677652072,114.05594638222534,Fuhua Rd. & Zhongxin 5th Rd.,Guangdong,Shenzhen,Nanshan District
1098,Shenzhen North Metro Station (深圳北地铁站),Metro Station,22.613666493785498,114.02537695474436,Shenzhen North Railway Station - Xinqu Blvd. & Liuxian Blvd.,Guangdong,Shenzhen,Nanshan District
1099,"The Ritz-Carlton, Shenzhen (The Ritz-Carlton, Shenzhen 深圳星河丽思卡尔顿酒店)",Hotel,22.5356267766216,114.05624844994014,"116 Fuhua San Road, Futian District",Guangdong,Shenzhen,Nanshan District
1100,Lianhua Hill Park (莲花山公园),Park,22.555525459338785,114.05439376831055,6026 Hongli Rd.,Guangdong,Shenzhen,Nanshan District
1101,Four Points by Sheraton Shenzhen,Hotel,22.51390792527878,114.05713853509158,"5 Guihua Road, Futian District",Guangdong,Shenzhen,Nanshan District
1102,Sheraton Shenzhen Futian Hotel (深圳大中华喜来登酒店),Hotel,22.535925710165536,114.06200051307678,"Great China International Exchange Square, Fuhua Road, Futian District, Futian District",Guangdong,Shenzhen,Nanshan District
1103,MTR Lok Ma Chau Station (港鐵落馬洲站),Train Station,22.514464,114.065647,Tun Yu Rd,Guangdong,Shenzhen,Nanshan District
1104,Yuen Long 元朗,Neighborhood,22.44590277777778,114.018875,,Guangdong,Shenzhen,Nanshan District
1105,Huanggang Immigration Port (皇岗口岸),Border Crossing,22.52278498765332,114.06816959381104,Tongqing Rd.,Guangdong,Shenzhen,Nanshan District
1106,Tsz Shan Monastery (慈山寺),Buddhist Temple,22.473694444444444,114.20625,88 Universal Gate Rd,Guangdong,Shenzhen,Yantian
1107,Dameisha Beach (大梅沙海滩),Beach,22.596410688395483,114.30527903582148,,Guangdong,Shenzhen,Yantian
1108,King Glory Plaza (金光华广场),Shopping Mall,22.539496,114.119818,"2115-2871 Jiabin Rd., Luohu",Guangdong,Shenzhen,Yantian
1109,Shangri-La Shenzhen (深圳香格里拉大酒店),Hotel,22.536070270331557,114.11310182722639,建设路1002号,Guangdong,Shenzhen,Yantian
1110,Grand Hyatt Shenzhen,Hotel,22.540134349354137,114.10619589307639,1881 Baoan Nan Road,Guangdong,Shenzhen,Yantian
1111,The MixC (万象城),Shopping Mall,22.542563790131034,114.10586706254303,1881 Bao'an S Rd,Guangdong,Shenzhen,Yantian
1112,Dongmen Pedestrian Zone (东门步行街 Dongmen Pedestrian Zone),Pedestrian Plaza,22.54807506291811,114.1146056682924,深南东路,Guangdong,Shenzhen,Yantian
1113,The St. Regis Shenzhen (深圳瑞吉酒店),Hotel,22.545239,114.101256,5016 Shennan E Rd,Guangdong,Shenzhen,Yantian
1114,KK Mall (京基·百纳空间),Shopping Mall,22.546511032347954,114.10147156728472,"5016 Shennan East Rd., Luohu",Guangdong,Shenzhen,Yantian
1115,Luohu Commercial City (罗湖商业城 Luohu Commercial City),Shopping Mall,22.530625,114.11891,Heping Rd.,Guangdong,Shenzhen,Yantian
1116,新都酒店 Century Plaza Hotel,Hotel,22.538741929752856,114.11279192423808,"4001 Chunfeng Rd, Luohu",Guangdong,Shenzhen,Yantian
1117,Shenzhen Railway Station (深圳站),Train Station,22.534320349570027,114.11303758621216,罗湖区建设路1号,Guangdong,Shenzhen,Yantian
1118,Best Western Shenzhen Felicity Hotel (富临大酒店),Hotel,22.53402462030169,114.11069218729729,1085 Heping Rd,Guangdong,Shenzhen,Yantian
1119,Laojie Metro Station (老街地铁站),Metro Station,22.547530771317586,114.11162701298564,Jianshe Rd. & Jiefang Rd.,Guangdong,Shenzhen,Yantian
1120,Luohu Metro Station (罗湖地铁站),Metro Station,22.53321045972794,114.11316633224486,Shenzhen Railway Station - Jianshe Rd.,Guangdong,Shenzhen,Yantian
1121,Luohu Immigration Port (罗湖口岸),Government Building,22.53144049140362,114.11349085222874,Renmin South Rd.,Guangdong,Shenzhen,Yantian
1122,MTR Sheung Shui Station (港鐵上水站),Train Station,22.501257,114.127945,San Wan Rd,Guangdong,Shenzhen,Yantian
1123,Lo Wu Control Point (羅湖出入境管制站),Border Crossing,22.529424875493437,114.11345601081848,MTR Lo Wu Station,Guangdong,Shenzhen,Yantian
1124,MTR Lo Wu Station (港鐵羅湖站),Metro Station,22.528235961866624,114.11341492314725,Lo Wu Station Rd,Guangdong,Shenzhen,Yantian
1125,Grand Theater Metro Station (大剧院地铁站),Metro Station,22.54487661470182,114.10317286706172,Shennan E. Rd. & Hongling M. Rd.,Guangdong,Shenzhen,Yantian
1126,MTR Tai Po Market Station (港鐵大埔墟站),Train Station,22.4445559,114.1704893,Nga Wan Rd,Guangdong,Shenzhen,Yantian
1127,Zhuhai (珠海),City,22.27360758087044,113.57217282056808,,Guangdong,Zhuhai,Xiangzhou District
1128,Zhuhai Railway Station (珠海站),Train Station,22.218009556490628,113.54469895362854,昌盛路,Guangdong,Zhuhai,Xiangzhou District
1129,Port Plaza (拱北囗岸购物广场),Shopping Mall,22.218255,113.554028,36号 Guihua South Rd.,Guangdong,Zhuhai,Xiangzhou District
1130,珠海九洲港码头 Zhuhai Ferry Terminal,Pier,22.242195118828953,113.58738543383048,情侣南路495号,Guangdong,Zhuhai,Xiangzhou District
1131,Border Gate (Portas do Cerco 關閘),Border Crossing,22.2160089978338,113.54906496790562,Portas do Cerco,Guangdong,Zhuhai,Xiangzhou District
1132,Gongbei Port (拱北口岸),Border Crossing,22.215561,113.554036,Gongbei,Guangdong,Zhuhai,Xiangzhou District
1133,Ruins of St. Paul's (大三巴牌坊),Historic Site,22.197419,113.540847,Travessa de São Paulo,Guangdong,Zhuhai,Xiangzhou District
1134,Fortaleza do Monte (Fortaleza do Monte 大炮台),Historic Site,22.196847226340623,113.5419585494095,澳門博物館前地,Guangdong,Zhuhai,Xiangzhou District
1135,Sofitel Macau at Ponte 16 (澳門十六浦索菲特酒店),Hotel,22.19711373177195,113.53633563969679,Rua do Visconde Paco de Arcos,Guangdong,Zhuhai,Xiangzhou District
1136,Praça do Tap Seac (塔石廣場 Praça do Tap Seac),Plaza,22.198094004026533,113.54703783988953,塔石廣場,Guangdong,Zhuhai,Xiangzhou District
1137,Tou Tou Koi (陶陶居海鮮酒家 Tou Tou Koi),Chinese Restaurant,22.194854996350553,113.53776709392038,澳門爐石塘巷6-8號,Guangdong,Zhuhai,Xiangzhou District
1138,The Eight (8餐廳 The Eight),Cantonese Restaurant,22.191370352589967,113.54387964930892,"2/F, Avenida de Lisboa",Guangdong,Zhuhai,Xiangzhou District
1139,Senado Square (議事亭前地),Plaza,22.193589890637657,113.53986787548072,Avenida do Almeida Ribeiro,Guangdong,Zhuhai,Xiangzhou District
1140,St. Dominic's Church (聖母玫瑰堂),Church,22.19451076840142,113.5403933419984,Largo de São Domingos,Guangdong,Zhuhai,Xiangzhou District
1141,Grand Lapa Macau (澳門金麗華酒店),Hotel,22.192900216269432,113.55327128764658,956-1110 Avenida Da Amizade,Guangdong,Zhuhai,Xiangzhou District
1142,Museum of Macau (Museum Of Macau 澳門博物館),History Museum,22.197137,113.542195,澳門博物館前地112號,Guangdong,Zhuhai,Xiangzhou District
1143,SKY 21,Lounge,22.190077320818293,113.54033231735228,21/F AIA Tower,Guangdong,Zhuhai,Xiangzhou District
1144,Robuchon au Dôme (Robuchon au Dôme 天巢法國餐廳),French Restaurant,22.191098999521127,113.54334886213663,"43/F, Grand Lisboa, Avenida de Lisboa",Guangdong,Zhuhai,Xiangzhou District
1145,Margaret's Café e Nata (瑪嘉烈蛋撻),Dessert Shop,22.191884242272565,113.54191636106937,"Rua do Comandante Mata e Oliviera, 17-B",Guangdong,Zhuhai,Xiangzhou District
1146,St. Lawrence's Church (聖老楞佐教堂),Church,22.19036352688912,113.53684790079821,Ave. São Lourenço,Guangdong,Zhuhai,Xiangzhou District
1147,Café Nam Ping (南屏雅敘),Café,22.198060566509163,113.5378038146998,澳門十月初五街85-85A,Guangdong,Zhuhai,Xiangzhou District
1148,Fortaleza da Guia 東望洋炮台 (松山炮台),Lighthouse,22.196508615986772,113.54951346608762,Rampa da Guia,Guangdong,Zhuhai,Xiangzhou District
1149,民政總署 Leal Senado Building,Art Gallery,22.193500668299833,113.53975521586844,亞美打利比盧大馬路163號,Guangdong,Zhuhai,Xiangzhou District
1150,Pastelaria Koi Kei 鉅記手信,Bakery,22.193667272482088,113.53989223243747,Senado Square,Guangdong,Zhuhai,Xiangzhou District
1151,Rio Hotel & Casino,Hotel,22.19259298733935,113.54987422263082,33 Rua Gonzaga Gomes,Guangdong,Zhuhai,Xiangzhou District
1152,Hotel Lisboa Macau (澳門葡京酒店),Hotel,22.18984883367327,113.54438781738281,2-4 Avenida de Lisboa,Guangdong,Zhuhai,Xiangzhou District
1153,StarWorld Macau (星際酒店),Casino,22.19029682848214,113.54789969803515,友誼大馬路 (Av. da Amizade),Guangdong,Zhuhai,Xiangzhou District
1154,新麗華酒店 Hotel Sintra,Hotel,22.1906391020662,113.54188298242343,Avenida de D.João IV,Guangdong,Zhuhai,Xiangzhou District
1155,Metropark Hotel Macau 澳門維景酒店,Hotel,22.19203826424608,113.54836077419638,199 Rua de Pequim,Guangdong,Zhuhai,Xiangzhou District
1156,Grand Lisboa Hotel and Casino (新葡京酒店賭場),Hotel,22.190383979394298,113.54334200481637,Avenida de Lisboa,Guangdong,Zhuhai,Xiangzhou District
1157,Wong Chi Kei Noodles (黃枝記),Noodle House,22.194088977225448,113.54025991659746,新馬路議事亭前地17號,Guangdong,Zhuhai,Xiangzhou District
1158,Chan Kong Kei (陳光記飯店),Cantonese Restaurant,22.19199353987998,113.54157032448478,"19 Rua do Dr. Pedro Jose Lobo, Centro",Guangdong,Zhuhai,Xiangzhou District
1159,Hotel Royal Macau (皇都酒店),Hotel,22.196357624841998,113.54670501853268,"Estrada da Vitória, 2",Guangdong,Zhuhai,Xiangzhou District
1160,Sands Casino (Sands Casino 金沙娛樂場),Casino,22.191549595262657,113.55407448660134,Av. Dr. Sun Yat-Sen,Guangdong,Zhuhai,Xiangzhou District
1161,Yee Shun Milk Company (義順牛奶),Dessert Shop,22.192743637166746,113.5403979818143,新馬路381號,Guangdong,Zhuhai,Xiangzhou District
1162,Starbucks 星巴克,Coffee Shop,22.196776774001115,113.540771934439,"Shop C-D, G/F, No.34 Ruin of St. Paul Street",Guangdong,Zhuhai,Xiangzhou District
1163,葡京娛樂場 Casino Lisboa,Casino,22.190037722584158,113.54363264629322,Avenida de Lisboa,Guangdong,Zhuhai,Xiangzhou District
1164,McDonald's (麥當勞),Fast Food Restaurant,22.19748038672926,113.55897895836725,3/F Macau Ferry Terminal,Guangdong,Zhuhai,Xiangzhou District
1165,New Yaohan (新八佰伴 New Yaohan),Department Store,22.191193594758314,113.54044527021146,"Av. Comercial de Macau. Zona- A, Lote.1",Guangdong,Zhuhai,Xiangzhou District
1166,Grand Emperor Hotel 英皇娛樂酒店,Hotel,22.190237161657436,113.54057972983944,288 Avenida Comercial de Macau,Guangdong,Zhuhai,Xiangzhou District
1167,Macau Square (Macau Square 澳門廣場),Plaza,22.191471948452214,113.54125519477795,AVENIDA DO INFANTE D.HENRIQUE,Guangdong,Zhuhai,Xiangzhou District
1168,HZMB Zhuhai Port (港珠澳大桥珠海口岸 HZMB Zhuhai Port),Border Crossing,22.209239,113.575886,,Guangdong,Zhuhai,Xiangzhou District
1169,Macau Maritime Ferry Terminal (澳門外港客運碼頭),Pier,22.196723,113.559322,Av. da Amizade,Guangdong,Zhuhai,Xiangzhou District
1170,Macau (澳門),State,22.196323668313642,113.55876324181597,,Guangdong,Zhuhai,Xiangzhou District
1171,TurboJET 噴射飛航,Boat or Ferry,22.19645078191069,113.55972814544617,Macau Ferry Terminal,Guangdong,Zhuhai,Xiangzhou District
1172,Igreja da Sé / Cathedral 大堂(主教座堂),Church,22.193721557789615,113.54127302667716,No.1 Lg. de Sé,Guangdong,Zhuhai,Xiangzhou District
1173,Macau Fisherman's Wharf 澳門漁人碼頭,Theme Park,22.193906842843806,113.55599640083646,Av. Dr. Sun Yat-Sen,Guangdong,Zhuhai,Xiangzhou District
1174,Templo de A-Má 媽閣廟,Temple,22.18642366794579,113.5310901215587,媽閣第二巷5號,Guangdong,Zhuhai,Xiangzhou District
1175,Wynn Macau (永利澳門),Hotel,22.187921579488137,113.5466194152832,Rue Cidade de Sintra,Guangdong,Zhuhai,Xiangzhou District
1176,MGM Macau (澳門美高梅),Hotel,22.185954560840198,113.54788541793822,Avenida Dr. Sun Yat-Sen,Guangdong,Zhuhai,Xiangzhou District
1177,"Mandarin Oriental, Macau",Hotel,22.184605299496624,113.54699713624564,"Avenida Dr Sun Yat Sen, Cotai",Guangdong,Zhuhai,Xiangzhou District
1178,Macau Tower (澳門旅遊塔),Scenic Lookout,22.180069839942934,113.53764086588474,Largo da Torre de Macau,Guangdong,Zhuhai,Xiangzhou District
1179,觀音蓮花苑 (觀音像) Centro Ecuménico Kun Iam,Sculpture Garden,22.185806,113.552114,Av. Dr. Sun Yat Sen,Guangdong,Zhuhai,Xiangzhou District
1180,Galaxy Hotel Macau (Galaxy Hotel Macau 銀河酒店),Hotel,22.15035359703095,113.55219413534728,Estrada da Baia de Nossa Senhora da Esperanca,Guangdong,Zhuhai,Xiangzhou District
1181,The House Of Dancing Water (水舞間),Theater,22.14989854722812,113.56839560447237,City Of Dreams,Guangdong,Zhuhai,Xiangzhou District
1182,The Venetian Macao (威尼斯人度假村),Resort,22.1481620838536,113.56151844431942,"Estrada da Baía de N. Senhora da Esperança, s/n",Guangdong,Zhuhai,Xiangzhou District
1183,Galaxy Macau (澳門銀河),Resort,22.149264678520673,113.5549849892942,Avenida Marginal Flor de Lotus,Guangdong,Zhuhai,Xiangzhou District
1184,City of Dreams Macau (新濠天地),Hotel,22.149026,113.567277,"Estrada do Istmo, Cotai",Guangdong,Zhuhai,Xiangzhou District
1185,The Grand Canal Shoppes (威尼斯人購物中心),Shopping Mall,22.148552416163444,113.55925150650388,"The Venetian Macau, Castella Street, Di Moda Street and San Luca Street on Level 3",Guangdong,Zhuhai,Xiangzhou District
1186,JW Marriott Hotel Macau (澳門JW萬豪酒店),Hotel,22.146724763073763,113.55545546627047,"Galaxy Macauâ„¢, Estrada da Baía da Nossa Senhora da Esperança, s/n, COTAI",Guangdong,Zhuhai,Xiangzhou District
1187,North (北方館),Beijing Restaurant,22.14907069425319,113.56299964609713,"Casino Level 1, Shop 1015, The Venetian Macao",Guangdong,Zhuhai,Xiangzhou District
1188,Lord Stow's Bakery & Cafe (安德魯餅店及咖啡店),Café,22.147303141127196,113.56245163262928,"Unit 2119A, Level 3, The Grand Canal Shoppes, The Venetian",Guangdong,Zhuhai,Xiangzhou District
1189,Banyan Tree Macau (Banyan Tree Macau 澳門悦榕庄),Hotel,22.14871580035546,113.5524440898298,"Galaxy Macau, Avenida Marginal Flor de Lotus",Guangdong,Zhuhai,Xiangzhou District
1190,The Parisian Macao (澳門巴黎人),Hotel,22.14607179265913,113.56344223022461,"Estrada do Istmo, Lote 3",Guangdong,Zhuhai,Xiangzhou District
1191,Wynn Palace Cotai (永利皇宫),Resort,22.147194,113.56976,Av. da Nave Desportiva,Guangdong,Zhuhai,Xiangzhou District
1192,"Conrad Macao, Cotai Central",Hotel,22.14663198070442,113.5643193958162,"At Sands Cotai Central, The Cotai Strip, Estrada do Istmo",Guangdong,Zhuhai,Xiangzhou District
1193,Sands Cotai Central (Sands Cotai Central 金沙城中心),Resort,22.1459958829737,113.56412786718239,Estrada do Istmo. s/n,Guangdong,Zhuhai,Xiangzhou District
1194,Louvre International Furniture Exhibition Center (中国罗浮宫国际家具博览中心),Furniture / Home Store,22.947236187315355,113.08486994124155,"325 National Rd, Lecong Sec | 325国道乐从路段",Guangdong,Foshan,Chancheng District
1195,ShunDe Furniture Market,Furniture / Home Store,22.93677968491133,113.08620781386493,,Guangdong,Foshan,Chancheng District
1196,ShunDe Furniture Market,Furniture / Home Store,22.93677968491133,113.08620781386493,,Guangdong,Foshan,Shunde
1197,Louvre International Furniture Exhibition Center (中国罗浮宫国际家具博览中心),Furniture / Home Store,22.947236187315355,113.08486994124155,"325 National Rd, Lecong Sec | 325国道乐从路段",Guangdong,Foshan,Shunde
