,Name,Category,Latitude,Longitude,address,Province,City,District / County
0,那家盛宴 Nala Restaurant,Chinese Restaurant,39.99081648,116.19680679999999,B58 Maimai St.,Beijing,Beijing,Shijingshan
1,那家小馆 Najia Bistro,Beijing Restaurant,39.9781544,116.30659009999998,1 Danling St,Beijing,Beijing,Shijingshan
2,Ricci Café 睿奇咖啡,Café,39.99206126,116.3256457,1 Zhongguancun E Rd,Beijing,Beijing,Haidian
3,McDonald's (麦当劳),Fast Food Restaurant,39.66789202,116.31414170000001,地铁天宫院站C口,Beijing,Beijing,Daxing
4,馅老满,Dumpling Restaurant,39.94346786,116.3876522,旧鼓楼大街鼓韵青年旅店一层,Beijing,Beijing,Xicheng
5,羲和雅苑 Xi He Ya Yuan,Chinese Restaurant,39.98002921,116.30379180000001,15-3 Zhongguancun Ave,Beijing,Beijing,Shijingshan
6,小吊梨汤 Xiao Diao Li Tang,Asian Restaurant,39.933564000000004,116.315684,,Beijing,Beijing,Fengtai
7,KFC (肯德基),Fast Food Restaurant,39.90530716,116.22011100000002,石景山路18号万达广场一层,Beijing,Beijing,Fengtai
8,McDonald's (麦当劳),Fast Food Restaurant,39.90580789,116.2479116,42 Fuxing Rd,Beijing,Beijing,Shijingshan
9,Haidilao Hot Pot (海底捞火锅),Hotpot Restaurant,39.91440032,116.4764631,2 Yanjingxili,Beijing,Beijing,Tongzhou
10,Little Yunnan (小云南 Little Yunnan),Yunnan Restaurant,39.92557836,116.4004932,东皇城根北街28号,Beijing,Beijing,Chaoyang
11,1901 Cafe,Café,39.92144347,116.3718883,西安门大街,Beijing,Beijing,Haidian
12,Jubaoyuan Hotpot (聚宝源),Hotpot Restaurant,39.88540142,116.35737140000002,"5-2, Bldg 1, Niujie Xili",Beijing,Beijing,Xicheng
13,McDonald's (麦当劳),Fast Food Restaurant,39.89354776,116.3152372,118 Lianhuachi E Rd,Beijing,Beijing,Shijingshan
14,Marugame Seimen (丸亀製麺),Noodle House,39.92293371,116.43285159999998,华普商厦1层丸龟制面,Beijing,Beijing,Chaoyang
15,Haidilao Hotpot (海底捞),Hotpot Restaurant,39.89757029,116.22192350000002,18B Shijingshan Rd,Beijing,Beijing,Fengtai
16,hk european quality poultry,Chinese Restaurant,40.13003326,116.6531861,beijing 101300 China,Beijing,Beijing,Shunyi
17,McDonald's (麦当劳),Fast Food Restaurant,39.90613908,116.18469809999999,,Beijing,Beijing,Mentougou
18,南门涮肉 Nan Men Hotpot,Chinese Restaurant,39.93664412,116.38760020000001,1 Nanguanfang Alley,Beijing,Beijing,Xicheng
19,義和小馆 Xihe Bistro,Chinese Restaurant,39.91475986,116.3580274,"3-2, Jinchengfang St",Beijing,Beijing,Fengtai
20,McDonald's (麦当劳),Fast Food Restaurant,39.933497100000004,116.68417509999999,"Tongzhou, Hualong XiaoQu",Beijing,Beijing,Tongzhou
21,平娃三宝,Chinese Restaurant,39.92728766,116.45260490000001,,Beijing,Beijing,Chaoyang
22,McDonald's (麦当劳),Fast Food Restaurant,39.89797398,116.35790420000001,Changchunjie,Beijing,Beijing,Shijingshan
23,Black Sesame Kitchen,Chinese Restaurant,39.92285625,116.3948676,28 Zhong Lao Hutong,Beijing,Beijing,Xicheng
24,Atrium Restaurant,Chinese Restaurant,40.412932,116.54114080000001,,Beijing,Beijing,Huairou
25,Baoyuan Dumplings (宝源饺子屋),Dumpling Restaurant,39.944129499999995,116.46276340000001,"Bldg 6, Maizidian St",Beijing,Beijing,Chaoyang
26,河沿肉饼 Beijing Pie,Chinese Restaurant,39.91457241,116.40008970000001,159-2 Bei He Yan Ave,Beijing,Beijing,Dongcheng
27,阿西娅食府 Axiya Restaurant,Chinese Restaurant,39.97939007,116.299048,29 Suzhou St,Beijing,Beijing,Shijingshan
28,心泰心厨,Thai Restaurant,40.054190000000006,116.60988700000001,,Beijing,Beijing,Shunyi
29,北平咖啡 Peking Cafe,Café,39.93435871,116.39692279999998,"113-2, Nanluogu Alley, Dongcheng District",Beijing,Beijing,Xicheng
30,味多美,Bakery,39.861064,116.28270800000001,,Beijing,Beijing,Fengtai
31,玉林烤鸭店,Chinese Restaurant,39.73593892,116.3336699,,Beijing,Beijing,Daxing
32,McDonald's (麦当劳),Fast Food Restaurant,39.93741601,116.3394065,121-1 Xizhimen Outer Ave,Beijing,Beijing,Xicheng
33,Malacca Legend,Malay Restaurant,40.101962,116.507456,6 Luodong Road,Beijing,Beijing,Shunyi
34,阿西娅食府 Axiya Restaurant,Chinese Restaurant,39.97939007,116.299048,29 Suzhou St,Beijing,Beijing,Haidian
35,Pizza Hut (必胜客),Pizza Place,39.866088899999994,116.49436709999999,欢乐谷,Beijing,Beijing,Tongzhou
36,KFC (肯德基),Fast Food Restaurant,39.94262023,116.30096640000001,紫竹院路31号,Beijing,Beijing,Fengtai
37,Xiao Diao Li Tang (小吊梨汤),Chinese Restaurant,39.98719843,116.2985503,8 Yiheyuan Rd,Beijing,Beijing,Shijingshan
38,通州北苑上岛咖啡,Café,39.90503927,116.63028030000001,,Beijing,Beijing,Tongzhou
39,潮河湾生态农业基地,BBQ Joint,40.3821907,116.89811709999998,,Beijing,Beijing,Miyun
40,Hatsune,Sushi Restaurant,39.91262913,116.4530969,1 Guanghua Rd,Beijing,Beijing,Chaoyang
41,小吊梨汤,Chinese Restaurant,39.91891876,116.4373334,39 Shenlu St,Beijing,Beijing,Chaoyang
42,北京乡土情,Asian Restaurant,40.456737,115.96453999999999,,Beijing,Beijing,Yanqing
43,海底捞火锅 Haidilao Hot Pot,Hotpot Restaurant,39.96472824,116.3363366,23 N 3rd Ring Rd W,Beijing,Beijing,Fengtai
44,RAMO,Pizza Place,39.94268828,116.4041219,64 Fangjia Hutong,Beijing,Beijing,Dongcheng
45,McDonald's (麦当劳),Fast Food Restaurant,39.90635378,116.3382304,15 Fuxingmen Outer Ave,Beijing,Beijing,Xicheng
46,McDonald's (麦当劳),Fast Food Restaurant,39.88801793,116.35206090000001,3064 Guang'anmennei Ave,Beijing,Beijing,Fengtai
47,香草香草云南原生态火锅,Chinese Restaurant,39.97040508,116.3004351,苏州街55号名商大厦2楼,Beijing,Beijing,Haidian
48,新疆饭庄 Xinjiang Restaurant,Xinjiang Restaurant,39.93344449,116.34199890000001,车公庄大街,Beijing,Beijing,Fengtai
49,RAMO,Pizza Place,39.94268828,116.4041219,64 Fangjia Hutong,Beijing,Beijing,Chaoyang
50,吐鲁番餐厅,Xinjiang Restaurant,39.88775602,116.35668429999998,西城区牛街 6 号,Beijing,Beijing,Xicheng
51,Seven Bar,Café,39.94101835,116.3967423,70 Beiluoguxiang,Beijing,Beijing,Xicheng
52,McDonald's (麦当劳),Fast Food Restaurant,39.91025762,116.59139270000001,,Beijing,Beijing,Tongzhou
53,海底捞火锅 Haidilao Hotpot,Hotpot Restaurant,39.86504066,116.2913597,36 Fengtai N Rd,Beijing,Beijing,Fengtai
54,铃木食堂 Suzuki Kitchen,Japanese Restaurant,39.89455841,116.3873034,No.10-14 Yangmeizhu XieJie,Beijing,Beijing,Xicheng
55,天厨妙香素食馆 Tian Chu Miao Xiang,Vegetarian / Vegan Restaurant,39.99388151,116.3228379,清华创业大厦,Beijing,Beijing,Shijingshan
56,Blue Frog (蓝蛙),Burger Joint,40.08780055,116.5303673,,Beijing,Beijing,Shunyi
57,金百万,Restaurant,39.916483,116.254617,海淀区金沟河路4号,Beijing,Beijing,Mentougou
58,Cafe Groove,Café,39.93392501,116.4379894,"工体北路21号1F-17,18,19",Beijing,Beijing,Chaoyang
59,富民益润饺子馆,Chinese Restaurant,40.46712875,115.98738859999999,,Beijing,Beijing,Yanqing
60,湘西食堂（湘西驻京办餐厅）,Chinese Restaurant,39.91145104,116.3568746,太平桥大街111号湘西大厦10楼(近辟才胡同),Beijing,Beijing,Xicheng
61,Duo Cafe,Café,39.903423,116.63436899999999,,Beijing,Beijing,Tongzhou
62,My Soup 賣湯 WFC,Cantonese Restaurant,39.91712856,116.4528629,,Beijing,Beijing,Chaoyang
63,吉野家 Yoshinoya,Japanese Restaurant,39.89583681,116.3165749,北京西站,Beijing,Beijing,Fengtai
64,Sculpting in Time (雕刻时光),Café,39.95570995,116.30516740000002,7 Weigongcun Rd,Beijing,Beijing,Haidian
65,Charme (港丽餐厅),Hong Kong Restaurant,39.97996168,116.3070834,15 Zhongguancun Ave,Beijing,Beijing,Haidian
66,Cafe Bros,Café,39.98992042,116.33086159999999,,Beijing,Beijing,Shijingshan
67,祥云雅轩,Chinese Restaurant,40.370160999999996,116.84221200000002,,Beijing,Beijing,Miyun
68,KFC (肯德基),Fast Food Restaurant,39.94262023,116.30096640000001,紫竹院路31号,Beijing,Beijing,Haidian
69,Zhang Mama (张妈妈特色川味馆),Szechuan Restaurant,39.93697554,116.4024582,76 Jiaodaokou Nanjie,Beijing,Beijing,Chaoyang
70,McDonald's (麦当劳),Fast Food Restaurant,39.89797398,116.35790420000001,Changchunjie,Beijing,Beijing,Xicheng
71,云洱小镇 Yun-er Town,Yunnan Restaurant,39.93989134,116.39680600000001,84 Beiluogu Alley,Beijing,Beijing,Xicheng
72,Qmex,Mexican Restaurant,39.93065778,116.45045890000002,"Courtyard 4, Gongti N Rd",Beijing,Beijing,Chaoyang
73,Bian Yi Fang (便宜坊烤鸭店),Peking Duck Restaurant,39.89507474,116.3945505,东城区前门大街东侧鲜鱼口老字号餐饮一条街,Beijing,Beijing,Fengtai
74,KFC (肯德基),Fast Food Restaurant,40.144073600000006,117.0913503,平谷区,Beijing,Beijing,Pinggu
75,Dali Courtyard (大里院子),Yunnan Restaurant,39.93998329,116.39881329999999,67 Xiaojingchang Alley,Beijing,Beijing,Fengtai
76,Bottega,Italian Restaurant,39.93479536,116.4485999,"2/F, Nali Patio, 81 Sanlitun Bei Lu",Beijing,Beijing,Dongcheng
77,Western mahua 西部马华,Xinjiang Restaurant,39.99189865,116.3461388,20-2 Chengfu Rd,Beijing,Beijing,Haidian
78,Hotto Motto (好麦道),Deli / Bodega,39.97663368,116.30623270000001,16 Haidian M St,Beijing,Beijing,Shijingshan
79,金殿餐厅,Chinese Restaurant,40.24100824,116.14166979999999,,Beijing,Beijing,Changping
80,Prego,Italian Restaurant,39.91618386,116.35334440000001,9B Financial Street,Beijing,Beijing,Xicheng
81,Summer Palace (夏宮),Chinese Restaurant,39.90988558,116.42878020000002,,Beijing,Beijing,Chaoyang
82,Din Tai Fung (鼎泰丰),Dumpling Restaurant,39.90811639,116.3674256,133 Xidan N. Ave.,Beijing,Beijing,Fengtai
83,好嫂子刀削面,Asian Restaurant,39.73965669,116.33324329999999,,Beijing,Beijing,Daxing
84,The 798 韩国料理地区,Korean Restaurant,39.99184325,116.3303447,35 Chengfu Rd.,Beijing,Beijing,Haidian
85,Dadong Roast Duck (大董烤鸭店),Beijing Restaurant,39.924625,116.285524,93 Fucheng Rd,Beijing,Beijing,Haidian
86,Алиса,Chinese Restaurant,39.917285,116.437331,"China, Beijing, No.6, Ya Bao Lu",Beijing,Beijing,Chaoyang
87,Schindler's Tankstelle 申德勒加油站,German Restaurant,39.912130100000006,116.43920800000001,15 Guanghua Rd,Beijing,Beijing,Chaoyang
88,张记烤羊腿,BBQ Joint,39.94119878,116.4028261,交到口北二条39号,Beijing,Beijing,Fengtai
89,家乡渔源,Chinese Restaurant,40.47465,116.866235,密关路,Beijing,Beijing,Miyun
90,鹿港小镇 Bellagio,Taiwanese Restaurant,39.957011,116.28028400000001,1 Yuanda Rd,Beijing,Beijing,Haidian
91,张记烤羊腿,BBQ Joint,39.94119878,116.4028261,交到口北二条39号,Beijing,Beijing,Xicheng
92,Siji Minfu Roast Duck (四季民福 Siji Minfu Roast Duck),Chinese Restaurant,39.916945,116.4025068,32 Dengshikou W St,Beijing,Beijing,Chaoyang
93,McDonald's (麦当劳),Fast Food Restaurant,39.752887,116.21196599999999,,Beijing,Beijing,Daxing
94,中8楼 Middle 8th,Yunnan Restaurant,39.97876773,116.30769029999999,R17 Zhongguancun Plaza Pedestrian St,Beijing,Beijing,Shijingshan
95,莲coffee&t,Café,39.922812,116.356881,185 Fuchengmen Inner St,Beijing,Beijing,Xicheng
96,La Bamba,Mexican Restaurant,39.99050276,116.3309358,Chengfu Rd,Beijing,Beijing,Haidian
97,85°C Bakery Café (85度C),Bakery,39.97538965,116.33709679999998,Zhichun Rd,Beijing,Beijing,Shijingshan
98,McDonald's (麦当劳),Fast Food Restaurant,39.98231728,116.30736670000002,3 Haidian Ave,Beijing,Beijing,Haidian
99,Haidilao Hot Pot (海底捞火锅),Hotpot Restaurant,40.126663,116.64601299999998,,Beijing,Beijing,Shunyi
100,西贝西北菜 Xibei Restaurant,Chinese Restaurant,39.95732365,116.28160849999999,1 Yuanda Rd,Beijing,Beijing,Haidian
101,Dadong Roast Duck (大董烤鸭店),Peking Duck Restaurant,39.93040526,116.4433341,工人体育场东门北侧(工体东门),Beijing,Beijing,Chaoyang
102,风波庄（延庆分舵）,Chinese Restaurant,40.46642129,115.97417140000002,延庆县广兴街72号,Beijing,Beijing,Yanqing
103,旺旺食品,Middle Eastern Restaurant,40.153469,117.12868300000001,,Beijing,Beijing,Pinggu
104,McDonald's (麦当劳),Fast Food Restaurant,39.91114941,116.297028,翠微路二餐厅,Beijing,Beijing,Shijingshan
105,KFC (肯德基),Fast Food Restaurant,39.85062429999999,116.277047,丰台正阳桥北,Beijing,Beijing,Shijingshan
106,鹅和鸭农庄烧烤场,BBQ Joint,40.33173284,116.5497451,,Beijing,Beijing,Huairou
107,Zarah Café,Café,39.93938939,116.3999571,46 Gulou Dongdajie 鼓楼东大街46号,Beijing,Beijing,Chaoyang
108,McDonald's (麦当劳),Fast Food Restaurant,39.89797398,116.35790420000001,Changchunjie,Beijing,Beijing,Fengtai
109,Duck de Chine 全鸭季,Chinese Restaurant,39.91315234,116.41479270000002,98 Jinbao Street,Beijing,Beijing,Chaoyang
110,众德大酒店,Restaurant,40.369703,116.84775,,Beijing,Beijing,Miyun
111,河沿肉饼 Beijing Pie,Chinese Restaurant,39.91457241,116.40008970000001,159-2 Bei He Yan Ave,Beijing,Beijing,Fengtai
112,"Morton's of Chicago, The Steakhouse (Morton's of Chicago, The Steakhouse 北京莫尔顿牛排坊)",Steakhouse,39.91484855,116.41313490000002,"2/F Regent Hotel, 99 Jinbao St.",Beijing,Beijing,Dongcheng
113,四季民福烤鸭店（故宫店）,Peking Duck Restaurant,39.91324491,116.39628559999998,南池子大街11号,Beijing,Beijing,Dongcheng
114,那家小馆 Najia Bistro,Beijing Restaurant,39.9781544,116.30659009999998,1 Danling St,Beijing,Beijing,Haidian
115,Shangye Courtyard (上也酒吧),Café,39.925891,116.415002,,Beijing,Beijing,Dongcheng
116,La Mezza Luna,Italian Restaurant,40.05226533,116.5569221,,Beijing,Beijing,Shunyi
117,权金城,Korean Restaurant,39.90519859,116.22042820000001,石景山区石景山路乙 18 号（万达广场 3 层）,Beijing,Beijing,Shijingshan
118,龙兴康乐家园,Chinese Restaurant,40.50881343,115.9707014,,Beijing,Beijing,Yanqing
119,McDonald's (麦当劳),Fast Food Restaurant,39.93036067,116.19233429999998,苹果园南路 9 号,Beijing,Beijing,Shijingshan
120,Katchup,Burger Joint,39.9363205,116.4023409,53-1 Jiaodaokou Nandajie,Beijing,Beijing,Fengtai
121,雅品茶餐厅,Chinese Restaurant,40.05479311,116.60876129999998,T3,Beijing,Beijing,Shunyi
122,大鸭梨烤鸭(房山店),Chinese Restaurant,39.694866,115.97843999999999,,Beijing,Beijing,Fangshan
123,Helen's Cafe,Café,39.95594064,116.3110572,,Beijing,Beijing,Shijingshan
124,Haidilao Hot Pot (海底捞火锅),Hotpot Restaurant,39.91088371,116.29774409999999,12 Cuiwei Rd,Beijing,Beijing,Fengtai
125,港丽餐厅,Chinese Restaurant,39.90901202,116.36738059999999,西单北大街131号大悦城6楼01号,Beijing,Beijing,Xicheng
126,Blue Frog (蓝蛙),Burger Joint,39.97815873,116.3090506,Zhongguancun Pedestrian St,Beijing,Beijing,Shijingshan
127,Din Tai Fung (鼎泰丰),Dumpling Restaurant,39.96886879,116.3150256,40 Zhongguancun Ave,Beijing,Beijing,Haidian
128,铁粉,Vietnamese Restaurant,39.92616232,116.4108966,373 Dongsi North Ave,Beijing,Beijing,Dongcheng
129,Puerta 20 波尔塔20,Spanish Restaurant,39.92995216,116.4396837,工体20号看台入口边,Beijing,Beijing,Chaoyang
130,Duck de Chine 全鸭季,Chinese Restaurant,39.91315234,116.41479270000002,98 Jinbao Street,Beijing,Beijing,Dongcheng
131,Chai's Restaurant | 柴氏风味斋,Chinese Restaurant,39.92545734,116.32491770000001,甘家口小区21号楼,Beijing,Beijing,Shijingshan
132,Jingzun Peking Duck Restaurant (京尊烤鸭),Peking Duck Restaurant,39.93586599,116.4377118,"6 Taipingzhuang Nanli, Chunxiu Rd",Beijing,Beijing,Chaoyang
133,秦唐府,Chinese Restaurant,39.93414722,116.4108686,7 Gulouyuan Alley,Beijing,Beijing,Xicheng
134,Baihe Vegetarian Restaurant (百合素食),Vegetarian / Vegan Restaurant,39.9413124,116.41787690000001,23 Caoyuan Hutong,Beijing,Beijing,Dongcheng
135,Seven Bar,Café,39.94101835,116.3967423,70 Beiluoguxiang,Beijing,Beijing,Dongcheng
136,乌巢比萨 The Kro's Nest,Pizza Place,40.0882955,116.53039609999999,,Beijing,Beijing,Shunyi
137,Lei Garden (利苑酒家),Cantonese Restaurant,39.91493729,116.4133881,89 Jinbao St,Beijing,Beijing,Dongcheng
138,South Beauty Financial St.,Chinese Restaurant,39.91221331,116.36062150000001,"Floor 1, ShunCheng Hotel",Beijing,Beijing,Xicheng
139,Din Tai Fung (鼎泰丰),Dumpling Restaurant,39.9136299,116.40576580000001,138 Wangfujing Ave,Beijing,Beijing,Xicheng
140,鑫鼎燕麦火锅,Chinese Restaurant,40.374645,116.859448,,Beijing,Beijing,Miyun
141,Tang Palace 唐宫海鲜舫,Dim Sum Restaurant,39.92288334,116.4323446,Fenglian Square,Beijing,Beijing,Chaoyang
142,Subway (赛百味),Sandwich Place,39.89584323,116.36838909999999,SOGO Xuanwumen,Beijing,Beijing,Xicheng
143,Beijing Jinbaiwan,Chinese Restaurant,40.139693,117.11016399999998,,Beijing,Beijing,Pinggu
144,基辅罗斯餐厅,Eastern European Restaurant,39.91123808,116.2993633,,Beijing,Beijing,Fengtai
145,Jiang Mai Tang (讲麦堂),Bakery,39.9174408,116.44749250000001,"6 Chaowai Street, Central Park, Tower 20, #102",Beijing,Beijing,Chaoyang
146,KFC (肯德基),Fast Food Restaurant,39.85062429999999,116.277047,丰台正阳桥北,Beijing,Beijing,Daxing
147,Bellagio,Chinese Restaurant,39.92004725,116.4336499,4th Floor Of U-Town,Beijing,Beijing,Chaoyang
148,McDonald's (麦当劳),Fast Food Restaurant,39.91114941,116.297028,翠微路二餐厅,Beijing,Beijing,Fengtai
149,Hakata Ikkousha (博多一幸舍),Ramen Restaurant,39.91838385,116.4423438,9 Dongdaqiao Rd,Beijing,Beijing,Chaoyang
150,阿二靓汤,Chinese Restaurant,23.54774594,113.58427759999998,近郊从化市中田南路2巷2幢,Guangdong,Guangzhou,Conghua
151,The Italian Restaurant,Italian Restaurant,23.13966,113.27938459999999,,Guangdong,Guangzhou,Yuexiu
152,McDonald's (麥當勞),Fast Food Restaurant,22.97080205,113.32553689999999,,Guangdong,Guangzhou,Panyu
153,Oggi Pizzeria,Pizza Place,23.13657362,113.27848090000002,建设四马路17-29号天伦花园1楼,Guangdong,Guangzhou,Luogang
154,Tiger Prawn Vietnamese Restaurant (大头虾越式风味餐厅 Tiger Prawn Vietnamese Restaurant),Vietnamese Restaurant,23.12394693,113.2620048,惠福东路548号,Guangdong,Guangzhou,Baiyun
155,مطعم حضرموت - جوانزو,Restaurant,23.14223679,113.27103429999998,,Guangdong,Guangzhou,Luogang
156,DOORS TURKISH RESTAURANT,Turkish Restaurant,23.12348709,113.32364790000001,天河区兴盛路6号多思西餐,Guangdong,Guangzhou,Haizhu District
157,稻香酒家,Chinese Restaurant,23.10581095,113.3223446,"珠江帝景酒店东座1-2楼, 艺洲路灏景街1号",Guangdong,Guangzhou,Haizhu District
158,White Tiger Restaurant (白虎自助餐厅),Buffet,23.00153,113.32814599999999,,Guangdong,Guangzhou,Panyu
159,天鲜阁 Tian Xian Ge,Chinese Restaurant,23.15937481,113.2663215,广园中路下塘西路北672号,Guangdong,Guangzhou,Baiyun
160,Taksim Bistro,Bistro,23.13435254,113.2797692,Jianshe 6th Rd,Guangdong,Guangzhou,Liwan
161,The Happy Monk,Restaurant,23.13725218,113.27926049999999,建设五马路29号好世界公寓首层107-110号,Guangdong,Guangzhou,Baiyun
162,御东记,Cantonese Restaurant,23.342814999999998,113.28469,人和镇鹤龙六路236号,Guangdong,Guangzhou,Huadu
163,McDonald's (麦当劳),Fast Food Restaurant,23.33763826,113.29010020000001,人和站C2出口,Guangdong,Guangzhou,Huadu
164,Buongiorno Italian Restaurant,Italian Restaurant,23.137471100000003,113.27970090000001,越秀区建设六马路33号宜安广场3楼304/310,Guangdong,Guangzhou,Liwan
165,McDonald's (麦当劳),Fast Food Restaurant,23.40265867,113.2123991,公益路,Guangdong,Guangzhou,Huadu
166,金河半岛酒家,Chinese Restaurant,23.1205383,113.37853729999999,黄埔大道中311号,Guangdong,Guangzhou,Huangpu
167,KFC (肯德基),Fast Food Restaurant,23.141963,113.28255300000001,淘金路,Guangdong,Guangzhou,Luogang
168,Brown Coffee,Steakhouse,22.802292,113.544458,,Guangdong,Guangzhou,Nansha
169,IPPUDO (一風堂),Noodle House,23.1223281,113.3192159,花城汇二期负一层2001号A027-28铺,Guangdong,Guangzhou,Haizhu District
170,1920 Restaurant & Bar,German Restaurant,23.1339961,113.27936729999999,建设六马路1号 4楼,Guangdong,Guangzhou,Baiyun
171,大家乐,Asian Restaurant,23.16353062,113.25116640000002,三元里大道,Guangdong,Guangzhou,Baiyun
172,Banana Leaf (Banana Leaf 广州蕉叶),Thai Restaurant,23.13900861,113.28158619999999,,Guangdong,Guangzhou,Luogang
173,Element Fresh (新元素),New American Restaurant,23.13654314,113.3274527,"天河区天河路383号太古汇广场L302号铺 / 3/F Garden, Tai Koo Hui Shopping Center, 383 Tianhe Lu",Guangdong,Guangzhou,Luogang
174,McDonald's (麦当劳),Fast Food Restaurant,23.11427038,113.2486483,人民南路88号负一层A002铺,Guangdong,Guangzhou,Liwan
175,McDonald's (麦当劳),Fast Food Restaurant,23.11771167,113.2598182,236号 Dade Rd,Guangdong,Guangzhou,Liwan
176,Al Tandoor,Indian Restaurant,23.14143741,113.2752131,Huan Shi Dong Lu,Guangdong,Guangzhou,Luogang
177,McDonald's (麦当劳),Fast Food Restaurant,23.14959857,113.25066029999999,,Guangdong,Guangzhou,Liwan
178,幸运楼 Lucky Rest.,Chinese Restaurant,23.12561461,113.26424490000001,北京路一街238号天河城百货8楼,Guangdong,Guangzhou,Liwan
179,McDonald's (麦当劳),Fast Food Restaurant,23.15279091,113.2581098,广州巿解放北路白云皮具,Guangdong,Guangzhou,Yuexiu
180,Oggi Pizzeria,Italian Restaurant,23.12331298,113.3251415,珠江新城兴盛路8号,Guangdong,Guangzhou,Haizhu District
181,迈姨潮州餐厅,Cantonese Restaurant,23.14374701,113.2752887,麓湖路5号岭南大厦停车场内,Guangdong,Guangzhou,Baiyun
182,Bosphorus Turkish Restaurant 铂斯土耳其西餐厅,Turkish Restaurant,23.1231407,113.3257514,兴盛路11，17号越和兴盛汇G层G区9号铺,Guangdong,Guangzhou,Baiyun
183,Nanyuan Restaurant (南园酒家),Dim Sum Restaurant,23.10259496,113.2748738,142 Qianjin Rd | 前进路142号,Guangdong,Guangzhou,Haizhu District
184,Pizza Hut (必胜客),Pizza Place,23.53611002,113.5854497,,Guangdong,Guangzhou,Conghua
185,Wisca Restaurant (惠食佳),Chinese Restaurant,23.13443725,113.29689409999999,760 Dongfeng Rd | 东风东路760号,Guangdong,Guangzhou,Luogang
186,丽昌茶餐厅,Cha Chaan Teng,22.825352,113.51337,南沙区黄阁镇麒龙东路65号,Guangdong,Guangzhou,Nansha
187,Restaurant Nurbostan,Turkish Restaurant,23.12537894,113.2537892,,Guangdong,Guangzhou,Baiyun
188,Kohinoor Resturant,Indian Restaurant,23.14493968,113.27271259999999,Lujing lu,Guangdong,Guangzhou,Baiyun
189,Perma Bakery 朴門,Bakery,23.13782788,113.2786658,建设五马路38号,Guangdong,Guangzhou,Liwan
190,Latin Grillhouse,Brazilian Restaurant,23.13668784,113.2794587,"3/F, Wing Kin Square, 29-31, Jianshe liu malu, Guangzhou",Guangdong,Guangzhou,Liwan
191,Tukang Sate Nan Fang Da Xia,Food Truck,23.11108559,113.2457987,,Guangdong,Guangzhou,Liwan
192,Bosphorus Nuri Alço Restaurant,Turkish Restaurant,23.14211832,113.2712622,268号 Huanshi Middle Rd.,Guangdong,Guangzhou,Liwan
193,Macau Street Restaurant - 澳门街,Chinese Restaurant,23.08977032,113.3104879,广州大道南和平商务中心3楼,Guangdong,Guangzhou,Haizhu District
194,Saba Restaurant (沙巴餐厅),Middle Eastern Restaurant,23.14230733,113.2688744,环市中路300号,Guangdong,Guangzhou,Yuexiu
195,Mid Canteen of NFU (中区饭堂|中山大学南方学院),Chinese Restaurant,23.63730668,113.6742146,,Guangdong,Guangzhou,Conghua
196,9 Garden Mediterranean Cuisine,Mediterranean Restaurant,23.13506315,113.27975409999999,19 Jianshe Dama Rd,Guangdong,Guangzhou,Baiyun
197,McDonald's (麦当劳),Fast Food Restaurant,23.04117489,113.30368429999999,番禺区丽江花园正门,Guangdong,Guangzhou,Panyu
198,Chinese Food City (中华美食城),Chinese Restaurant,23.01616625,113.33820159999998,番禺区兴南大道28号,Guangdong,Guangzhou,Panyu
199,Fish Market,Fish & Chips Shop,23.11083924,113.2328664,,Guangdong,Guangzhou,Haizhu District
200,KFC (肯德基),Fast Food Restaurant,23.12826469,113.22796799999999,地铁口,Guangdong,Guangzhou,Liwan
201,KFC (肯德基),Fast Food Restaurant,23.10318088,113.32198989999999,赤岗北路118号四季天地1楼,Guangdong,Guangzhou,Haizhu District
202,朱仔记烧味茶餐厅,Asian Restaurant,23.34450965,113.28947209999998,人和大马路,Guangdong,Guangzhou,Huadu
203,South Sea Fishing Village (南海渔村),Dim Sum Restaurant,23.12293415,113.32000749999999,珠江东路11号高德置地广场4层（秋）,Guangdong,Guangzhou,Haizhu District
204,Pizza Hut (必胜客),Pizza Place,23.09873081,113.3140176,海珠区新港中路356号丽影华庭1-2F,Guangdong,Guangzhou,Haizhu District
205,Tairyo Teppanyaki Japanese Restaurant,Japanese Restaurant,23.13677965,113.28289040000001,,Guangdong,Guangzhou,Baiyun
206,点都德大茶楼,Dim Sum Restaurant,23.12316383,113.26011480000001,越秀区惠福东路470号(富临食府对面),Guangdong,Guangzhou,Liwan
207,万岁 Japanese Sushi,Japanese Restaurant,23.17842337,113.26297759999999,,Guangdong,Guangzhou,Baiyun
208,Lia Café Bar & Restaurant (松山咖啡屋),Café,23.12438675,113.26408959999999,27-29 Yushan Rd.,Guangdong,Guangzhou,Yuexiu
209,"品鸡坊@科学城万达广场店 PingJiFang@Wanda Plaza, Science City",Cantonese Restaurant,23.172404999999998,113.461653,,Guangdong,Guangzhou,Huangpu
210,Buongiorno Italian Restaurant,Italian Restaurant,23.137471100000003,113.27970090000001,越秀区建设六马路33号宜安广场3楼304/310,Guangdong,Guangzhou,Luogang
211,KFC (肯德基),Fast Food Restaurant,23.11485933,113.2497707,,Guangdong,Guangzhou,Liwan
212,The Mandarin Cake Shop (广州文华东方酒店文华饼房),Bakery,23.13685832,113.3278492,"389 Tianhe Road, Tianhe District",Guangdong,Guangzhou,Haizhu District
213,مطعم حضرموت - جوانزو,Restaurant,23.14223679,113.27103429999998,,Guangdong,Guangzhou,Yuexiu
214,Orient Express｜火车头法国西餐厅,French Restaurant,23.11027892,113.24391399999999,沙面北街1号之一,Guangdong,Guangzhou,Yuexiu
215,Chois coffe,Café,23.09488743,113.2870297,新港西路中大店,Guangdong,Guangzhou,Haizhu District
216,Любимая Кухня Русских,Café,23.14534347,113.24640349999999,,Guangdong,Guangzhou,Liwan
217,Hai Di Lao Hot Pot 海底捞火锅,Hotpot Restaurant,23.12814395,113.2639709,广州市海珠区新港中路354号珠影。星光城123，206号铺,Guangdong,Guangzhou,Baiyun
218,麗的麵家,Chinese Restaurant,23.11923762,113.2354527,多宝路298号,Guangdong,Guangzhou,Liwan
219,Bandidos - Mexican Cantina (莫大班),Mexican Restaurant,23.11835547,113.31124840000001,"105-106, 2 Huaxun Street",Guangdong,Guangzhou,Baiyun
220,Daysun Ritz Hotel Restaurant,Chinese Restaurant,23.13115711,113.36802479999999,"No.299, Zhongshan Road, Tianhe",Guangdong,Guangzhou,Huangpu
221,Wisca Restaurant (惠食佳),Chinese Restaurant,23.13443725,113.29689409999999,760 Dongfeng Rd | 东风东路760号,Guangdong,Guangzhou,Liwan
222,渔民新村,Chinese Restaurant,23.02369338,113.3287278,迎宾路,Guangdong,Guangzhou,Haizhu District
223,DOORS TURKISH RESTAURANT,Turkish Restaurant,23.12348709,113.32364790000001,天河区兴盛路6号多思西餐,Guangdong,Guangzhou,Liwan
224,Perma Bakery 朴門,Bakery,23.13782788,113.2786658,建设五马路38号,Guangdong,Guangzhou,Luogang
225,0871云南小馆,Chinese Restaurant,23.130758,113.27660700000001,中山三路东皋大道皋园街9号凯旋龙酒店1楼(中华广场斜对面),Guangdong,Guangzhou,Luogang
226,KFC (肯德基),Fast Food Restaurant,23.15717417,113.24524040000001,,Guangdong,Guangzhou,Liwan
227,McDonald's (麦当劳),Fast Food Restaurant,23.12843862,113.2506743,越秀区中山六路218-222号捷泰广场1楼,Guangdong,Guangzhou,Yuexiu
228,Burger King (汉堡王),Fast Food Restaurant,23.400559,113.30422800000001,Terminal 2,Guangdong,Guangzhou,Huadu
229,HongXing Seafood Restaurant (鸿星海鲜酒家),Seafood Restaurant,23.1167206,113.26278159999998,越秀区沿江中路198号,Guangdong,Guangzhou,Yuexiu
230,GenkiSushi (元気寿司),Sushi Restaurant,23.13650802,113.32715300000001,天河区天河路383号太古汇商场MU17号铺,Guangdong,Guangzhou,Haizhu District
231,The Italian Restaurant,Italian Restaurant,23.13966,113.27938459999999,,Guangdong,Guangzhou,Haizhu District
232,37•2 Lotus Garden,Vietnamese Restaurant,23.13988684,113.2793176,,Guangdong,Guangzhou,Luogang
233,Banana Leaf (Banana Leaf 广州蕉叶),Thai Restaurant,23.13900861,113.28158619999999,,Guangdong,Guangzhou,Baiyun
234,MOS BURGER | 摩斯汉堡(花城汇),Burger Joint,23.12771071,113.3198037,,Guangdong,Guangzhou,Haizhu District
235,Banana Leaf (Banana Leaf 广州蕉叶),Thai Restaurant,23.13900861,113.28158619999999,,Guangdong,Guangzhou,Yuexiu
236,滋粥楼,Cantonese Restaurant,22.93278456,113.3865023,番禺区市桥兴泰路23号,Guangdong,Guangzhou,Panyu
237,Beehive Bar & Kitchen,Restaurant,22.96876633,113.3288755,祈福新邨舊會所地下,Guangdong,Guangzhou,Panyu
238,Pazhou Exhibition Center Coffee Shop,Café,23.10390876,113.3564423,Hall 3.1,Guangdong,Guangzhou,Haizhu District
239,Bandidos - Mexican Cantina (莫大班),Mexican Restaurant,23.11835547,113.31124840000001,"105-106, 2 Huaxun Street",Guangdong,Guangzhou,Liwan
240,McDonald's (麦当劳),Fast Food Restaurant,23.15279091,113.2581098,广州巿解放北路白云皮具,Guangdong,Guangzhou,Baiyun
241,The Italian Restaurant,Italian Restaurant,23.13966,113.27938459999999,,Guangdong,Guangzhou,Luogang
242,天记鹧鸪饭,Chinese Restaurant,23.544829,113.585546,,Guangdong,Guangzhou,Conghua
243,Social & Co,Restaurant,23.11863681,113.3123425,112-113 Shop No 6 Huajiu Road,Guangdong,Guangzhou,Liwan
244,富鸽一家,Asian Restaurant,22.819864000000003,113.547343,,Guangdong,Guangzhou,Nansha
245,0871云南小馆,Chinese Restaurant,23.130758,113.27660700000001,中山三路东皋大道皋园街9号凯旋龙酒店1楼(中华广场斜对面),Guangdong,Guangzhou,Baiyun
246,Laurel Restaurant (丹桂轩),Chinese Restaurant,22.98315767,113.361944,番禺区番禺大道北555号 番禺节能科技园 天安科技交流中心1-3楼,Guangdong,Guangzhou,Panyu
247,Dian Dou De (点都德),Dim Sum Restaurant,23.12214758,113.31111090000002,花城大道16号2楼,Guangdong,Guangzhou,Haizhu District
248,渔民新村,Chinese Restaurant,23.02369338,113.3287278,迎宾路,Guangdong,Guangzhou,Panyu
249,兄弟船日本料理,Japanese Restaurant,23.13254807,113.3236666,体育东路六运五街56号,Guangdong,Guangzhou,Haizhu District
250,Cafe Rabbit (Metropolitan plaza),Café,23.12821426,113.230492,,Guangdong,Guangzhou,Liwan
251,Oggi Pizzeria,Pizza Place,23.13657362,113.27848090000002,建设四马路17-29号天伦花园1楼,Guangdong,Guangzhou,Yuexiu
252,Subway (赛百味),Sandwich Place,23.13717758,113.28906509999999,,Guangdong,Guangzhou,Luogang
253,Bandidos - Mexican Cantina (莫大班),Mexican Restaurant,23.11835547,113.31124840000001,"105-106, 2 Huaxun Street",Guangdong,Guangzhou,Yuexiu
254,Wisca Restaurant (惠食佳),Chinese Restaurant,23.13443725,113.29689409999999,760 Dongfeng Rd | 东风东路760号,Guangdong,Guangzhou,Haizhu District
255,Bosphorus Turkish Restaurant 铂斯土耳其西餐厅,Turkish Restaurant,23.1231407,113.3257514,兴盛路11，17号越和兴盛汇G层G区9号铺,Guangdong,Guangzhou,Luogang
256,掂档士多,Comfort Food Restaurant,23.53495335,113.58308670000001,从化区海塱村50号101铺,Guangdong,Guangzhou,Conghua
257,Restaurant Nurbostan,Turkish Restaurant,23.12537894,113.2537892,,Guangdong,Guangzhou,Yuexiu
258,Bread Talk (Breadtalk),Bakery,23.09859101,113.31545390000001,海珠区新港中路356号丽影广场C区101铺,Guangdong,Guangzhou,Haizhu District
259,McDonald's (麦当劳),Fast Food Restaurant,22.94542245,113.3607618,易发街,Guangdong,Guangzhou,Panyu
260,Coffee Time,Café,23.12624265,113.2354585,中山八,Guangdong,Guangzhou,Liwan
261,Feel More Coffee and Bagels,Breakfast Spot,23.142308,113.32548,"1/F, Qiaoyi Yi Jie, Tianhe Bei Lu, Tianhe District",Guangdong,Guangzhou,Haizhu District
262,Taksim Bistro,Bistro,23.13435254,113.2797692,Jianshe 6th Rd,Guangdong,Guangzhou,Luogang
263,McDonald's (麦当劳),Fast Food Restaurant,23.06776037,113.5213226,,Guangdong,Guangzhou,Huangpu
264,Summer House A,Creperie,23.529304,113.588876,,Guangdong,Guangzhou,Conghua
265,McDonald's (麦当劳),Fast Food Restaurant,23.12843862,113.2506743,越秀区中山六路218-222号捷泰广场1楼,Guangdong,Guangzhou,Liwan
266,风味馆,Snack Place,23.12375504,113.2722543,越秀南路161号,Guangdong,Guangzhou,Baiyun
267,1920 Restaurant & Bar,German Restaurant,23.1339961,113.27936729999999,建设六马路1号 4楼,Guangdong,Guangzhou,Luogang
268,花果山农庄,Cantonese Restaurant,23.583337,113.612853,,Guangdong,Guangzhou,Conghua
269,Coco Too,Café,23.12379851,113.31273829999999,Hua Sui Lu,Guangdong,Guangzhou,Haizhu District
270,Macau Street Restaurant (Macau Street Restaurant 澳门街),Portuguese Restaurant,23.142551,113.251479,流花路东方宾馆内1号楼,Guangdong,Guangzhou,Baiyun
271,KFC (肯德基),Fast Food Restaurant,23.40272071,113.21264340000002,,Guangdong,Guangzhou,Huadu
272,Nha Trang - 芽庄,Vietnamese Restaurant,23.13478624,113.27979930000001,建设六马路3-7号，广州一建大夏二层,Guangdong,Guangzhou,Baiyun
273,McDonald's (麦当劳),Fast Food Restaurant,23.09869602,113.31343030000001,新港中路350号,Guangdong,Guangzhou,Haizhu District
274,渔民新村,Chinese Restaurant,23.14800765,113.37424229999999,,Guangdong,Guangzhou,Huangpu
275,风味馆,Snack Place,23.12375504,113.2722543,越秀南路161号,Guangdong,Guangzhou,Haizhu District
276,Wu Cai Ji Noodle Restaurant (吴财记面家),Noodle House,23.11349636,113.23654579999999,荔湾区大同路84号和隆里20号,Guangdong,Guangzhou,Liwan
277,Muhammad Muslim Food Restaurant,Fried Chicken Joint,23.14652875,113.28105749999999,,Guangdong,Guangzhou,Baiyun
278,聚荣饺子,Dumpling Restaurant,23.12116112,113.304574,越秀区寺右新马路寺右二马路南边第4号档铺,Guangdong,Guangzhou,Haizhu District
279,掂档士多,Comfort Food Restaurant,23.53493368,113.5831685,海塱村50号101铺,Guangdong,Guangzhou,Conghua
280,浪花回转寿司，南沙万达,Sushi Restaurant,22.79394,113.53356399999998,Wanda Plaza,Guangdong,Guangzhou,Nansha
281,Bosphorus TURKİYE,Turkish Restaurant,23.14211655,113.2712344,Xiaobei Lu,Guangdong,Guangzhou,Yuexiu
282,XL istanbul Restaurant & Cafe,Kebab Restaurant,23.10276661,113.3719754,chen yue,Guangdong,Guangzhou,Huangpu
283,Wilber's,Comfort Food Restaurant,23.1312013,113.29115949999999,越秀区竹丝岗二马路62号,Guangdong,Guangzhou,Luogang
284,63 Steak & Burger,Burger Joint,23.11790567,113.33451869999999,珠江新城海风路1-48号广粤天地B8铺,Guangdong,Guangzhou,Haizhu District
285,广碧会所,Chinese Restaurant,23.03259143,113.28563989999999,广州碧桂园,Guangdong,Guangzhou,Panyu
286,Fisher's Village (渔民新村),Seafood Restaurant,23.12386579,113.3209848,"冼村路11号, 珠江新城",Guangdong,Guangzhou,Liwan
287,雅苑,Cantonese Restaurant,23.12611433,113.25502549999999,14 Chaotian Rd | 朝天路14号,Guangdong,Guangzhou,Baiyun
288,源记肠粉店,Snack Place,23.12522302,113.2367264,93 Huagui Rd | 华贵路93号,Guangdong,Guangzhou,Liwan
289,HIMALAYA RESTAURANT&BAR (喜马拉雅藏吧),Chinese Restaurant,23.13958744,113.2843315,环市中路华侨新村光明路19号,Guangdong,Guangzhou,Liwan
290,Roku Roku (六绿),Japanese Restaurant,23.14407435,113.3174193,1/F Xiang Long Garden 177 Tianhe N Rd | 天河北路177号1楼,Guangdong,Guangzhou,Baiyun
291,광저우 전주집 全州家,Korean Restaurant,23.17598286,113.2504172,远景路,Guangdong,Guangzhou,Baiyun
292,Subway (赛百味),Sandwich Place,23.13543097,113.27982949999999,越秀区建设六马路11号首层6-7铺,Guangdong,Guangzhou,Luogang
293,Chez Max,French Restaurant,23.13673459,113.2831045,,Guangdong,Guangzhou,Luogang
294,Bosphorus Nuri Alço Restaurant,Turkish Restaurant,23.14211832,113.2712622,268号 Huanshi Middle Rd.,Guangdong,Guangzhou,Luogang
295,花季节,Chinese Restaurant,23.16987512,113.44738770000001,萝岗区科学大道195号高德汇三楼,Guangdong,Guangzhou,Huangpu
296,点都德大茶楼,Dim Sum Restaurant,23.12316383,113.26011480000001,越秀区惠福东路470号(富临食府对面),Guangdong,Guangzhou,Baiyun
297,宝华面店,Chinese Restaurant,23.11873763,113.23652859999999,宝华路117号,Guangdong,Guangzhou,Liwan
298,McDonald's (麦当劳),Fast Food Restaurant,23.02867399,113.3254949,Yingbin Rd,Guangdong,Guangzhou,Panyu
299,Kung Fu,Chinese Restaurant,23.12817986,113.2304978,,Guangdong,Guangzhou,Liwan
300,渝味晓宇火锅,Hotpot Restaurant,30.57114612,104.24603540000001,,Sichuan,Chengdu,Longquanyi
301,Din Tai Fung (鼎泰丰),Dumpling Restaurant,30.63412968,104.06512140000001,"3 N Renmin Rd., 4th Section",Sichuan,Chengdu,Jinjiang
302,Peter's Tex Mex,Mexican Restaurant,30.61741279,104.0602941,No. 12 Tongzilin E. Rd.,Sichuan,Chengdu,Wuhou
303,KFC (肯德基),Fast Food Restaurant,30.58140093,103.95662779999999,"2F Departure, Chengdu Shuangliu Int'l Airport",Sichuan,Chengdu,Shuangliu
304,Street Food,Food Stand,30.572532,103.517394,,Sichuan,Chengdu,Dayi
305,福舆山珍,Yunnan Restaurant,30.883274,104.26594,,Sichuan,Chengdu,Xindu
306,皇城老妈火锅酒楼(皇城店),Hotpot Restaurant,30.62426252,104.0500447,武侯区二环路南三段20号,Sichuan,Chengdu,Wuhou
307,钦善斋,Chinese Restaurant,30.64625554,104.0431176,武侯祠大街247号,Sichuan,Chengdu,Qingyang
308,南充原汤米粉青白江店,Chinese Restaurant,30.882399,104.262123,芳邻路24号,Sichuan,Chengdu,Qingbaijiang
309,Pizza Hut (必胜客),Pizza Place,30.67354095,104.107753,建设路1号 | No. 1 Jianshe Rd.,Sichuan,Chengdu,Jinniu
310,Wagas Temple,Café,30.65414755,104.0813397,"No. 1345 Taikooli, Shamao Street",Sichuan,Chengdu,Jinniu
311,朴半岛生态园,Restaurant,30.601928000000004,103.66492,,Sichuan,Chengdu,Chongzhou
312,红杏酒家,Chinese Restaurant,30.613878000000003,104.047576,,Sichuan,Chengdu,Wuhou
313,渔猫子木桶鱼,Szechuan Restaurant,30.566514,104.26898,,Sichuan,Chengdu,Longquanyi
314,Maan Coffee 漫咖啡,Café,30.54940325,104.06354499999999,688 Tianfu M Ave,Sichuan,Chengdu,Wuhou
315,田园印象老食堂,Chinese Restaurant,30.80543148,103.8982085,,Sichuan,Chengdu,Pixian
316,Red Beard Burger,Burger Joint,30.614935,104.053978,,Sichuan,Chengdu,Jinniu
317,海底捞火锅(阳光新业店),Asian Restaurant,30.64549674,104.08861390000001,,Sichuan,Chengdu,Jinniu
318,怪味面,Noodle House,30.63946504,104.0734063,成都市磨子桥百脑汇对面,Sichuan,Chengdu,Wuhou
319,和幸 とんかつ Tonkatsu Wako,Japanese Restaurant,30.65673949,104.07632609999999,科甲巷伊势丹7楼,Sichuan,Chengdu,Shuangliu
320,Blue Frog (蓝蛙),Burger Joint,30.65666643,104.0822046,太古里,Sichuan,Chengdu,Jinniu
321,Din Tai Fung (鼎泰丰),Dumpling Restaurant,30.65439459,104.0813207,8 Zhongshamao St,Sichuan,Chengdu,Wuhou
322,凉山索玛花烧烤,BBQ Joint,30.596563,104.103041,,Sichuan,Chengdu,Jinjiang
323,小龙坎老火锅 Xiaolongkan Old Hot Pot,Hotpot Restaurant,30.65427465,104.0764502,,Sichuan,Chengdu,Qingyang
324,KFC (肯德基),Fast Food Restaurant,30.68644989,104.0249813,,Sichuan,Chengdu,Wuhou
325,McDonald's (麦当劳),Fast Food Restaurant,30.63138467,104.13862459999999,火车东站高架夹层 JB02,Sichuan,Chengdu,Wuhou
326,外婆家 Grandma's Home,Zhejiang Restaurant,30.65742884,104.0777559,,Sichuan,Chengdu,Jinniu
327,McDonald's (麦当劳),Fast Food Restaurant,30.66021532,104.06892640000001,大业路,Sichuan,Chengdu,Jinjiang
328,小龙坎老火锅 Xiaolongkan Old Hot Pot,Hotpot Restaurant,30.65427465,104.0764502,,Sichuan,Chengdu,Shuangliu
329,Grappa's,Italian Restaurant,30.60467642,104.0605135,99 Shenghe 1st St.,Sichuan,Chengdu,Jinjiang
330,川北米线,Szechuan Restaurant,30.876903000000002,104.27310200000001,,Sichuan,Chengdu,Xindu
331,阿热藏餐吧 A're Tibetan Restaurant,Asian Restaurant,30.64660948,104.046291,,Sichuan,Chengdu,Shuangliu
332,德克士广汉餐厅,Fast Food Restaurant,30.974671,104.279989,,Sichuan,Chengdu,Qingbaijiang
333,Din Tai Fung (鼎泰丰),Dumpling Restaurant,30.65439459,104.0813207,8 Zhongshamao St,Sichuan,Chengdu,Shuangliu
334,皇城坝小吃,Chinese Restaurant,30.62374584,104.09438990000001,,Sichuan,Chengdu,Jinjiang
335,红杏酒家,Chinese Restaurant,30.613878000000003,104.047576,,Sichuan,Chengdu,Jinjiang
336,巴山老鸭,Chinese Restaurant,30.55731908,104.2594695,,Sichuan,Chengdu,Longquanyi
337,锦城印象火锅酒楼,Hotpot Restaurant,30.64988169,104.0537809,武候祠大街19号,Sichuan,Chengdu,Wuhou
338,85度C,Bakery,30.788111999999998,103.901116,郫都区,Sichuan,Chengdu,Wenjiang
339,Peter's Tex-Mex Grill (彼得西餐厅),Mexican Restaurant,30.62796756,104.07154440000001,,Sichuan,Chengdu,Jinjiang
340,宽席 (Sumptuous Feast),Szechuan Restaurant,30.75372867,104.1487862,,Sichuan,Chengdu,Xindu
341,雷燃面,Szechuan Restaurant,30.556720000000002,104.263762,,Sichuan,Chengdu,Longquanyi
342,明婷饭店 Mingting Restaurant,Szechuan Restaurant,30.67591848,104.08486440000001,曹家巷菜市场内,Sichuan,Chengdu,Jinniu
343,妈妈厨房家传菜,Restaurant,30.610557,104.130652,,Sichuan,Chengdu,Jinjiang
344,银杏金阁,Asian Restaurant,30.65167573,104.0547335,中国,Sichuan,Chengdu,Wuhou
345,MUJI Café & Meal,Café,30.65728788,104.0821955,Tai Koo Li,Sichuan,Chengdu,Jinniu
346,Pizza Corner,Pizza Place,30.62754255,104.07401870000001,,Sichuan,Chengdu,Wuhou
347,阿热藏餐吧 A're Tibetan Restaurant,Asian Restaurant,30.64660948,104.046291,,Sichuan,Chengdu,Qingyang
348,铜壶苑,Szechuan Restaurant,30.775314,103.879651,滨清路4号,Sichuan,Chengdu,Pixian
349,KFC (肯德基),Fast Food Restaurant,30.63156235,104.13848279999999,East Railway Station,Sichuan,Chengdu,Longquanyi
350,大巴山乡村菜馆,Chinese Restaurant,30.83292404,104.1851319,西南石油大学第三食堂三楼,Sichuan,Chengdu,Qingbaijiang
351,查渣面,Szechuan Restaurant,30.73969773,103.80615970000001,,Sichuan,Chengdu,Wenjiang
352,小谭豆花,Noodle House,30.67609076,104.0533109,西大街86附13,Sichuan,Chengdu,Jinniu
353,洞子口张老二凉粉店,Noodle House,30.67659915,104.070163,文殊院路,Sichuan,Chengdu,Shuangliu
354,Lenbach,German Restaurant,30.64614248,104.0825097,,Sichuan,Chengdu,Jinniu
355,McDonald's (麦当劳),Fast Food Restaurant,30.72702432,103.9758307,中海国际,Sichuan,Chengdu,Pixian
356,星星饭店,Szechuan Restaurant,30.569946999999996,104.24560699999999,,Sichuan,Chengdu,Longquanyi
357,吃货,Asian Restaurant,30.69536972,103.8693542,,Sichuan,Chengdu,Wenjiang
358,Shunxing Rest. (顺兴老茶馆),Chinese Restaurant,30.56195052,104.0706973,世纪城166号,Sichuan,Chengdu,Qingyang
359,老妈蹄花,Szechuan Restaurant,30.65930249,104.05833390000001,东城根南街 South Dongchenggen Street,Sichuan,Chengdu,Shuangliu
360,柳浪湾临时小吃摊区,Snack Place,30.68570518,103.82498170000001,财大东门,Sichuan,Chengdu,Wenjiang
361,蜀九香火锅,Asian Restaurant,30.62689761,104.056202,玉林南路,Sichuan,Chengdu,Qingyang
362,滋味烤鱼,Chinese Restaurant,30.63675984,104.048763,,Sichuan,Chengdu,Wuhou
363,Chen's Mapo Beancurd (陈麻婆豆腐),Szechuan Restaurant,30.66946416,104.0658212,青羊区西玉龙街197号 | 197 Xiyulong St,Sichuan,Chengdu,Shuangliu
364,香飘饭庄,Restaurant,30.507746,103.62416999999999,,Sichuan,Chengdu,Chongzhou
365,阿热藏餐吧 A're Tibetan Restaurant,Asian Restaurant,30.64660948,104.046291,,Sichuan,Chengdu,Jinniu
366,喜洲花园,Szechuan Restaurant,30.652677,103.656903,,Sichuan,Chengdu,Chongzhou
367,皇城老妈（琴台路店）,Chinese Restaurant,30.66196427,104.0431103,琴台路106号,Sichuan,Chengdu,Wuhou
368,老房子,Chinese Restaurant,30.787975,104.165453,,Sichuan,Chengdu,Qingbaijiang
369,芭菲盛宴,Restaurant,30.57859723,104.05968349999999,,Sichuan,Chengdu,Shuangliu
370,TIVANO,Italian Restaurant,30.65416189,104.0822368,"No. 81 Bitieshi Street, Jinjiang District,",Sichuan,Chengdu,Wuhou
371,vevi,Chinese Restaurant,30.640005,104.325032,,Sichuan,Chengdu,Longquanyi
372,庹血旺,Szechuan Restaurant,30.520207,103.47297900000001,,Sichuan,Chengdu,Qionglai
373,巴蜀大宅门火锅,Chinese Restaurant,30.64048449,104.0417609,,Sichuan,Chengdu,Shuangliu
374,Mike's Pizza Kitchen,Pizza Place,30.614138,104.05596729999999,,Sichuan,Chengdu,Wuhou
375,Lenbach,German Restaurant,30.64614248,104.0825097,,Sichuan,Chengdu,Wuhou
376,玥轩 Yue Hin,Cantonese Restaurant,30.65664192,104.0797124,,Sichuan,Chengdu,Qingyang
377,李家白肉,Asian Restaurant,30.784361999999998,103.92444300000001,,Sichuan,Chengdu,Pixian
378,刘鱼头火锅,Hotpot Restaurant,30.859726000000002,104.399271,,Sichuan,Chengdu,Qingbaijiang
379,眉山下饭菜,Chinese Restaurant,30.571641999999997,104.24526800000001,,Sichuan,Chengdu,Longquanyi
380,西北村佳和酒店,Restaurant,30.838136,104.152341,中国四川省成都市新都区新军路199号附近,Sichuan,Chengdu,Xindu
381,冒椒火辣,Chinese Restaurant,30.670919,104.051244,奎星楼街33号(近吉祥街),Sichuan,Chengdu,Wuhou
382,McDonald's (麦当劳),Fast Food Restaurant,30.67201241,104.10845069999999,成华区二环路东二段29号SM广场,Sichuan,Chengdu,Qingyang
383,Grappa's,Italian Restaurant,30.60467642,104.0605135,99 Shenghe 1st St.,Sichuan,Chengdu,Shuangliu
384,阿热藏餐吧 A're Tibetan Restaurant,Asian Restaurant,30.64660948,104.046291,,Sichuan,Chengdu,Wuhou
385,川西坝子蜀汉店,Chinese Restaurant,30.69045354,104.0237839,蜀兴西路16号,Sichuan,Chengdu,Qingyang
386,钦善斋,Chinese Restaurant,30.64625554,104.0431176,武侯祠大街247号,Sichuan,Chengdu,Shuangliu
387,Peter's Tex Mex,Mexican Restaurant,30.61741279,104.0602941,No. 12 Tongzilin E. Rd.,Sichuan,Chengdu,Qingyang
388,Red Beard Burger,Burger Joint,30.614935,104.053978,,Sichuan,Chengdu,Shuangliu
389,龙溪鱼庄,Chinese Restaurant,30.82008256,104.20497420000001,"中国, 四川省成都市新都区",Sichuan,Chengdu,Qingbaijiang
390,Saloon Coffee (沙龙咖啡),Café,30.58459788,103.95636400000001,Chengdu Shuangliu International Airport,Sichuan,Chengdu,Shuangliu
391,皇城老妈火锅酒楼(皇城店),Hotpot Restaurant,30.62426252,104.0500447,武侯区二环路南三段20号,Sichuan,Chengdu,Jinjiang
392,海底捞火锅(阳光新业店),Asian Restaurant,30.64549674,104.08861390000001,,Sichuan,Chengdu,Wuhou
393,Cafè Z,Café,30.6451256,104.0826973,Shangri-La Hotel,Sichuan,Chengdu,Jinjiang
394,Blue Frog (蓝蛙),Burger Joint,30.65666643,104.0822046,太古里,Sichuan,Chengdu,Wuhou
395,巴国布衣,Szechuan Restaurant,30.60883211,104.0471863,神仙树,Sichuan,Chengdu,Jinjiang
396,玥轩 Yue Hin,Cantonese Restaurant,30.65664192,104.0797124,,Sichuan,Chengdu,Shuangliu
397,KFC (肯德基),Fast Food Restaurant,30.61754641,104.0551871,,Sichuan,Chengdu,Qingyang
398,蜀九香火锅,Chinese Restaurant,30.61739265,104.0533556,武侯区,Sichuan,Chengdu,Jinjiang
399,和幸 とんかつ Tonkatsu Wako,Japanese Restaurant,30.65673949,104.07632609999999,科甲巷伊势丹7楼,Sichuan,Chengdu,Wuhou
400,良木缘(新城市店) Good Wood Coffee,Café,30.67564137,104.0558618,西大街1号8新城市广场三楼,Sichuan,Chengdu,Jinniu
401,McDonald's (麦当劳),Fast Food Restaurant,30.63812256,104.125677,迎晖路194号,Sichuan,Chengdu,Wuhou
402,KFC (肯德基),Fast Food Restaurant,30.60494906,104.0580959,欧尚店,Sichuan,Chengdu,Shuangliu
403,玥轩 Yue Hin,Cantonese Restaurant,30.65664192,104.0797124,,Sichuan,Chengdu,Jinjiang
404,张砂锅,Chinese Restaurant,30.82814634,104.1534215,状元街,Sichuan,Chengdu,Xindu
405,Shunxing Rest. (顺兴老茶馆),Chinese Restaurant,30.56195052,104.0706973,世纪城166号,Sichuan,Chengdu,Shuangliu
406,成都映象,Chinese Restaurant,30.66555662,104.0517681,窄巷子十六号,Sichuan,Chengdu,Jinniu
407,老码头火锅,Hotpot Restaurant,30.65221961,104.0738321,锦江区红星路四段,Sichuan,Chengdu,Wuhou
408,Peter's Tex-Mex Grill (彼得西餐厅),Mexican Restaurant,30.62796756,104.07154440000001,,Sichuan,Chengdu,Jinniu
409,KFC (肯德基),Fast Food Restaurant,30.7579993,103.9731309,郫县犀浦镇国宁东路69号,Sichuan,Chengdu,Pixian
410,冒椒火辣,Chinese Restaurant,30.670919,104.051244,奎星楼街33号(近吉祥街),Sichuan,Chengdu,Qingyang
411,Wagas Temple,Café,30.65414755,104.0813397,"No. 1345 Taikooli, Shamao Street",Sichuan,Chengdu,Wuhou
412,KFC (肯德基),Fast Food Restaurant,30.60274905,104.1262968,汽车穿梭餐厅,Sichuan,Chengdu,Jinjiang
413,明婷饭店 Mingting Restaurant,Szechuan Restaurant,30.67591848,104.08486440000001,曹家巷菜市场内,Sichuan,Chengdu,Shuangliu
414,Grandma's Kitchen,Diner,30.62782115,104.0642973,1号 Yulin 1st Alley,Sichuan,Chengdu,Wuhou
415,Pizza Hut (必胜客),Pizza Place,30.853655,104.416904,,Sichuan,Chengdu,Jintang
416,KFC (肯德基),Fast Food Restaurant,30.68644989,104.0249813,,Sichuan,Chengdu,Qingyang
417,Grappa's,Italian Restaurant,30.60467642,104.0605135,99 Shenghe 1st St.,Sichuan,Chengdu,Wuhou
418,McDonald's,Fast Food Restaurant,30.794464,103.900646,,Sichuan,Chengdu,Pixian
419,皇城坝 Huangchengba,Chinese Restaurant,30.64555768,104.04177790000001,259 Wuhou Ave.,Sichuan,Chengdu,Wuhou
420,Mike's Pizza Kitchen,Pizza Place,30.614138,104.05596729999999,,Sichuan,Chengdu,Jinjiang
421,Blue Frog (蓝蛙),Burger Joint,30.65666643,104.0822046,太古里,Sichuan,Chengdu,Jinjiang
422,Peter's Tex-Mex Grill (彼得西餐厅),Mexican Restaurant,30.62796756,104.07154440000001,,Sichuan,Chengdu,Shuangliu
423,Pizza Hut (必胜客),Pizza Place,30.70487146,104.041262,交大路,Sichuan,Chengdu,Jinniu
424,Vegetarian Lifestyle Restaurant (枣子树),Vegetarian / Vegan Restaurant,30.670327,104.06375799999999,No.27 Qinglong Street,Sichuan,Chengdu,Shuangliu
425,钦善斋,Chinese Restaurant,30.64625554,104.0431176,武侯祠大街247号,Sichuan,Chengdu,Wuhou
426,McDonald's (麦当劳),Fast Food Restaurant,30.72216929,103.8226195,国色天乡商业街,Sichuan,Chengdu,Wenjiang
427,KFC (肯德基),Fast Food Restaurant,30.56979259,103.9513989,成都双流国际机场第二航站楼,Sichuan,Chengdu,Shuangliu
428,和幸 とんかつ Tonkatsu Wako,Japanese Restaurant,30.65673949,104.07632609999999,科甲巷伊势丹7楼,Sichuan,Chengdu,Jinjiang
429,龙森园火锅,Chinese Restaurant,30.66145825,104.0427418,琴台路60号,Sichuan,Chengdu,Wuhou
430,龙抄手总店 Long Chao Shou,Dumpling Restaurant,30.65683323,104.0751813,61 Chengshou St.,Sichuan,Chengdu,Wuhou
431,Subway (赛百味),Sandwich Place,30.55031273,104.0682232,,Sichuan,Chengdu,Shuangliu
432,光洪兔火锅,Hotpot Restaurant,30.563963,104.261643,,Sichuan,Chengdu,Longquanyi
433,巴蜀九味,Hotpot Restaurant,30.638693,103.660135,,Sichuan,Chengdu,Chongzhou
434,Beer Nest 2 啤酒窝,Belgian Restaurant,30.61506288,104.06433320000001,Renmin South Road Section 4 - No. 48-32,Sichuan,Chengdu,Jinjiang
435,Chen's Mapo Doufu (陈麻婆豆腐),Chinese Restaurant,30.67955073,104.0704631,文殊院街27号,Sichuan,Chengdu,Qingyang
436,重庆德庄火锅,Chinese Restaurant,30.78390144,103.9482335,,Sichuan,Chengdu,Pixian
437,田鸭肠火锅,Hotpot Restaurant,30.6257,103.659017,,Sichuan,Chengdu,Chongzhou
438,Grandma's Kitchen,Diner,30.62782115,104.0642973,1号 Yulin 1st Alley,Sichuan,Chengdu,Jinniu
439,Beer Nest 2 啤酒窝,Belgian Restaurant,30.61506288,104.06433320000001,Renmin South Road Section 4 - No. 48-32,Sichuan,Chengdu,Qingyang
440,老妈蹄花,Szechuan Restaurant,30.65930249,104.05833390000001,东城根南街 South Dongchenggen Street,Sichuan,Chengdu,Jinniu
441,吴铭火锅,Bagel Shop,30.971947999999998,104.277262,,Sichuan,Chengdu,Qingbaijiang
442,Grappa's,Italian Restaurant,30.60467642,104.0605135,99 Shenghe 1st St.,Sichuan,Chengdu,Jinniu
443,蜀九香火锅,Chinese Restaurant,30.65892041,104.03840059999999,一环路西一段160号,Sichuan,Chengdu,Jinniu
444,Vegetarian Lifestyle Restaurant (枣子树),Vegetarian / Vegan Restaurant,30.670327,104.06375799999999,No.27 Qinglong Street,Sichuan,Chengdu,Wuhou
445,老山门鸡毛店,Chinese Restaurant,30.752057,103.975255,,Sichuan,Chengdu,Pixian
446,食其家|すき家 (食其家),Japanese Restaurant,30.54316852,104.05638909999999,益州大道1999号银泰城b1,Sichuan,Chengdu,Shuangliu
447,McDonald's (麦当劳),Fast Food Restaurant,30.65927792,104.06494079999999,,Sichuan,Chengdu,Qingyang
448,幸世 不思議の豬排専門店,Diner,30.813643,103.885379,,Sichuan,Chengdu,Pixian
449,Chen's Mapo Doufu (陈麻婆豆腐),Chinese Restaurant,30.67955073,104.0704631,文殊院街27号,Sichuan,Chengdu,Wuhou
450,暹罗泰 Very Siam,Thai Restaurant,22.54163078,113.9874875,"A3 Block, Xiangshan St. E., OCT",Guangdong,Shenzhen,Baoan District
451,Emily's Cafe at Peninsula,Café,22.48441671,113.92603190000001,金世纪路2-7,Guangdong,Shenzhen,Nanshan District
452,稻香(宝安中心店),Restaurant,22.55771488,113.883596,,Guangdong,Shenzhen,Baoan District
453,McDonald's (麦当劳),Fast Food Restaurant,22.50580313,113.9188258,1086 Nanhai Ave,Guangdong,Shenzhen,Nanshan District
454,85°C Bakery Café (85度C),Bakery,22.5391385,114.11393490000002,人民南路2002號,Guangdong,Shenzhen,Luohu District
455,Backstube,Bakery,22.48881656,113.91805179999999,WangHai Lu / Coastal Rose Garden Phase II,Guangdong,Shenzhen,Nanshan District
456,Brew Magic Pub,Gastropub,22.48824874,113.9205369,"No. 52, Coastal Rose Garden 2, 1089-39 Wanghai Rd, Shekou, Nanshan District, Shenzhen, China",Guangdong,Shenzhen,Nanshan District
457,Connie & Daisy Cafe (迪街咖啡),Café,22.53058134,113.92436119999999,Xuefu Rd,Guangdong,Shenzhen,Nanshan District
458,Genki Sushi (元气寿司),Japanese Restaurant,22.568297,114.14001999999999,,Guangdong,Shenzhen,Luohu District
459,居酒屋かすみ,Japanese Restaurant,22.541991,114.12034299999999,罗湖区南湖路3009号国贸商住大厦4楼,Guangdong,Shenzhen,Luohu District
460,McDonald's (麦当劳),Fast Food Restaurant,22.71948717,114.2407751,,Guangdong,Shenzhen,Longgang
461,Social (秀),Café,22.54583573,114.101518,5016 Shennan E Rd,Guangdong,Shenzhen,Luohu District
462,Bombay Indian Cuisine,Indian Restaurant,22.48635416,113.90999309999998,太子路116号,Guangdong,Shenzhen,Nanshan District
463,大家乐 Café de Coral,Café,22.52091428,113.9314845,南山区文心五路33号海岸城1层130号铺,Guangdong,Shenzhen,Nanshan District
464,Din Tai Fung (鼎泰丰),Dumpling Restaurant,22.54315065,114.1060648,"3/F MIXC Mall, No. 1881 Baoan S Road",Guangdong,Shenzhen,Yantian
465,Laurel Restaurant (丹桂轩),Chinese Restaurant,22.54539509,114.01659340000002,农园路香榭里花园紫苑1F,Guangdong,Shenzhen,Futian District
466,Burger King (汉堡王),Fast Food Restaurant,22.52096241,113.93108390000002,Haide 2nd Rd,Guangdong,Shenzhen,Nanshan District
467,面鼎香,Shaanxi Restaurant,22.54355799,113.9403424,科技园深南花园,Guangdong,Shenzhen,Nanshan District
468,KFC (肯德基),Fast Food Restaurant,22.52010779,113.9320885,,Guangdong,Shenzhen,Nanshan District
469,Wagas (沃歌斯),Café,22.53648829,114.0499848,Coco park,Guangdong,Shenzhen,Futian District
470,丹桂轩 Laurel Restaurant,Chinese Restaurant,22.54896145,113.969776,南山区华侨城香山街波托菲诺会所1楼,Guangdong,Shenzhen,Baoan District
471,McDonald's (麦当劳),Fast Food Restaurant,22.52712079,113.9181595,,Guangdong,Shenzhen,Nanshan District
472,ZFY Muslim Restaurant (中发源清真餐厅),Middle Eastern Restaurant,22.55567079,114.0387223,83 Jingtian Rd,Guangdong,Shenzhen,Futian District
473,旧街场白咖啡 Old Town White Coffee,Malay Restaurant,22.51994098,113.9334662,南山区保利广场,Guangdong,Shenzhen,Nanshan District
474,Season Coconut Chicken (润园四季椰子鸡),Hainan Restaurant,22.53458288,114.05997009999999,"福华三路与金田路交汇处卓越世纪中心3,4裙楼",Guangdong,Shenzhen,Luohu District
475,和民居食屋 Watami,Japanese Restaurant,22.536501,114.05399740000001,WongTee Plaza,Guangdong,Shenzhen,Luohu District
476,Bahia (巴希雅重慶燒烤),BBQ Joint,22.4721635,114.2284412,"101 Lung Mei Village, Ting Kok Rd",Guangdong,Shenzhen,Yantian
477,金稻园砂锅粥 Jindaoyuan Restaurant,Chinese Restaurant,22.551887,114.122432,罗湖区乐园路尾,Guangdong,Shenzhen,Luohu District
478,Bahia (巴希雅重慶燒烤),BBQ Joint,22.4721635,114.2284412,"101 Lung Mei Village, Ting Kok Rd",Guangdong,Shenzhen,Luohu District
479,Bombay Indian Cuisine,Indian Restaurant,22.48635416,113.90999309999998,太子路116号,Guangdong,Shenzhen,Baoan District
480,Blue Frog (蓝蛙),Burger Joint,22.536534,114.05588999999999,L2/F Wongtee Plaza,Guangdong,Shenzhen,Futian District
481,廣成冰室,Chinese Restaurant,22.50633354,114.12759209999999,10 San Shing Ave,Guangdong,Shenzhen,Luohu District
482,和民居食屋 Watami,Japanese Restaurant,22.536501,114.05399740000001,WongTee Plaza,Guangdong,Shenzhen,Futian District
483,KFC (肯德基),Fast Food Restaurant,22.561092000000002,113.881593,,Guangdong,Shenzhen,Baoan District
484,Pizza Marzano (披萨马上诺),Pizza Place,22.54231829,114.10623400000001,"Shop 568, Lv 5, the MixC, 1881 Baoan Nan Rd, Luohu District",Guangdong,Shenzhen,Luohu District
485,三多,Snack Place,22.449584299999998,114.1633471,29 Pak Shing St,Guangdong,Shenzhen,Luohu District
486,姜虎東白丁,Korean Restaurant,22.51940423,113.9195592,,Guangdong,Shenzhen,Nanshan District
487,辉哥火锅 FAIGO HOTPOT,Hotpot Restaurant,22.48493361,113.9117754,,Guangdong,Shenzhen,Baoan District
488,Very Siam (暹罗泰),Thai Restaurant,22.53597902,114.05584679999998,福田区福华三路118号皇庭广场G26,Guangdong,Shenzhen,Luohu District
489,La Terrazza,Italian Restaurant,22.54015871,114.105842,"Ground FL, Grand Hyatt Shenzhen, 1881 Baoan Nan Rd, Luohu District",Guangdong,Shenzhen,Yantian
490,Brew Magic Pub,Gastropub,22.48824874,113.9205369,"No. 52, Coastal Rose Garden 2, 1089-39 Wanghai Rd, Shekou, Nanshan District, Shenzhen, China",Guangdong,Shenzhen,Baoan District
491,McDonald's (McDonald's (麦当劳)),Fast Food Restaurant,22.54834741,114.11290559999999,,Guangdong,Shenzhen,Luohu District
492,McDonald's (麦当劳),Fast Food Restaurant,22.584652399999996,113.85762690000001,宝安区金海路金港城,Guangdong,Shenzhen,Baoan District
493,庭悦(华侨城店),Zhejiang Restaurant,22.537998100000003,113.980209,南山区华侨城兴隆街2号(华夏艺术中心北面),Guangdong,Shenzhen,Baoan District
494,Haidilao Hotpot (海底捞火锅),Hotpot Restaurant,22.514666899999998,113.91933030000001,登良路23号汉京大厦2-3楼,Guangdong,Shenzhen,Baoan District
495,潮园砂锅粥,Cantonese Restaurant,22.71891411,114.2635071,龙岗街道平南社区鹏达花园9栋176,Guangdong,Shenzhen,Longgang
496,Olive Café,Café,22.45238137,114.168696,"Shop 012A-012C ,Zone A,Tai Po Mega Mall, 9 On Pong Road",Guangdong,Shenzhen,Yantian
497,McCawley's Irish Pub,Irish Pub,22.53738513,114.04840349999999,购物公园151-152号,Guangdong,Shenzhen,Futian District
498,McDonald's (麦当劳),Fast Food Restaurant,22.61753347,113.85711140000001,,Guangdong,Shenzhen,Baoan District
499,Café de Country Art (藝程雅聚),American Restaurant,22.47279775,114.23108700000002,"64B Lung Mei Village, Ting Kok Rd",Guangdong,Shenzhen,Luohu District
500,宝狮杂碎小食馆 Burts,Hot Dog Joint,22.48831475,113.92551809999999,蛇口路湾厦路42号,Guangdong,Shenzhen,Baoan District
501,CoCo Ichibanya (CoCo壱番屋),Japanese Curry Restaurant,22.53749709,114.05413259999999,,Guangdong,Shenzhen,Luohu District
502,洪記茶室,Hakka Restaurant,22.54494858,114.2246399,,Guangdong,Shenzhen,Yantian
503,Laurel Restaurant (丹桂轩),Chinese Restaurant,22.53318172,114.1144938,"人民南路1168号, 罗湖商业城5F-501",Guangdong,Shenzhen,Luohu District
504,小町號 Komachi,Japanese Restaurant,22.53842725,114.0489604,1F Shopping Park,Guangdong,Shenzhen,Futian District
505,McDonald's 麥當勞,Fast Food Restaurant,22.50064356,114.1261253,"Shop R36-37, 3/F, Choi Yuen Plaza, Choi Yuen Rd",Guangdong,Shenzhen,Luohu District
506,春城米线总店,Noodle House,22.5798772,114.1385735,,Guangdong,Shenzhen,Luohu District
507,木屋烧烤 MuWu BBQ,BBQ Joint,22.54075018,114.00202079999998,福田区竹子林园博东街54号,Guangdong,Shenzhen,Baoan District
508,Gaga Chef,Restaurant,22.54478147,113.95051299999999,,Guangdong,Shenzhen,Nanshan District
509,Chunmanyuan (春满园),Cantonese Restaurant,22.52217581,114.06066750000001,金田南路1008号时代广场3F,Guangdong,Shenzhen,Futian District
510,Mevlana Turkish Restaurant,Turkish Restaurant,22.54918108,114.07793229999999,"No:154, ZhenXing Road, FuTian District",Guangdong,Shenzhen,Futian District
511,三品四季酒家,Asian Restaurant,22.55516052,114.1899261,,Guangdong,Shenzhen,Yantian
512,越廚Viet's Kitchen,Restaurant,22.525897,114.0525318,Fu Min Road,Guangdong,Shenzhen,Futian District
513,McDonald's (McDonald's (麦当劳)),Fast Food Restaurant,22.54389997,114.11793929999999,3002 Dongmen S Rd,Guangdong,Shenzhen,Luohu District
514,Dots Coffee (哆池咖啡),Café,22.54657913,114.1219274,深南东路2023号广深宾馆1楼,Guangdong,Shenzhen,Futian District
515,Latina 拉蒂娜,Brazilian Restaurant,22.48594118,113.91246740000001,"Zone C, Seaworld Shekou, Wanghai Rd Nanshan District, Shenzhen",Guangdong,Shenzhen,Nanshan District
516,盛八日色燒肉店,BBQ Joint,22.53953087,114.11397279999998,人民路佳宁娜友谊广场3楼,Guangdong,Shenzhen,Luohu District
517,Café Marco,Buffet,22.53986497,114.0479657,,Guangdong,Shenzhen,Futian District
518,Element Fresh (新元素),New American Restaurant,22.53650911,114.05390390000001,"Level 2 (West Side Exterior), Wongtee Plaza",Guangdong,Shenzhen,Futian District
519,KFC (肯德基),Fast Food Restaurant,22.54270786,113.949692,,Guangdong,Shenzhen,Nanshan District
520,Burger King (汉堡王),Burger Joint,22.5444218,114.1044294,深南东路5002号地王购物中心LG层09B单元,Guangdong,Shenzhen,Luohu District
521,Pizza Hut (必胜客),Pizza Place,22.59950081,114.3039732,大梅沙愿望湖湖心岛,Guangdong,Shenzhen,Yantian
522,Burger King (汉堡王),Fast Food Restaurant,22.72738885,114.24320300000001,龙岗中心城建设路28号宝能,Guangdong,Shenzhen,Longgang
523,Thai Thai Kitchen (泰太廚房),Thai Restaurant,22.47329518,114.23377759999998,"47E, G/F, Tai Mei Tuk Chuen",Guangdong,Shenzhen,Yantian
524,天天渔港,Chinese Restaurant,22.63975076,114.1835505,Sandborg Hotel,Guangdong,Shenzhen,Longgang
525,Gaga (鲜语),Café,22.53640742,114.04879879999999,168 Fuhua 3rd Rd,Guangdong,Shenzhen,Futian District
526,"HH Gourmet ""Bagels & More""",Bagel Shop,22.48845589,113.91989469999999,"43-B Coastal Rose Garden, Phase II, Wanghai Street",Guangdong,Shenzhen,Nanshan District
527,McDonald's (麦当劳),Fast Food Restaurant,22.52618139,113.94339769999999,,Guangdong,Shenzhen,Baoan District
528,Laurel Restaurant (丹桂轩),Chinese Restaurant,22.54539509,114.01659340000002,农园路香榭里花园紫苑1F,Guangdong,Shenzhen,Luohu District
529,東北餃子館 Hop pot and dumplings resturant,Hotpot Restaurant,22.729457,114.25119299999999,,Guangdong,Shenzhen,Longgang
530,Oggi,Italian Restaurant,22.48153003,113.9254841,,Guangdong,Shenzhen,Baoan District
531,Coyote's Cantina,Mexican Restaurant,22.48663717,113.91092409999999,Seaworld Square,Guangdong,Shenzhen,Nanshan District
532,俏江南 South Beauty,Szechuan Restaurant,22.52802977,113.9869365,南山区白石路东8号欢乐海岸曲水湾1栋A区,Guangdong,Shenzhen,Futian District
533,汕头八合里海记牛肉店,Hotpot Restaurant,22.53994722,114.0965767,,Guangdong,Shenzhen,Futian District
534,润园四季椰子鸡 Season Coconut Chicken,Chinese Restaurant,22.52938673,114.0335078,福田区沙嘴路韵动家园首层,Guangdong,Shenzhen,Futian District
535,三多,Snack Place,22.449584299999998,114.1633471,29 Pak Shing St,Guangdong,Shenzhen,Yantian
536,木屋烧烤,BBQ Joint,22.53628944,113.96202050000001,,Guangdong,Shenzhen,Futian District
537,McDonald's (麦当劳),Fast Food Restaurant,22.52618139,113.94339769999999,,Guangdong,Shenzhen,Nanshan District
538,星美乐 Simply Life,Bakery,22.520969100000002,113.92988700000001,"2/F, Coastal City",Guangdong,Shenzhen,Nanshan District
539,Season Coconut Chicken (润园四季椰子鸡),Hainan Restaurant,22.53458288,114.05997009999999,"福华三路与金田路交汇处卓越世纪中心3,4裙楼",Guangdong,Shenzhen,Futian District
540,WATAMI  Japanese Casual Restaurant,Japanese Restaurant,22.50451441,113.9186705,南山区南海大道1086号花园城4楼412B,Guangdong,Shenzhen,Baoan District
541,Muslim Grand Restaurant,Chinese Restaurant,22.54612529,114.1257646,,Guangdong,Shenzhen,Yantian
542,东腾海鮮酒楼,Seafood Restaurant,22.585726,114.279059,盐田海鮮街16号,Guangdong,Shenzhen,Yantian
543,Flavorz (西餐厅),Breakfast Spot,22.53576174,114.05613159999999,"116, Fuhua San Rd., Futian District",Guangdong,Shenzhen,Luohu District
544,外婆家 Grandma's home (外婆家),Jiangsu Restaurant,22.536314,114.054322,福华三路118号皇庭广场B1层,Guangdong,Shenzhen,Futian District
545,The Ritz-Carlton Club Lounge,American Restaurant,22.53666836,114.0560892,"26F / The Ritz-Carlton, Shenzhen",Guangdong,Shenzhen,Futian District
546,Yoshinoya (Yoshinoya 吉野家),Donburi Restaurant,22.53984384,113.940445,科技园科苑路,Guangdong,Shenzhen,Nanshan District
547,Starleaf 星叶,Thai Restaurant,22.54072835,113.9694653,益田广场,Guangdong,Shenzhen,Nanshan District
548,凤凰楼,Chinese Restaurant,22.5516471,114.0831578,福田区华强北路4002号,Guangdong,Shenzhen,Luohu District
549,Flavorz (西餐厅),Breakfast Spot,22.53576174,114.05613159999999,"116, Fuhua San Rd., Futian District",Guangdong,Shenzhen,Futian District
550,Meraviglia,Pizza Place,22.42700243,114.21102020000001,10 Science Park W. Ave.,Guangdong,Shenzhen,Yantian
551,Laurel Restaurant (丹桂轩),Chinese Restaurant,22.54539509,114.01659340000002,农园路香榭里花园紫苑1F,Guangdong,Shenzhen,Baoan District
552,Grissini,Italian Restaurant,22.48693533,113.9106858,,Guangdong,Shenzhen,Baoan District
553,萨莉亚saizeriya,Italian Restaurant,22.52852883,113.91874990000001,南山大道2009号1楼(近公交车南航公司站),Guangdong,Shenzhen,Baoan District
554,老佛爷炭火蛙锅（南头店）,Hunan Restaurant,22.53399,113.922923,南山区金鸡路一号七巧国一层（美食街内）,Guangdong,Shenzhen,Nanshan District
555,Chinese Legend 廣東名門,Chinese Restaurant,22.47979335,114.0578207,394 Castle Peak Road (Tam Mei),Guangdong,Shenzhen,Futian District
556,KFC (肯德基),Fast Food Restaurant,22.72328949,114.233078,,Guangdong,Shenzhen,Longgang
557,KFC (肯德基),Fast Food Restaurant,22.53541023,113.91022450000001,前海路大新村大新前海商业中心,Guangdong,Shenzhen,Baoan District
558,Haidilao Hotpot (海底捞火锅),Hotpot Restaurant,22.54242235,114.1155695,Block A 5-6/F Friendship City,Guangdong,Shenzhen,Luohu District
559,Starleaf 星叶,Thai Restaurant,22.54072835,113.9694653,益田广场,Guangdong,Shenzhen,Futian District
560,美心•小品,Cantonese Restaurant,22.54356651,114.10598710000001,The MixCity,Guangdong,Shenzhen,Yantian
561,Panini Station,Breakfast Spot,22.48918386,113.9196173,Gong Yuan S. Rd. (Across from Seataste),Guangdong,Shenzhen,Baoan District
562,磨磨 Momo Tea,Chinese Restaurant,22.531381399999997,113.91133980000001,,Guangdong,Shenzhen,Nanshan District
563,Maan Coffee (漫咖啡),Café,22.51128044,113.91467279999999,南山区东滨路4076号中泰艺术名庭一栋1-2楼,Guangdong,Shenzhen,Baoan District
564,McDonald's (麦当劳),Fast Food Restaurant,22.68,114.2141667,荷坳服务区,Guangdong,Shenzhen,Longgang
565,KFC (肯德基),Fast Food Restaurant,22.54778168,114.11264309999999,东门,Guangdong,Shenzhen,Luohu District
566,Ting Kok Bay BBQ Farm (Ting Kok Bay BBQ Farm 汀角灣燒烤農莊),BBQ Joint,22.470098,114.21991499999999,202 Ting Kok Rd,Guangdong,Shenzhen,Yantian
567,Gypsy Aussie Restaurant,Australian Restaurant,22.48700707,113.9115993,Shekou Seaworld,Guangdong,Shenzhen,Baoan District
568,海皇渔港,Cantonese Restaurant,22.51832785,113.92154860000001,,Guangdong,Shenzhen,Baoan District
569,久记猪肚鸡,Cantonese Restaurant,22.726453,114.23361799999999,,Guangdong,Shenzhen,Longgang
570,Element Fresh (新元素),New American Restaurant,22.48541605,113.9109909,"Sea World, Zone B, 1st Floor",Guangdong,Shenzhen,Baoan District
571,麻辣派对 Chilli Party,Szechuan Restaurant,22.50569125,113.9191003,,Guangdong,Shenzhen,Nanshan District
572,Fairwood (大快活),Fast Food Restaurant,22.50108488,114.14466100000001,"Shop G23, G/F, Regentville Shopping Arcade, 8 Wo Mun St, Luen Wo Hui",Guangdong,Shenzhen,Luohu District
573,Wagas Shenzhen MixC,Café,22.54285379,114.1066669,1881 South Baoan Rd，The MixC,Guangdong,Shenzhen,Yantian
574,過橋麵檔,Chinese Restaurant,22.44161211,114.0304517,25 Kin Tak St,Guangdong,Shenzhen,Futian District
575,McDonald's (麦当劳),Fast Food Restaurant,22.57307315,113.8991585,建安一路,Guangdong,Shenzhen,Baoan District
576,Paletto,Italian Restaurant,22.53550916,114.0563487,"116, Fuhua San Rd., Futian District",Guangdong,Shenzhen,Luohu District
577,Star of Canton (利寶閣),Dim Sum Restaurant,22.53804535,114.05188340000001,2/F Building 3 Kerry Plaza,Guangdong,Shenzhen,Futian District
578,糖朝,Dumpling Restaurant,22.557033999999998,113.88215500000001,创业一路与新湖路交汇处壹方城购物中心B2层(宝安中心地铁站F出口旁),Guangdong,Shenzhen,Baoan District
579,宋伯山水豆腐花,Snack Place,22.531761,114.233342,,Guangdong,Shenzhen,Yantian
580,Mevlana Turkish Restaurant,Turkish Restaurant,22.54918108,114.07793229999999,"No:154, ZhenXing Road, FuTian District",Guangdong,Shenzhen,Luohu District
581,simplylife | 星美乐,Café,22.53832134,114.05231599999999,福田区中心四路1-1号嘉里建设广场3座1楼03B铺,Guangdong,Shenzhen,Futian District
582,丹桂轩 (车公庙店) Laurel Restaurant,Chinese Restaurant,22.53310994,114.0287713,"天安数码城, 天安会所3F",Guangdong,Shenzhen,Futian District
583,Shark Grill & Wine,Restaurant,22.48641455,113.91023030000001,,Guangdong,Shenzhen,Baoan District
584,东海酒家,Seafood Restaurant,22.566956,114.12380859999999,田贝三路15号,Guangdong,Shenzhen,Luohu District
585,Haidilao Hotpot (海底捞火锅),Hotpot Restaurant,22.514666899999998,113.91933030000001,登良路23号汉京大厦2-3楼,Guangdong,Shenzhen,Nanshan District
586,Burger King (汉堡王),Burger Joint,22.5444218,114.1044294,深南东路5002号地王购物中心LG层09B单元,Guangdong,Shenzhen,Yantian
587,Wing Nin Noodle (永年士多),Noodle House,22.44348903,114.02445790000002,"Shops 2-4, G/F, 88 Kau Yuk Rd",Guangdong,Shenzhen,Futian District
588,McDonald's (麦当劳),Fast Food Restaurant,22.50837657,113.92064920000001,南海大道信和自由广场,Guangdong,Shenzhen,Nanshan District
589,Cafe de Chan Feng,Hong Kong Restaurant,22.523848,114.21541299999998,,Guangdong,Shenzhen,Yantian
590,CoCo Ichibanya (CoCo壱番屋),Japanese Curry Restaurant,22.53749709,114.05413259999999,,Guangdong,Shenzhen,Nanshan District
591,金富海鲜酒楼,Seafood Restaurant,22.55902182,113.9456281,,Guangdong,Shenzhen,Nanshan District
592,KFC (肯德基),Fast Food Restaurant,22.53993417,113.9435487,深大,Guangdong,Shenzhen,Nanshan District
593,蒸鮮原味海鮮 Seafood Restuarnt,Chinese Restaurant,22.724012,114.212948,,Guangdong,Shenzhen,Longgang
594,CJW Kyoku 日本料理 Japanese Cuisine,Japanese Restaurant,22.5262374,113.98607009999999,欢乐海岸17栋,Guangdong,Shenzhen,Futian District
595,陳鵬鵬鵝肉飯店 壹方城店,Cantonese Restaurant,22.55562,113.88237,,Guangdong,Shenzhen,Baoan District
596,The Shenzhen Kitchen,Chinese Restaurant,22.54979465,113.87562,宝兴路8号,Guangdong,Shenzhen,Baoan District
597,Latina 拉蒂娜,Brazilian Restaurant,22.48594118,113.91246740000001,"Zone C, Seaworld Shekou, Wanghai Rd Nanshan District, Shenzhen",Guangdong,Shenzhen,Baoan District
598,Simply Life 星美乐,Café,22.5404396,113.96944840000002,"B1/F, Yitian Holiday Plaza, 9028 Shennan Blvd",Guangdong,Shenzhen,Nanshan District
599,Café Zen,Café,22.53862167,114.0517063,"4088 Yi Tian Road, Futian District,",Guangdong,Shenzhen,Luohu District
600,船王酒楼,Chinese Restaurant,30.80104535,108.37112549999999,沙龙路沙龙公园,Chongqing,Chongqing,Wanzhou
601,尚道咖啡 ~ Sundao Coffee !,Italian Restaurant,29.817985999999998,106.41885400000001,,Chongqing,Chongqing,Beibei
602,McDonald's (麦当劳),Fast Food Restaurant,29.55953857,106.57378659999999,八一路,Chongqing,Chongqing,Yuzhong
603,McDonald's (麦当劳),Fast Food Restaurant,29.64862392,106.54882309999999,金开大道,Chongqing,Chongqing,Yubei
604,田野私家菜,Asian Restaurant,29.488682,106.43324399999999,,Chongqing,Chongqing,Jiulongpo
605,McDonald's (麦当劳),Fast Food Restaurant,29.55739936,106.5681238,民权路 89 号日月光中心广场 B1,Chongqing,Chongqing,Yuzhong
606,Da Mu Tou Lou Huo Guo,Chinese Restaurant,29.525592699999997,108.75678700000002,202 Ying Bin Ave,Chongqing,Chongqing,Qianjiang
607,KFC (肯德基),Fast Food Restaurant,29.53279311,106.50601,袁家岗,Chongqing,Chongqing,Jiangbei
608,Blue Frog (蓝蛙),Burger Joint,29.580209000000004,106.528782,,Chongqing,Chongqing,Nan'an
609,泰香米泰国餐厅,Thai Restaurant,29.58079418,106.529904,北城天街,Chongqing,Chongqing,County
610,新兴大酒楼,Asian Restaurant,29.61960725,106.3340226,,Chongqing,Chongqing,Shapingba
611,巴倒烫火锅,Hotpot Restaurant,29.49959755,106.5851932,南岸区黄金公路,Chongqing,Chongqing,County
612,McDonald's (麦当劳),Fast Food Restaurant,29.66362181,106.55748349999999,金开大道鸳鸯轻轨站旁,Chongqing,Chongqing,Yubei
613,山鑫庄,Chinese Restaurant,29.40049794,106.42415919999999,,Chongqing,Chongqing,Dadukou
614,韩式全羊 Lamb BBQ,Chinese Restaurant,29.474812,106.55135700000001,,Chongqing,Chongqing,Dadukou
615,泰香米泰国餐厅,Thai Restaurant,29.58079418,106.529904,北城天街,Chongqing,Chongqing,Nan'an
616,KFC (肯德基),Fast Food Restaurant,29.56222823,106.57563970000001,渝中区王府井百货L2,Chongqing,Chongqing,Nan'an
617,McDonald's (麦当劳),Fast Food Restaurant,29.55953857,106.57378659999999,八一路,Chongqing,Chongqing,Jiangbei
618,朝天门火锅（区府一店）,Chinese Restaurant,29.523792999999998,106.558318,南城大道192-1号,Chongqing,Chongqing,Nan'an
619,咖咖茹,Indian Restaurant,29.60644811,106.29878259999998,,Chongqing,Chongqing,Shapingba
620,山东水饺,Dumpling Restaurant,29.488709000000004,106.543093,,Chongqing,Chongqing,Dadukou
621,"Gerai Buah & Air Tebu , Air Kelapa",Food Truck,29.701944,105.714722,Tepi Longkang,Chongqing,Chongqing,Dazu
622,香港冰室,Hong Kong Restaurant,29.539802,106.582532,南岸区,Chongqing,Chongqing,Nan'an
623,三溪口新兴豆腐鱼,Chinese Restaurant,29.753646999999997,106.454167,,Chongqing,Chongqing,Beibei
624,KFC (肯德基),Fast Food Restaurant,29.53279311,106.50601,袁家岗,Chongqing,Chongqing,Yuzhong
625,龙苑凤府,Chinese Restaurant,29.46261787,106.5560074,,Chongqing,Chongqing,Ba'nan
626,City Bistro,American Restaurant,29.540160999999998,106.582334,,Chongqing,Chongqing,Nan'an
627,炒刀削,Chinese Restaurant,29.833271000000003,106.42746000000001,,Chongqing,Chongqing,Beibei
628,农香鱼庄,Chinese Restaurant,29.39855598,106.4939,yudong,Chongqing,Chongqing,Dadukou
629,九村烤脑花,BBQ Joint,29.57273117,106.48150890000001,中国,Chongqing,Chongqing,Yuzhong
630,一蓮素食 - lotus vegetarian restaurant,Vegetarian / Vegan Restaurant,29.56287384,106.57884979999999,罗汉寺 - Louhan Temple,Chongqing,Chongqing,Nan'an
631,McDonald's (麦当劳),Fast Food Restaurant,29.55953857,106.57378659999999,八一路,Chongqing,Chongqing,County
632,No One Has Ever Check In Here Before,Chinese Restaurant,29.895471999999998,106.40338899999999,,Chongqing,Chongqing,Beibei
633,小滨楼,Szechuan Restaurant,29.55728377,106.56847490000001,"4/F, SML Center, 89 Minquan Road",Chongqing,Chongqing,Yuzhong
634,Paulaner Bräuhaus (宝莱纳餐厅),German Restaurant,29.56148887,106.53228030000001,,Chongqing,Chongqing,County
635,布衣砂锅〜,Asian Restaurant,29.388572999999997,106.601905,,Chongqing,Chongqing,Ba'nan
636,老幺泉水鸡,Chinese Restaurant,29.5543526,106.6114445,Chongwen Rd,Chongqing,Chongqing,Yuzhong
637,擂神老火锅,Hotpot Restaurant,29.800932,106.391558,,Chongqing,Chongqing,Beibei
638,Paulaner Bräuhaus (宝莱纳餐厅),German Restaurant,29.56148887,106.53228030000001,,Chongqing,Chongqing,Jiangbei
639,Blue Frog (蓝蛙),Burger Joint,29.580209000000004,106.528782,,Chongqing,Chongqing,Jiangbei
640,鑫緣漁港,Chinese Restaurant,29.54756071,106.5797085,,Chongqing,Chongqing,Nan'an
641,江北区政府旁边的小炒馆,Chinese Restaurant,29.605961999999998,106.574753,,Chongqing,Chongqing,Jiangbei
642,Meri Cafe,Café,29.55677989,106.5459173,,Chongqing,Chongqing,County
643,奇火锅临江门店,Food,29.55442509,106.5665873,,Chongqing,Chongqing,Yuzhong
644,Magritta pizza,Pizza Place,29.596259999999997,106.591853,,Chongqing,Chongqing,Jiangbei
645,拉瓦萨咖啡 Lavazza Coffee,Café,29.58067048,106.5288798,江北区北城天街斜对面,Chongqing,Chongqing,County
646,重庆三耳火锅博物馆,Hotpot Restaurant,29.514111,106.312403,,Chongqing,Chongqing,Jiulongpo
647,Burger King (汉堡王),Fast Food Restaurant,29.712621000000002,106.654443,T3 Jiangbei Int’l Airport | 江北机场T3,Chongqing,Chongqing,Jiangbei
648,龙氏机场豌豆面,Noodle House,29.72197618,106.6285576,No.131 Yuhang Rd.,Chongqing,Chongqing,Yubei
649,巴倒烫火锅,Hotpot Restaurant,29.49959755,106.5851932,南岸区黄金公路,Chongqing,Chongqing,Ba'nan
650,韩国拌饭,Korean Restaurant,29.46130348,106.52648629999999,,Chongqing,Chongqing,Dadukou
651,永和豆浆 Yonho,Chinese Restaurant,29.712112,106.65355500000001,,Chongqing,Chongqing,Yubei
652,McDonald's (麦当劳),Fast Food Restaurant,29.6092828,106.3012827,得来速餐,Chongqing,Chongqing,Bishan
653,Latest Recipe,Restaurant,29.52715491,106.5667369,10 Jiangnan Avenue,Chongqing,Chongqing,Nan'an
654,一蓮素食 - lotus vegetarian restaurant,Vegetarian / Vegan Restaurant,29.56287384,106.57884979999999,罗汉寺 - Louhan Temple,Chongqing,Chongqing,Jiangbei
655,Spices Restaurant,Restaurant,29.528487,106.486552,,Chongqing,Chongqing,County
656,Guang Yang Canteen,Food Court,29.581836,106.229339,Bishan,Chongqing,Chongqing,Bishan
657,罐罐米线,Chinese Restaurant,29.4611067,106.5263597,重庆理工大学,Chongqing,Chongqing,Dadukou
658,dico's 德克士,Restaurant,29.800736999999998,106.400531,,Chongqing,Chongqing,Beibei
659,McDonald's (麦当劳),Fast Food Restaurant,29.56161562,106.45866720000001,立海餐,Chongqing,Chongqing,Yuzhong
660,肖遥 御兔王,Chinese Restaurant,29.82631986,106.4141587,北碚,Chongqing,Chongqing,Beibei
661,农家野渔村,Hunan Restaurant,30.005328000000002,106.29930800000001,,Chongqing,Chongqing,Hechuan
662,吴抄手,Chinese Restaurant,29.55818263,106.57307340000001,渝中区中华路74号,Chongqing,Chongqing,Nan'an
663,KFC (肯德基),Fast Food Restaurant,29.55943686,106.5733953,解放碑,Chongqing,Chongqing,Jiangbei
664,龙苑凤府,Chinese Restaurant,29.46261787,106.5560074,,Chongqing,Chongqing,Dadukou
665,张老汉手工酸辣粉,Asian Restaurant,29.58319431,106.44792890000001,,Chongqing,Chongqing,Shapingba
666,KFC (肯德基),Fast Food Restaurant,29.71996112,106.6353607,重庆江北国际机场,Chongqing,Chongqing,Jiangbei
667,Paulaner Bräuhaus (宝莱纳餐厅),German Restaurant,29.53857101,106.55779129999999,,Chongqing,Chongqing,Yuzhong
668,大足石刻如意酒楼,Chinese Restaurant,29.74698164,105.78757309999999,大足石刻停车场边,Chongqing,Chongqing,Dazu
669,邓记莽子火锅（鲁祖庙店）,Szechuan Restaurant,29.55831157,106.56922879999999,鲁祖庙7号(近花市入口),Chongqing,Chongqing,Yuzhong
670,九锅一堂( 日月光店),Asian Restaurant,29.55706012,106.5680433,,Chongqing,Chongqing,Yuzhong
671,Inari Sushi,Sushi Restaurant,29.6067375,106.2986274,"熙街, 重庆",Chongqing,Chongqing,Bishan
672,西彭巴人渔家,BBQ Joint,29.33904827,106.3277811,,Chongqing,Chongqing,Jiulongpo
673,Ming Yue,Restaurant,29.863993199999996,106.386276,,Chongqing,Chongqing,Beibei
674,胖妹面庄,Noodle House,29.55699554,106.54562959999998,,Chongqing,Chongqing,County
675,McDonald's (麦当劳),Fast Food Restaurant,29.56161562,106.45866720000001,立海餐,Chongqing,Chongqing,Nan'an
676,"Flavors Cafe, DoubleTree By Hilton",Restaurant,29.58148858,106.5274068,DoubleTree By Hilton,Chongqing,Chongqing,Jiangbei
677,Blue Frog (蓝蛙),Burger Joint,29.51778755,106.5148412,,Chongqing,Chongqing,Ba'nan
678,JieFangBei,Café,29.55775834,106.5719393,77 QingNian Road,Chongqing,Chongqing,Jiangbei
679,KFC (肯德基),Fast Food Restaurant,29.55943686,106.5733953,解放碑,Chongqing,Chongqing,County
680,三国烤肉,BBQ Joint,29.804346999999996,106.396952,,Chongqing,Chongqing,Beibei
681,McDonald's (麦当劳),Fast Food Restaurant,29.71737547,106.63111210000001,Shengli Rd.,Chongqing,Chongqing,Yubei
682,McDonald's (麦当劳),Fast Food Restaurant,29.57690953,106.5320098,北城天街,Chongqing,Chongqing,Yuzhong
683,拉瓦萨咖啡 Lavazza Coffee,Café,29.58067048,106.5288798,江北区北城天街斜对面,Chongqing,Chongqing,Nan'an
684,Blue Frog (蓝蛙),Burger Joint,29.580209000000004,106.528782,,Chongqing,Chongqing,Shapingba
685,大融合酒楼,Chinese Restaurant,29.501279999999998,106.468775,,Chongqing,Chongqing,Dadukou
686,KFC (肯德基),Fast Food Restaurant,29.708351,106.656319,,Chongqing,Chongqing,Yubei
687,正宗三溪口豆腐鱼,Chinese Restaurant,29.830322999999996,106.44203200000001,北碚,Chongqing,Chongqing,Beibei
688,罐罐米线,Chinese Restaurant,29.4611067,106.5263597,重庆理工大学,Chongqing,Chongqing,Ba'nan
689,好運粥麵,Noodle House,29.99125671,106.2669373,柏樹街,Chongqing,Chongqing,Hechuan
690,曾老幺邮亭鲫鱼,Chinese Restaurant,29.55123635,106.5685439,,Chongqing,Chongqing,Nan'an
691,Pizza Hut,Pizza Place,29.400287,106.540175,,Chongqing,Chongqing,Ba'nan
692,三叶土鸡,Asian Restaurant,29.34429359,107.75679779999999,,Chongqing,Chongqing,Wulong
693,荷花山庄,Chinese Restaurant,29.74795629,105.75978,,Chongqing,Chongqing,Dazu
694,Blue Frog (蓝蛙),Burger Joint,29.580209000000004,106.528782,,Chongqing,Chongqing,Yuzhong
695,简而闻火㶽,Chinese Restaurant,29.901079,106.293705,高滩岩,Chongqing,Chongqing,Hechuan
696,文峰古街,Asian Restaurant,29.986590999999997,106.26753799999999,,Chongqing,Chongqing,Hechuan
697,大队长知青老火锅,Hotpot Restaurant,29.55159883,106.5632841,长滨路,Chongqing,Chongqing,Yuzhong
698,Pizza Hut (必胜客),Pizza Place,29.51265025,106.51074479999998,杨家坪,Chongqing,Chongqing,County
699,陶然居新农村生态酒店,Chinese Restaurant,29.47713268,106.3664317,九龙坡区白市驿镇高田坎村,Chongqing,Chongqing,Jiulongpo
700,特色兔杂面,Noodle House,29.720805,106.62591599999999,渝北两路,Chongqing,Chongqing,Yubei
701,稻荷寿司 熙街店,Sushi Restaurant,29.60402809,106.2991217,,Chongqing,Chongqing,Bishan
702,西湖大院子,Asian Restaurant,29.713503999999997,107.387368,,Chongqing,Chongqing,Fuling 
703,山东水饺,Dumpling Restaurant,29.488709000000004,106.543093,,Chongqing,Chongqing,Ba'nan
704,Peter's Tex-Mex Grill,American Restaurant,29.514662,106.51858700000001,"No.55, Xiejiawan Main Street CRC Wanxiang City Southern District F LG No.153 Jiulongpo",Chongqing,Chongqing,Ba'nan
705,九锅一堂( 日月光店),Asian Restaurant,29.55706012,106.5680433,,Chongqing,Chongqing,Nan'an
706,UBK Pizza,Pizza Place,29.709045,107.40043200000001,,Chongqing,Chongqing,Fuling 
707,Alessi Italian Restaurant,Italian Restaurant,29.55628359,106.5716396,,Chongqing,Chongqing,Jiangbei
708,泰香米泰国餐厅,Thai Restaurant,29.58079418,106.529904,北城天街,Chongqing,Chongqing,Jiangbei
709,泰香米泰国餐厅,Thai Restaurant,29.58079418,106.529904,北城天街,Chongqing,Chongqing,Yuzhong
710,KFC (肯德基),Fast Food Restaurant,29.51259983,106.51385659999998,西城天街店,Chongqing,Chongqing,Ba'nan
711,较场口夜市,Snack Place,29.55671823,106.5703567,,Chongqing,Chongqing,Jiangbei
712,华莱士（熙街）,Fast Food Restaurant,29.603824,106.299043,,Chongqing,Chongqing,Bishan
713,Terrace Cafe,Café,29.584158000000002,106.44846100000001,,Chongqing,Chongqing,Shapingba
714,松本楼,Japanese Restaurant,29.47840309,106.48012539999999,国瑞城,Chongqing,Chongqing,Ba'nan
715,KFC (肯德基),Fast Food Restaurant,30.814634,108.379226,万达一楼,Chongqing,Chongqing,Wanzhou
716,KFC (肯德基),Fast Food Restaurant,29.56222823,106.57563970000001,渝中区王府井百货L2,Chongqing,Chongqing,County
717,KFC (肯德基),Fast Food Restaurant,29.55584526,106.5697784,日月光店,Chongqing,Chongqing,Yuzhong
718,三溪口豆腐鱼,Szechuan Restaurant,29.744353999999998,106.45128400000002,,Chongqing,Chongqing,Beibei
719,农香鱼庄,Chinese Restaurant,29.39855598,106.4939,yudong,Chongqing,Chongqing,Ba'nan
720,KFC (肯德基),Fast Food Restaurant,29.82863392,106.4324348,,Chongqing,Chongqing,Beibei
721,Restaurant A（鎏嘉码头8号区4幢LG层）,French Restaurant,29.573195799999997,106.5569544,北滨一路鎏嘉码头8号区4幢LG层,Chongqing,Chongqing,County
722,"Flavors Cafe, DoubleTree By Hilton",Restaurant,29.58148858,106.5274068,DoubleTree By Hilton,Chongqing,Chongqing,County
723,Korea Restuarant ,Korean Restaurant,29.83111665,106.4307338,,Chongqing,Chongqing,Beibei
724,边城角角鱼,Restaurant,29.515264000000002,108.819901,,Chongqing,Chongqing,Qianjiang
725,McDonald's (麦当劳),Fast Food Restaurant,29.6092828,106.3012827,得来速餐,Chongqing,Chongqing,Shapingba
726,McDonald's (麦当劳),Fast Food Restaurant,30.80918349,108.3748612,太白路福斯德广场,Chongqing,Chongqing,Wanzhou
727,JieFangBei,Café,29.55775834,106.5719393,77 QingNian Road,Chongqing,Chongqing,Yuzhong
728,一蓮素食 - lotus vegetarian restaurant,Vegetarian / Vegan Restaurant,29.56287384,106.57884979999999,罗汉寺 - Louhan Temple,Chongqing,Chongqing,County
729,明然玥老菜馆,Chinese Restaurant,29.58271598,106.5396395,,Chongqing,Chongqing,Nan'an
730,赵大妹酸辣粉,Szechuan Restaurant,29.465537,106.542502,,Chongqing,Chongqing,Dadukou
731,KFC (肯德基),Fast Food Restaurant,29.56222823,106.57563970000001,渝中区王府井百货L2,Chongqing,Chongqing,Yuzhong
732,Subway (赛百味),Sandwich Place,29.56477645,106.57513590000002,洪崖洞风景区11楼,Chongqing,Chongqing,Jiangbei
733,Subway (赛百味),Sandwich Place,29.55561439,106.4643645,新纪元购物广场,Chongqing,Chongqing,Shapingba
734,McDonald's (麦当劳),Fast Food Restaurant,29.57690953,106.5320098,北城天街,Chongqing,Chongqing,County
735,JieFangBei,Café,29.55775834,106.5719393,77 QingNian Road,Chongqing,Chongqing,County
736,KFC (肯德基),Fast Food Restaurant,29.55837521,106.45805179999999,沙坪坝,Chongqing,Chongqing,Shapingba
737,泉城苑酒店,Asian Restaurant,29.861752000000003,106.39088799999999,,Chongqing,Chongqing,Beibei
738,正大一食堂(二食堂),Chinese Restaurant,29.41962861,106.5938616,巴南区南泉镇正大软件学院,Chongqing,Chongqing,Dadukou
739,康僖水煮魚飯店,Chinese Restaurant,29.719578000000002,106.630604,渝北区两路滨港路149号,Chongqing,Chongqing,Yubei
740,岗上渣渣老火锅,Chinese Restaurant,29.45248859,106.4999118,科园四路159号,Chongqing,Chongqing,Dadukou
741,康师傅私房牛肉面,Noodle House,29.72085763,106.63389380000001,江北机场,Chongqing,Chongqing,Yubei
742,阿錦海鮮,Seafood Restaurant,29.59711456,106.30385590000002,,Chongqing,Chongqing,Bishan
743,正大一食堂(二食堂),Chinese Restaurant,29.41962861,106.5938616,巴南区南泉镇正大软件学院,Chongqing,Chongqing,Ba'nan
744,JieFangBei,Café,29.55775834,106.5719393,77 QingNian Road,Chongqing,Chongqing,Nan'an
745,Pizza Hut,Pizza Place,29.400287,106.540175,,Chongqing,Chongqing,Dadukou
746,老母鸭汤锅城,Chinese Restaurant,30.76343859,108.4103608,龙都大道197号,Chongqing,Chongqing,Wanzhou
747,赵大妹酸辣粉,Szechuan Restaurant,29.465537,106.542502,,Chongqing,Chongqing,Ba'nan
748,让鸭脑壳飞,Asian Restaurant,30.335051,107.33229399999999,垫江天宝路,Chongqing,Chongqing,Dianjiang
749,Cafe Two,Café,29.55816446,106.5459806,重庆市‎ 重庆 No 139 Zhong Shan San Lu 400015,Chongqing,Chongqing,Yuzhong
750,Maan coffee,Café,24.49053461,118.0912726,,Fujian,Xiamen,Jimei
751,马尔龙新疆伊斯兰饭庄 Maer Long,Asian Restaurant,24.48453417,118.12014640000001,长青路180号优佳丽大厦,Fujian,Xiamen,Siming
752,Relax Cafe (美丽时光咖啡),Café,24.43921189,118.08527109999999,大学路213号,Fujian,Xiamen,Siming
753,小眼镜海鲜大排档,Seafood Restaurant,24.46978578,118.09829669999999,164 Hubin S Rd | 湖滨南路164号,Fujian,Xiamen,Siming
754,蓉李记成都名小吃,Chinese Breakfast Place,24.57604772,118.08844909999999,2,Fujian,Xiamen,Jimei
755,Tutto Benne,Italian Restaurant,24.47755057,118.0789587,,Fujian,Xiamen,Huli District
756,临家闽南菜,Fujian Restaurant,24.488014,118.16945700000001,,Fujian,Xiamen,Siming
757,Cafè Marco at Marco Polo Hotel Xiamen,Café,24.47782514,118.0796007,湖滨北建业路8号马哥孛罗东方大酒店,Fujian,Xiamen,Jimei
758,不见MISS,Café,24.43197231,118.13610619999999,曾厝埯146号,Fujian,Xiamen,Siming
759,长白山,Korean Restaurant,24.440056,118.087873,"15, Yanwu Rd. | 演武路15号大学城C栋",Fujian,Xiamen,Siming
760,Coyote Cafe,Mexican Restaurant,24.47959719,118.07932079999999,58-2 Yuan Dang road,Fujian,Xiamen,Jimei
761,Havana Xiamen,Latin American Restaurant,24.47622874,118.07013549999999,2nd booth,Fujian,Xiamen,Haicang District
762,BBQ (烧烤),Food Court,24.610027,118.315799,翔安厦大学生街,Fujian,Xiamen,Xiang'an
763,撮一顿粥粉面(长庚医院店),Chinese Restaurant,24.53783226,118.00430300000001,,Fujian,Xiamen,Haicang District
764,Gregs Restaurant,French Restaurant,24.47985817,118.0748469,Yuan dang Road,Fujian,Xiamen,Huli District
765,Lobby Lounge Crowne Plaza Paragon,Breakfast Spot,24.48494863,118.11655970000001,,Fujian,Xiamen,Huli District
766,大丰收鱼庄,Chinese Restaurant,24.50246329,118.1194657,嘉禾路399号SM新生活广场,Fujian,Xiamen,Huli District
767,一刘汤包,Restaurant,24.707214,118.15103899999998,,Fujian,Xiamen,Tongan
768,McDonald's (麦当劳),Fast Food Restaurant,24.50296499,118.12264309999999,嘉禾路SM城市广场,Fujian,Xiamen,Huli District
769,花之霖,Chinese Restaurant,24.43044855,118.1138195,,Fujian,Xiamen,Siming
770,SPR Coffee,Café,24.53667583,118.1260479,Xiamen Gaoqi Int'l Airport,Fujian,Xiamen,Jimei
771,KFC (肯德基),Fast Food Restaurant,24.48095815,118.0785227,湖滨北路25号,Fujian,Xiamen,Jimei
772,KFC (肯德基),Fast Food Restaurant,24.48017451,118.1156939,国贸富山,Fujian,Xiamen,Siming
773,老地方烧烤,BBQ Joint,24.728664000000002,118.152119,同安区同新路50号,Fujian,Xiamen,Tongan
774,马尔龙新疆伊斯兰饭庄 Maer Long,Asian Restaurant,24.48453417,118.12014640000001,长青路180号优佳丽大厦,Fujian,Xiamen,Jimei
775,厦门牛庄,Snack Place,24.48037415,118.1541564,,Fujian,Xiamen,Huli District
776,The Corner Backery (街角烘焙坊),Bakery,24.575732000000002,118.094445,,Fujian,Xiamen,Jimei
777,Xinjiang Muslim Restaurant,Xinjiang Restaurant,24.4829824,118.15407069999999,洪莲中路300号,Fujian,Xiamen,Huli District
778,McDonald's (麦当劳),Fast Food Restaurant,24.607104999999997,118.07517,,Fujian,Xiamen,Jimei
779,三生渝香食府,Fujian Restaurant,24.56423033,118.05363100000001,,Fujian,Xiamen,Haicang District
780,翔安汇景广场Red Windmill,Restaurant,24.63752421,118.24420220000002,,Fujian,Xiamen,Xiang'an
781,Mr.Sandwich,Sandwich Place,24.57065828,118.0932274,石鼓路,Fujian,Xiamen,Jimei
782,La Bettola 意大利餐廳,Italian Restaurant,24.46330228,118.07310490000002,,Fujian,Xiamen,Haicang District
783,Smart Hero,Diner,24.50143763,118.1189,,Fujian,Xiamen,Jimei
784,Subway (Subway (赛百味)),Sandwich Place,24.44098876,118.08840390000002,厦大西村,Fujian,Xiamen,Siming
785,SPR Coffee,Café,24.53667583,118.1260479,Xiamen Gaoqi Int'l Airport,Fujian,Xiamen,Siming
786,KFC (肯德基),Fast Food Restaurant,24.53721767,118.12785179999999,Gaoqi International Airport,Fujian,Xiamen,Huli District
787,KFC (肯德基),Fast Food Restaurant,24.63788773,118.06947749999999,,Fujian,Xiamen,Jimei
788,碧香小吃,Fujian Restaurant,24.722114,118.140451,,Fujian,Xiamen,Tongan
789,西北拉面 Muslim Noodle,Noodle House,24.441939,118.08735,顶澳仔,Fujian,Xiamen,Siming
790,KFC (肯德基),Fast Food Restaurant,24.47845941,118.1534365,瑞景商业广场,Fujian,Xiamen,Huli District
791,Havana Xiamen,Latin American Restaurant,24.47622874,118.07013549999999,2nd booth,Fujian,Xiamen,Huli District
792,KFC (肯德基),Fast Food Restaurant,24.62228398,118.24033610000001,翔安新店,Fujian,Xiamen,Xiang'an
793,东苑食堂,Chinese Restaurant,24.43871791,118.0971321,,Fujian,Xiamen,Siming
794,Honer Seafood Rest. 荣誉海鲜酒楼,Seafood Restaurant,24.4730079,118.069649,西堤海湾公园内餐饮中心,Fujian,Xiamen,Siming
795,黄则和花生汤 Huang Zehe Peanut Soup (黄则和花生汤),Chinese Restaurant,24.45607075,118.0710326,22-24 Zhongshan Rd.,Fujian,Xiamen,Huli District
796,潮福城大酒楼 Lucky Full City Seafood (潮福城大酒楼),Chinese Restaurant,24.46041903,118.06659140000001,3/F 33 Lujiang Rd,Fujian,Xiamen,Huli District
797,Golden Olives 3,Eastern European Restaurant,24.57549519,118.08694579999998,Wanda Plaza Jimei,Fujian,Xiamen,Jimei
798,TROY TURKISH RESTAURANT,Turkish Restaurant,24.50643464,118.1733738,Wanda Plaza,Fujian,Xiamen,Huli District
799,黄则和花生汤 Huang Zehe Peanut Soup (黄则和花生汤),Chinese Restaurant,24.45607075,118.0710326,22-24 Zhongshan Rd.,Fujian,Xiamen,Siming
800,Coyote Cafe,Mexican Restaurant,24.47959719,118.07932079999999,58-2 Yuan Dang road,Fujian,Xiamen,Haicang District
801,潮福城大酒楼 Lucky Full City Seafood (潮福城大酒楼),Chinese Restaurant,24.46041903,118.06659140000001,3/F 33 Lujiang Rd,Fujian,Xiamen,Jimei
802,Mira 咖啡馆 Mira Cafe,Café,24.611231399999998,118.2415011,,Fujian,Xiamen,Xiang'an
803,McDonald's (麦当劳),Fast Food Restaurant,24.45668331,118.0766457,思明南路,Fujian,Xiamen,Siming
804,年年大丰収,Chinese Restaurant,24.666904000000002,118.24696000000002,,Fujian,Xiamen,Xiang'an
805,小眼镜海鲜大排档,Seafood Restaurant,24.46978578,118.09829669999999,164 Hubin S Rd | 湖滨南路164号,Fujian,Xiamen,Huli District
806,KFC (肯德基),Fast Food Restaurant,24.4713549,118.0860827,,Fujian,Xiamen,Jimei
807,宝凤牛肉馆,Chinese Restaurant,24.671247,118.24326699999999,,Fujian,Xiamen,Xiang'an
808,Ishijah Coffee 伊示雅咖啡,Café,24.53674242,118.12670609999999,Xiamen Gaoqi Int'l Airport,Fujian,Xiamen,Huli District
809,C•B•D• Café,Breakfast Spot,24.47979081,118.07885970000001,,Fujian,Xiamen,Haicang District
810,Gagarin russian restaurant,Russian Restaurant,24.506255,118.17300300000001,万达广场金街1071-1072号,Fujian,Xiamen,Huli District
811,Honer Seafood Rest. 荣誉海鲜酒楼,Seafood Restaurant,24.4730079,118.069649,西堤海湾公园内餐饮中心,Fujian,Xiamen,Huli District
812,Paulaner Bräuhaus (宝莱纳餐厅),German Restaurant,24.47568482,118.09541899999999,湖滨南路98,Fujian,Xiamen,Siming
813,Maan coffee,Café,24.49053461,118.0912726,,Fujian,Xiamen,Siming
814,Prague Café,Café,24.43914869,118.0879004,51 Yanwu Rd.,Fujian,Xiamen,Siming
815,Burger King (汉堡王),Fast Food Restaurant,24.50266559,118.12034579999998,仙岳路SM二期,Fujian,Xiamen,Jimei
816,Bellagio 鹿港小镇,Chinese Restaurant,24.47931853,118.078915,"16, Jianye Rd.",Fujian,Xiamen,Haicang District
817,金象湾泰越餐厅 华侨分店,Thai Restaurant,24.46592022,118.0717206,思明区,Fujian,Xiamen,Siming
818,鷺島飯店,Chinese Restaurant,24.678572,118.253495,,Fujian,Xiamen,Xiang'an
819,Burger King (汉堡王),Fast Food Restaurant,24.50266559,118.12034579999998,仙岳路SM二期,Fujian,Xiamen,Huli District
820,潮福城大酒楼 Lucky Full City Seafood (潮福城大酒楼),Chinese Restaurant,24.46041903,118.06659140000001,3/F 33 Lujiang Rd,Fujian,Xiamen,Haicang District
821,朗地 Rendezvous Café,Café,24.4430888,118.08716299999999,,Fujian,Xiamen,Siming
822,J.J. Bar and Grill,BBQ Joint,24.47522414,118.06993130000001,,Fujian,Xiamen,Jimei
823,Burger King (汉堡王),Fast Food Restaurant,24.53886035,118.127769,,Fujian,Xiamen,Jimei
824,McDonald's (麦当劳),Fast Food Restaurant,24.57707388,118.0945267,中国,Fujian,Xiamen,Huli District
825,中國蘭州拉面,Noodle House,24.62257534,118.238777,新店,Fujian,Xiamen,Tongan
826,KFC (肯德基),Fast Food Restaurant,24.4713549,118.0860827,,Fujian,Xiamen,Huli District
827,Changpin Coffee,Chinese Restaurant,24.52243707,117.99336480000001,,Fujian,Xiamen,Haicang District
828,南普陀素菜馆 Nanputuo Vegetarian Dishes,Vegetarian / Vegan Restaurant,24.44358719,118.09225570000001,思明区思明南路515号南普陀寺内普照楼,Fujian,Xiamen,Siming
829,impression café (印象咖啡馆),Café,24.61321529,118.31197390000001,"2nd floor, XMU Dining Hall, Xiamen University Xiang'An Campus",Fujian,Xiamen,Xiang'an
830,杨强芙蓉香骨鸡腿,Fried Chicken Joint,24.718926,118.137475,,Fujian,Xiamen,Tongan
831,鹭江宾馆观海厅 Habourview Restaurant,Chinese Restaurant,24.45602259,118.069749,"No 54, Lujiang Rd.",Fujian,Xiamen,Jimei
832,McDonald's (麦当劳),Fast Food Restaurant,24.45668331,118.0766457,思明南路,Fujian,Xiamen,Haicang District
833,McDonald's (麦当劳),Fast Food Restaurant,24.53644767,118.1269095,"厦门高崎T3候机楼 Terminal 3, GaoQi International Airport",Fujian,Xiamen,Jimei
834,吴再添小吃店,Snack Place,24.46842145,118.0846023,美湖路25号,Fujian,Xiamen,Huli District
835,Lobby Lounge Crowne Plaza Paragon,Breakfast Spot,24.48494863,118.11655970000001,,Fujian,Xiamen,Siming
836,KFC (肯德基),Fast Food Restaurant,24.62228398,118.24033610000001,翔安新店,Fujian,Xiamen,Tongan
837,王子饭店 Prince Restaurant,Chinese Restaurant,24.49821705,118.12354029999999,厦门市嘉禾路386－1号喜来登酒店三，四楼,Fujian,Xiamen,Siming
838,Gregs Restaurant,French Restaurant,24.47985817,118.0748469,Yuan dang Road,Fujian,Xiamen,Haicang District
839,碗碗香家常小炒 (Temple Food Store),Fujian Restaurant,24.53365222,118.1373348,湖里区光电二路,Fujian,Xiamen,Huli District
840,SHAM ARABIC RESTAURANT,Restaurant,24.48987974,118.11404879999999,1st floor tongbao building,Fujian,Xiamen,Huli District
841,KFC (肯德基),Fast Food Restaurant,24.47845941,118.1534365,瑞景商业广场,Fujian,Xiamen,Siming
842,Bellagio 鹿港小镇,Chinese Restaurant,24.47931853,118.078915,"16, Jianye Rd.",Fujian,Xiamen,Jimei
843,西北拉面,Halal Restaurant,24.672434,118.128028,,Fujian,Xiamen,Tongan
844,Paradiso Pizza and Coffee,Pizza Place,24.43949905,118.08436699999999,"162-7, Daxue Rd.",Fujian,Xiamen,Huli District
845,醉得意,Chinese Restaurant,24.53488674,118.13808329999999,围里,Fujian,Xiamen,Jimei
846,Golden Olives Greece Restaurant,Greek Restaurant,24.57555615,118.0869115,,Fujian,Xiamen,Jimei
847,重庆麻辣烫,Asian Restaurant,24.5712766,118.0928044,,Fujian,Xiamen,Jimei
848,Subway (Subway (赛百味)),Sandwich Place,24.44098876,118.08840390000002,厦大西村,Fujian,Xiamen,Huli District
849,碗碗香家常小炒 (Temple Food Store),Fujian Restaurant,24.53365222,118.1373348,湖里区光电二路,Fujian,Xiamen,Siming
850,J.J. Bar and Grill,BBQ Joint,24.47522414,118.06993130000001,,Fujian,Xiamen,Huli District
851,Fei Hua Restaurant,Chinese Restaurant,24.66045916,118.16301229999999,,Fujian,Xiamen,Tongan
852,大厝宅,Seafood Restaurant,24.56813785,118.2237398,,Fujian,Xiamen,Xiang'an
853,Xinjiang Muslim Restaurant,Xinjiang Restaurant,24.4829824,118.15407069999999,洪莲中路300号,Fujian,Xiamen,Jimei
854,Mos Burger 摩斯汉堡,Burger Joint,24.48662323,118.17760459999998,,Fujian,Xiamen,Huli District
855,品鲜阁,Chinese Restaurant,24.57821508,118.09607369999999,集美,Fujian,Xiamen,Jimei
856,KFC (肯德基),Fast Food Restaurant,24.63788773,118.06947749999999,,Fujian,Xiamen,Haicang District
857,Pizza Hut (必胜客),Pizza Place,24.44025395,118.09345719999999,思明南路,Fujian,Xiamen,Siming
858,Jacky Angela Steakhouse,Steakhouse,24.4849414,118.07182309999999,2-0102 Donggang Lu,Fujian,Xiamen,Jimei
859,Cooper Café,Café,24.47713112,118.07715390000001,,Fujian,Xiamen,Huli District
860,Ea咖啡馆,Café,24.44024277,118.08991999999999,,Fujian,Xiamen,Siming
861,SPR Coffee,Café,24.53667583,118.1260479,Xiamen Gaoqi Int'l Airport,Fujian,Xiamen,Huli District
862,Cooper Café,Café,24.47713112,118.07715390000001,,Fujian,Xiamen,Jimei
863,Dong A Spot,Café,24.753418,118.14750500000001,Đông Á 大学,Fujian,Xiamen,Tongan
864,赵小姐的店,Café,24.44767054,118.0659962,"298 Longtou Rd, Siming",Fujian,Xiamen,Siming
865,KFC (肯德基),Fast Food Restaurant,24.48017451,118.1156939,国贸富山,Fujian,Xiamen,Huli District
866,内山野菜,Asian Restaurant,24.770189000000002,118.10033700000001,,Fujian,Xiamen,Tongan
867,戏锅 Seepot,Szechuan Restaurant,24.451745000000003,118.07666200000001,,Fujian,Xiamen,Siming
868,敖冠村,Seafood Restaurant,24.520841,118.04933999999999,,Fujian,Xiamen,Haicang District
869,Paulaner Bräuhaus (宝莱纳餐厅),German Restaurant,24.47568482,118.09541899999999,湖滨南路98,Fujian,Xiamen,Jimei
870,褚家园咖啡馆 | The Chu Family Cafe,Café,24.44550545,118.0649443,中华路15号,Fujian,Xiamen,Siming
871,KFC (肯德基),Fast Food Restaurant,24.4713549,118.0860827,,Fujian,Xiamen,Haicang District
872,Chicken Pot,Chinese Restaurant,24.58410885,118.0981313,,Fujian,Xiamen,Haicang District
873,Champion Pizza,Pizza Place,24.53646359,118.1274376,厦门高崎国际机场,Fujian,Xiamen,Jimei
874,Paulaner Bräuhaus (宝莱纳餐厅),German Restaurant,24.47568482,118.09541899999999,湖滨南路98,Fujian,Xiamen,Huli District
875,舒友会所 Shu You Seafood Restaurant,Chinese Restaurant,24.43520425,118.0943133,,Fujian,Xiamen,Siming
876,McDonald's (麦当劳),Fast Food Restaurant,24.54623069,118.1429803,厦门高崎国际机场T4候机楼,Fujian,Xiamen,Jimei
877,沈家闽南肠粉,Fujian Restaurant,24.446504,118.06640800000001,福建路57,Fujian,Xiamen,Siming
878,SHAM ARABIC RESTAURANT,Restaurant,24.48987974,118.11404879999999,1st floor tongbao building,Fujian,Xiamen,Siming
879,王子饭店 Prince Restaurant,Chinese Restaurant,24.49821705,118.12354029999999,厦门市嘉禾路386－1号喜来登酒店三，四楼,Fujian,Xiamen,Huli District
880,海底捞火锅 Hai Di Lao,Hotpot Restaurant,24.47105659,118.1083445,思明区厦禾路888,Fujian,Xiamen,Siming
881,Afanti Xinjiang Restaurant,Asian Restaurant,24.47483294,118.11111059999999,170 Hexiang Donglu,Fujian,Xiamen,Huli District
882,Honer Seafood Rest. 荣誉海鲜酒楼,Seafood Restaurant,24.4730079,118.069649,西堤海湾公园内餐饮中心,Fujian,Xiamen,Haicang District
883,褚家园咖啡馆 | The Chu Family Cafe,Café,24.44550545,118.0649443,中华路15号,Fujian,Xiamen,Haicang District
884,真功夫,Fast Food Restaurant,24.53657364,118.1260775,高崎国际机场,Fujian,Xiamen,Siming
885,小眼镜大排档,Seafood Restaurant,24.45690932,118.0876085,思明区虎园路1号,Fujian,Xiamen,Jimei
886,黄鶴楼,Chinese Restaurant,24.673285,118.244896,,Fujian,Xiamen,Tongan
887,河妈妮韩国料理菜单,Korean Restaurant,24.611612,118.315675,厦大翔安校区,Fujian,Xiamen,Xiang'an
888,KFC (肯德基),Fast Food Restaurant,24.63788773,118.06947749999999,,Fujian,Xiamen,Tongan
889,McDonald's (麦当劳),Fast Food Restaurant,24.47779968,118.1151642,1/F 1226 Xiahe Rd,Fujian,Xiamen,Huli District
890,海底捞火锅 Hai Di Lao,Hotpot Restaurant,24.47105659,118.1083445,思明区厦禾路888,Fujian,Xiamen,Huli District
891,McDonald's (麦当劳),Fast Food Restaurant,24.44051932,118.0882507,思明区演武路富万邦,Fujian,Xiamen,Huli District
892,香港潮福城大酒楼 Lucky Full City Restaurant,Asian Restaurant,24.48018713,118.07877240000002,思明区湖滨北路,Fujian,Xiamen,Haicang District
893,黄则和花生汤 Huang Zehe Peanut Soup (黄则和花生汤),Chinese Restaurant,24.45607075,118.0710326,22-24 Zhongshan Rd.,Fujian,Xiamen,Jimei
894,Coyote Cafe,Mexican Restaurant,24.47959719,118.07932079999999,58-2 Yuan Dang road,Fujian,Xiamen,Huli District
895,Judy's Café,Café,24.446989000000002,118.066083,龙头路176号,Fujian,Xiamen,Jimei
896,Tutto Benne,Italian Restaurant,24.47755057,118.0789587,,Fujian,Xiamen,Haicang District
897,ECO COFFEE 艾克咖啡,Café,24.47728902,118.16294369999999,,Fujian,Xiamen,Huli District
898,Honer Seafood Rest. 荣誉海鲜酒楼,Seafood Restaurant,24.4730079,118.069649,西堤海湾公园内餐饮中心,Fujian,Xiamen,Jimei
899,正品仙酒楼,Restaurant,24.71165,118.14675,,Fujian,Xiamen,Tongan
900,宝源海鮮酒楼,Chinese Restaurant,36.299847,120.03211499999999,,Shandong,Qingdao,Jiaozhou
901,Ajisen Ramen (味千拉麵),Ramen Restaurant,36.068138899999994,120.4229544,22 Xianggang E Rd,Shandong,Qingdao,Shinan
902,Canteen @Minxing BD,Chinese Restaurant,36.07522776,120.41223500000001,Qingdao Univercity (Inter Programs) Minxing Building,Shandong,Qingdao,Shinan
903,渔码头海鲜舫,Seafood Restaurant,36.06711182,120.3877824,云霄路24号,Shandong,Qingdao,Shinan
904,Burger King (汉堡王),Fast Food Restaurant,36.059495,120.387878,Marina City,Shandong,Qingdao,Shinan
905,McDonald's (麦当劳),Fast Food Restaurant,36.082992,120.349777,市北区台东三路42-46号,Shandong,Qingdao,Sifang
906,小女孩，可爱,Fast Food Restaurant,36.39980936,120.47213970000001,,Shandong,Qingdao,Jimo
907,王姐烧烤 Wangjie BBQ,BBQ Joint,36.06929557,120.3135973,113 Zhongshan Rd.,Shandong,Qingdao,Sifang
908,Korean Restaurant 山大学西城韩国饭店,Korean Restaurant,36.00596395,120.1186146,,Shandong,Qingdao,Jiaonan
909,市南软件园餐厅,Chinese Restaurant,36.07685216,120.41307450000001,,Shandong,Qingdao,Shinan
910,Tommyboy Coffee,Café,36.0696341,120.31346780000001,,Shandong,Qingdao,Shibei
911,半島海鲜,Shandong Restaurant,36.75600086,119.94994059999999,,Shandong,Qingdao,Pingdu
912,Ajisen Ramen (味千拉麵),Ramen Restaurant,35.95469963,120.187844,,Shandong,Qingdao,Jiaonan
913,Ajisen Ramen (味千拉麵),Ramen Restaurant,36.2986779,120.3935682,,Shandong,Qingdao,Chengyang
914,Harris Ranch,Steakhouse,36.435833,120.368403,,Shandong,Qingdao,Jimo
915,上汤一品,Chinese Restaurant,35.952659000000004,120.183182,,Shandong,Qingdao,Jiaonan
916,徐家老甜沫,Chinese Breakfast Place,36.108990999999996,120.356319,No.39 Ninghua Road,Shandong,Qingdao,Sifang
917,乐天玛特美食街,Food Court,36.103382,120.46568899999998,秦岭路18号 乐天玛特内1F,Shandong,Qingdao,Laoshan
918,全聚德,Chinese Restaurant,36.06329341,120.3785445,,Shandong,Qingdao,Laoshan
919,Trattoria Verde,Italian Restaurant,36.06716322,120.39518899999999,漳州路67号甲 步行街 中环广场1F,Shandong,Qingdao,Shinan
920,玉傑河豚会所,Chinese Restaurant,36.28252311,120.01993799999998,,Shandong,Qingdao,Jiaozhou
921,Café Yum,Café,36.06455388,120.3729575,9 Xianggang M. Rd.,Shandong,Qingdao,Shinan
922,一块豆腐,Chinese Restaurant,35.965195,120.17705500000001,山东省青岛市黄岛区开发区,Shandong,Qingdao,Jiaonan
923,CoCo壱番屋,Japanese Curry Restaurant,36.063027000000005,120.393869,香港中路72号,Shandong,Qingdao,Shinan
924,McDonald's (麦当劳),Fast Food Restaurant,36.08983746,120.3483841,长春路,Shandong,Qingdao,Shibei
925,Korean Restaurant 山大学西城韩国饭店,Korean Restaurant,36.00596395,120.1186146,,Shandong,Qingdao,Huangdao
926,깡통집 缸桶屋,BBQ Joint,36.28883708,120.3977666,,Shandong,Qingdao,Chengyang
927,船歌鱼水饺,Dumpling Restaurant,36.05434579,120.2985716,瞿塘峡路39号,Shandong,Qingdao,Sifang
928,Street 33 Restaurant and Cafe,Café,36.06826401,120.3947404,市南区漳州二路远洋广场,Shandong,Qingdao,Laoshan
929,阿兹凯乐西餐厅 Rats Keller western restaurant,German Restaurant,36.06438102,120.32803009999999,青岛巿巿南区龙山路26号南门,Shandong,Qingdao,Laoshan
930,王姐烧烤 Wangjie BBQ,BBQ Joint,36.06929557,120.3135973,113 Zhongshan Rd.,Shandong,Qingdao,Shibei
931,Gimgane,Korean Restaurant,36.289208,120.392255,,Shandong,Qingdao,Chengyang
932,老船夫1927,Chinese Restaurant,36.06947736,120.4369361,,Shandong,Qingdao,Shibei
933,McDonald's (麦当劳),Fast Food Restaurant,36.09594427,120.3828013,市北区辽阳西路100号新业广场一楼,Shandong,Qingdao,Shibei
934,海岛渔村大酒店,Seafood Restaurant,36.06806258,120.3881507,云霄路40号,Shandong,Qingdao,Shibei
935,Lucky Bar,Asian Restaurant,35.97592853,120.25777169999999,,Shandong,Qingdao,Huangdao
936,Tommyboy Coffee,Café,36.0696341,120.31346780000001,,Shandong,Qingdao,Shinan
937,尊華肥牛酒店,Chinese Restaurant,36.262515,120.01371999999999,,Shandong,Qingdao,Jiaozhou
938,船歌鱼水饺(万达广场),Dumpling Restaurant,36.08740955,120.3733169,,Shandong,Qingdao,Shibei
939,McDonald's,Fast Food Restaurant,36.110579,120.409645,,Shandong,Qingdao,Laoshan
940,Ajisen Ramen (味千拉麵),Ramen Restaurant,36.10229549,120.4644957,18 Qinling Rd,Shandong,Qingdao,Laoshan
941,The Diner,Diner,36.06393189999999,120.379154,35 Donghai Road,Shandong,Qingdao,Shinan
942,Chuange Fish Dumplings (船歌鱼水饺),Dumpling Restaurant,36.096103,120.45902099999999,金狮广场L3,Shandong,Qingdao,Shinan
943,Café Yum,Café,36.06455388,120.3729575,9 Xianggang M. Rd.,Shandong,Qingdao,Sifang
944,徳子,BBQ Joint,35.954611,120.19251299999999,,Shandong,Qingdao,Jiaonan
945,SPR COFFEE,Café,36.10092546,120.45335220000001,仙霞岭路一号,Shandong,Qingdao,Shinan
946,柏斯图德国餐饮 Zur Bierstube,German Restaurant,36.07647933,120.31536559999999,馆陶路2号guantao Rd No.2,Shandong,Qingdao,Shibei
947,istanbul (土耳其烤肉),Turkish Restaurant,36.06746598,120.39464109999999,青岛市市南区漳州路69号乙,Shandong,Qingdao,Shinan
948,Dasongyuan,Korean Restaurant,36.072887,120.411804,,Shandong,Qingdao,Shinan
949,凤凤生态美食苑,Chinese Restaurant,36.14835739,120.48357390000001,滨海大道中段,Shandong,Qingdao,Laoshan
950,Blue Harbor Seafood (蓝港海鲜厨房),Seafood Restaurant,36.07249069,120.38732150000001,,Shandong,Qingdao,Sifang
951,yakitoriizakaya yoshimune,Shabu-Shabu Restaurant,35.954786999999996,120.187376,No.289 Wuyishan Road,Shandong,Qingdao,Jiaonan
952,船歌鱼水饺,Dumpling Restaurant,36.07080563,120.3933838,57 Minjiang 2nd Rd | 闽江二路57号,Shandong,Qingdao,Shinan
953,集集青岛,Fast Food Restaurant,36.392168,120.45091399999998,,Shandong,Qingdao,Jimo
954,粥道,Shandong Restaurant,36.113052,120.419156,,Shandong,Qingdao,Laoshan
955,istanbul (土耳其烤肉),Turkish Restaurant,36.06746598,120.39464109999999,青岛市市南区漳州路69号乙,Shandong,Qingdao,Sifang
956,KFC (肯德基),Fast Food Restaurant,35.954005,120.18376299999998,,Shandong,Qingdao,Huangdao
957,银章鱼,Japanese Restaurant,36.112569,120.410848,,Shandong,Qingdao,Laoshan
958,Korean Taste,Korean Restaurant,36.397116,120.49489299999999,,Shandong,Qingdao,Jimo
959,亨伯名家,Asian Restaurant,36.08067187,120.44254529999999,,Shandong,Qingdao,Sifang
960,KFC (肯德基),Fast Food Restaurant,35.954005,120.18376299999998,,Shandong,Qingdao,Jiaonan
961,McDonald's (麦当劳),Fast Food Restaurant,36.06823639,120.423534,E Xianggang Rd,Shandong,Qingdao,Laoshan
962,Bon Appetit,Diner,36.397424,120.429974,,Shandong,Qingdao,Jimo
963,阿兹凯乐西餐厅 Rats Keller western restaurant,German Restaurant,36.06438102,120.32803009999999,青岛巿巿南区龙山路26号南门,Shandong,Qingdao,Sifang
964,Milano Italian restaurant,Italian Restaurant,36.06972319,120.393298,,Shandong,Qingdao,Laoshan
965,Paulaner Bräuhaus (宝莱纳餐厅),German Restaurant,35.922179,120.197677,,Shandong,Qingdao,Jiaonan
966,istanbul (土耳其烤肉),Turkish Restaurant,36.06746598,120.39464109999999,青岛市市南区漳州路69号乙,Shandong,Qingdao,Laoshan
967,Pizza Hut (必胜客),Pizza Place,35.95461266,120.183947,,Shandong,Qingdao,Jiaonan
968,良友大酒店,Asian Restaurant,36.397977000000004,120.48198500000001,,Shandong,Qingdao,Jimo
969,McDonald's (麦当劳),Fast Food Restaurant,36.082992,120.349777,市北区台东三路42-46号,Shandong,Qingdao,Shibei
970,Latest Recipe,Restaurant,36.08721897,120.37297360000001,112 Yanji Road,Shandong,Qingdao,Shibei
971,Chuange Fish Dumplings (船歌鱼水饺),Dumpling Restaurant,36.096103,120.45902099999999,金狮广场L3,Shandong,Qingdao,Shibei
972,老船夫,Seafood Restaurant,36.08657913,120.3728497,,Shandong,Qingdao,Shibei
973,春和楼,Chinese Restaurant,36.07059548,120.313496,ZhongShan Road,Shandong,Qingdao,Shibei
974,Le Mei,Chinese Restaurant,36.08733304,120.3730692,112 Yanji Road,Shandong,Qingdao,Shinan
975,柏斯图 Zur Bierstube (柏斯图德国餐饮),German Restaurant,36.09959537,120.47079540000001,,Shandong,Qingdao,Sifang
976,江宁会馆,Chinese Restaurant,36.0712548,120.3129666,劈柴院,Shandong,Qingdao,Sifang
977,Tommyboy Coffee,Café,36.0696341,120.31346780000001,,Shandong,Qingdao,Sifang
978,Le Mei,Chinese Restaurant,36.08733304,120.3730692,112 Yanji Road,Shandong,Qingdao,Shibei
979,亨伯名家,Asian Restaurant,36.08067187,120.44254529999999,,Shandong,Qingdao,Shinan
980,柏斯图 Zur Bierstube (柏斯图德国餐饮),German Restaurant,36.09959537,120.47079540000001,,Shandong,Qingdao,Shibei
981,Pizza Hut (必胜客),Pizza Place,35.95461266,120.183947,,Shandong,Qingdao,Huangdao
982,包飯天国,Korean Restaurant,35.954845,120.192045,,Shandong,Qingdao,Huangdao
983,Dongbula Muslim Restaurant,Middle Eastern Restaurant,35.966434,120.18516000000001,,Shandong,Qingdao,Huangdao
984,百歩,Ramen Restaurant,35.954638,120.19281699999999,,Shandong,Qingdao,Jiaonan
985,磊鑫 鸭头馆,Chinese Restaurant,36.432809999999996,120.451848,Yanqing Rd,Shandong,Qingdao,Jimo
986,圣馨德大酒店,Shandong Restaurant,36.396713,120.5037,,Shandong,Qingdao,Jimo
987,乔记渔庄Seafood Restaurant,Seafood Restaurant,36.06082634,120.37706570000002,No. 29 Aomen Road,Shandong,Qingdao,Shibei
988,Akebono,Japanese Restaurant,36.08704,120.3729,112 Yanji Road,Shandong,Qingdao,Shibei
989,The Canvas,American Restaurant,36.06755096,120.3946713,Zhangzhou 1st Rd,Shandong,Qingdao,Shinan
990,Trattoria Verde,Italian Restaurant,36.06716322,120.39518899999999,漳州路67号甲 步行街 中环广场1F,Shandong,Qingdao,Sifang
991,KFC (肯德基),Fast Food Restaurant,36.082648,120.385107,,Shandong,Qingdao,Shibei
992,柏斯图德国餐饮 Zur Bierstube,German Restaurant,36.07647933,120.31536559999999,馆陶路2号guantao Rd No.2,Shandong,Qingdao,Sifang
993,鸡公煲,Chinese Restaurant,36.075365000000005,120.412132,,Shandong,Qingdao,Shinan
994,McDonald's (麦当劳),Fast Food Restaurant,36.10012472,120.3488739,温州路,Shandong,Qingdao,Sifang
995,吉宗居酒屋,Japanese Restaurant,35.95403727,120.19114259999999,山东省青岛市开发区武夷山路289号,Shandong,Qingdao,Huangdao
996,船歌鱼水饺,Dumpling Restaurant,36.05434579,120.2985716,瞿塘峡路39号,Shandong,Qingdao,Shinan
997,The Diner 22,Italian Restaurant,36.06739822,120.39499709999998,,Shandong,Qingdao,Shinan
998,The Canvas,American Restaurant,36.06755096,120.3946713,Zhangzhou 1st Rd,Shandong,Qingdao,Sifang
999,KFC (肯德基),Fast Food Restaurant,36.080791,120.387215,大润发一层,Shandong,Qingdao,Shibei
1000,春和楼,Chinese Restaurant,36.07059548,120.313496,ZhongShan Road,Shandong,Qingdao,Sifang
1001,船歌鱼水饺,Dumpling Restaurant,36.07080563,120.3933838,57 Minjiang 2nd Rd | 闽江二路57号,Shandong,Qingdao,Shibei
1002,迎君来大酒店,Chinese Restaurant,36.267441,119.997095,,Shandong,Qingdao,Jiaozhou
1003,吉宗居酒屋,Japanese Restaurant,35.95403727,120.19114259999999,山东省青岛市开发区武夷山路289号,Shandong,Qingdao,Jiaonan
1004,JOT (味),Café,36.288583200000005,120.3940578,"2/F, Holiday Inn Qingdao Parkview",Shandong,Qingdao,Chengyang
1005,一块豆腐,Chinese Restaurant,35.965195,120.17705500000001,山东省青岛市黄岛区开发区,Shandong,Qingdao,Huangdao
1006,Chuange Fish Dumplings (船歌鱼水饺),Dumpling Restaurant,36.096103,120.45902099999999,金狮广场L3,Shandong,Qingdao,Sifang
1007,永和豆浆,Taiwanese Restaurant,36.780006,119.955931,,Shandong,Qingdao,Pingdu
1008,McDonald's,Fast Food Restaurant,35.955366999999995,120.185174,香港中路72号,Shandong,Qingdao,Jiaonan
1009,紫霞门,Korean Restaurant,36.06200492,120.3715888,,Shandong,Qingdao,Shinan
1010,味之道烤吧,BBQ Joint,36.78690325,119.98923710000001,泉州路,Shandong,Qingdao,Pingdu
1011,McDonald's (麦当劳),Fast Food Restaurant,36.08983746,120.3483841,长春路,Shandong,Qingdao,Sifang
1012,Street 33 Restaurant and Cafe,Café,36.06826401,120.3947404,市南区漳州二路远洋广场,Shandong,Qingdao,Shibei
1013,Subway (赛百味),Sandwich Place,36.10936356,120.4424744,880 Tong'an  Thumb Plaza 3F-09,Shandong,Qingdao,Laoshan
1014,Hai Di Lao Hot Pot,Restaurant,36.095467,120.459418,,Shandong,Qingdao,Laoshan
1015,包飯天国,Korean Restaurant,35.954845,120.192045,,Shandong,Qingdao,Jiaonan
1016,KFC (肯德基),Fast Food Restaurant,35.96895745,120.1756547,,Shandong,Qingdao,Jiaonan
1017,Latest Recipe,Restaurant,36.08721897,120.37297360000001,112 Yanji Road,Shandong,Qingdao,Sifang
1018,Milano Italian restaurant,Italian Restaurant,36.06972319,120.393298,,Shandong,Qingdao,Shinan
1019,KFC (肯德基),Fast Food Restaurant,36.2665297,120.3816412,Qingdao Airport Arrival,Shandong,Qingdao,Chengyang
1020,The Diner 22,Italian Restaurant,36.06739822,120.39499709999998,,Shandong,Qingdao,Sifang
1021,怡情楼海鲜巨无霸,Chinese Restaurant,36.08094903,120.3672263,,Shandong,Qingdao,Sifang
1022,徳子,BBQ Joint,35.954611,120.19251299999999,,Shandong,Qingdao,Huangdao
1023,장모님손맛,Korean Restaurant,36.2889413,120.39437859999998,,Shandong,Qingdao,Chengyang
1024,Chuange Fish Dumplings (船歌鱼水饺),Dumpling Restaurant,36.096103,120.45902099999999,金狮广场L3,Shandong,Qingdao,Laoshan
1025,Dongbula Muslim Restaurant,Middle Eastern Restaurant,35.966434,120.18516000000001,,Shandong,Qingdao,Jiaonan
1026,Trattoria Verde,Italian Restaurant,36.06716322,120.39518899999999,漳州路67号甲 步行街 中环广场1F,Shandong,Qingdao,Laoshan
1027,好一家牛肉粉（平度店）,Fast Food Restaurant,36.787456,119.959392,,Shandong,Qingdao,Pingdu
1028,东家韩国烤肉 Korean Barbecue Restaurant,Korean Restaurant,36.106409,120.46271100000001,,Shandong,Qingdao,Laoshan
1029,McDonald's (麦当劳),Fast Food Restaurant,36.06823639,120.423534,E Xianggang Rd,Shandong,Qingdao,Shinan
1030,Pizza Hut (必胜客),Pizza Place,36.08115662,120.35123840000001,,Shandong,Qingdao,Shibei
1031,海派美食,Shandong Restaurant,36.078578,120.371283,,Shandong,Qingdao,Shibei
1032,渔夫花园大酒店,Chinese Restaurant,35.96971187,120.22749170000002,,Shandong,Qingdao,Huangdao
1033,柏斯图 Zur Bierstube (柏斯图德国餐饮),German Restaurant,36.09959537,120.47079540000001,,Shandong,Qingdao,Shinan
1034,川西現子,Szechuan Restaurant,36.107242,120.35924299999999,,Shandong,Qingdao,Sifang
1035,BLACK SUN,Café,36.28951422,120.38868090000001,,Shandong,Qingdao,Chengyang
1036,KFC (肯德基),Fast Food Restaurant,36.10225209,120.46424820000001,18 Qinling Rd,Shandong,Qingdao,Laoshan
1037,江宁会馆,Chinese Restaurant,36.0712548,120.3129666,劈柴院,Shandong,Qingdao,Shibei
1038,일송정,Korean Restaurant,36.73830032,119.9315033,,Shandong,Qingdao,Pingdu
1039,百歩,Ramen Restaurant,35.954638,120.19281699999999,,Shandong,Qingdao,Huangdao
1040,Street 33 Restaurant and Cafe,Café,36.06826401,120.3947404,市南区漳州二路远洋广场,Shandong,Qingdao,Sifang
1041,洁神大饭店,Chinese Restaurant,36.07265511,120.3729057,江西路29号,Shandong,Qingdao,Shibei
1042,Lucky Bar,Asian Restaurant,35.97592853,120.25777169999999,,Shandong,Qingdao,Jiaonan
1043,Le Mei,Chinese Restaurant,36.08733304,120.3730692,112 Yanji Road,Shandong,Qingdao,Sifang
1044,藤家,Japanese Restaurant,36.06711151,120.40197620000001,,Shandong,Qingdao,Shinan
1045,全聚德,Chinese Restaurant,36.06329341,120.3785445,,Shandong,Qingdao,Shinan
1046,Blue Harbor Seafood (蓝港海鲜厨房),Seafood Restaurant,36.07249069,120.38732150000001,,Shandong,Qingdao,Shibei
1047,全聚德,Chinese Restaurant,36.06329341,120.3785445,,Shandong,Qingdao,Shibei
1048,Café Yum,Café,36.06455388,120.3729575,9 Xianggang M. Rd.,Shandong,Qingdao,Shibei
1049,春和楼,Chinese Restaurant,36.07059548,120.313496,ZhongShan Road,Shandong,Qingdao,Shinan
1050,Burger King (汉堡王),Fast Food Restaurant,41.80041061,123.4644172,,Liaoning,Shenyang,Shenhe
1051,老边饺子馆,Chinese Restaurant,41.79901423,123.4545507,308 Middle Street Rd,Liaoning,Shenyang,Shenhe
1052,詹姆士芝士排骨,Korean Restaurant,41.800637,123.46481599999998,,Liaoning,Shenyang,Dadong
1053,李连贵熏肉大饼（沈河店）,Asian Restaurant,41.79813504,123.44772720000002,正阳街88号(近中街路),Liaoning,Shenyang,Dadong
1054,McDonald's (麦当劳),Fast Food Restaurant,41.79906132,123.455522,中街,Liaoning,Shenyang,Shenhe
1055,李连贵熏肉大饼（沈河店）,Asian Restaurant,41.79813504,123.44772720000002,正阳街88号(近中街路),Liaoning,Shenyang,Shenhe
1056,福云龙烤肉,Asian Restaurant,41.82265581,123.4194352,沈阳市第四人民医院东边,Liaoning,Shenyang,Huanggu
1057,老好吃春饼,Dongbei Restaurant,41.792883,123.45388100000001,,Liaoning,Shenyang,Shenhe
1058,McDonald's (麦当劳),Fast Food Restaurant,41.80202194,123.46760259999998,大东区小东路8号大悦城B区地下一层,Liaoning,Shenyang,Dadong
1059,Laobian Jiaozi,Chinese Restaurant,41.633093,123.48428200000001,,Liaoning,Shenyang,Sujiatun
1060,McDonald's (麦当劳),Fast Food Restaurant,41.76371552,123.4211547,"No.84, Sanhao St.",Liaoning,Shenyang,Shenhe
1061,Angel in us Coffee,Café,41.80299974,123.4042791,西塔,Liaoning,Shenyang,Huanggu
1062,Paulaner Bräuhaus (宝莱纳餐厅),German Restaurant,41.78267122,123.4304811,109 Qingnian St,Liaoning,Shenyang,Dadong
1063,韩都烧烤 总店,BBQ Joint,41.80248903,123.447377,,Liaoning,Shenyang,Shenhe
1064,美国加州牛肉面,Noodle House,41.814763,123.576148,,Liaoning,Shenyang,Dongling
1065,Burger King (汉堡王),Fast Food Restaurant,41.80041061,123.4644172,,Liaoning,Shenyang,Dadong
1066,外婆家,Chinese Restaurant,41.80029383,123.46436969999999,大东区小东路10号,Liaoning,Shenyang,Dadong
1067,McDonald's (麦当劳),Fast Food Restaurant,41.79346776,123.4394292,"中国, 辽宁省沈阳沈河区, 市府大路, 沈阳市政府",Liaoning,Shenyang,Dongling
1068,老边饺子馆,Chinese Restaurant,41.79901423,123.4545507,308 Middle Street Rd,Liaoning,Shenyang,Heping
1069,里约风情巴西烤肉,Brazilian Restaurant,41.782987,123.413552,十三纬路70号,Liaoning,Shenyang,Heping
1070,奉天小馆,Dongbei Restaurant,41.810018,123.42643500000001,,Liaoning,Shenyang,Huanggu
1071,Pizza Hut (必胜客),Pizza Place,41.800954,123.33916299999999,,Liaoning,Shenyang,Tiexi
1072,KFC (肯德基),Fast Food Restaurant,41.816732,123.429763,北站二楼,Liaoning,Shenyang,Dongling
1073,McDonald's (麦当劳),Fast Food Restaurant,41.800782,123.46116299999998,沈河区中街路195号,Liaoning,Shenyang,Shenhe
1074,Paulaner Bräuhaus (宝莱纳餐厅),German Restaurant,41.78267122,123.4304811,109 Qingnian St,Liaoning,Shenyang,Huanggu
1075,齐齐哈尔特色煎肉,BBQ Joint,41.823234,123.493325,,Liaoning,Shenyang,Dongling
1076,漫咖啡 / Maan Coffee,Café,41.81029872,123.3765635,,Liaoning,Shenyang,Huanggu
1077,IKEA Restaurant (宜家餐厅),Scandinavian Restaurant,41.80523113,123.3715334,兴华北街 20 号,Liaoning,Shenyang,Huanggu
1078,KFC (肯德基),Fast Food Restaurant,41.79778241,123.44991599999999,沈阳中街,Liaoning,Shenyang,Huanggu
1079,外婆家,Chinese Restaurant,41.80029383,123.46436969999999,大东区小东路10号,Liaoning,Shenyang,Huanggu
1080,面包新语 BreakTalk,Bakery,41.79898784,123.45455849999999,中街路75号,Liaoning,Shenyang,Shenhe
1081,Gourmet Thai,Thai Restaurant,41.78249119,123.4206149,,Liaoning,Shenyang,Huanggu
1082,高寿参鸡汤,Korean Restaurant,41.75640645,123.43049099999999,和平区文安路14号,Liaoning,Shenyang,Heping
1083,高寿参鸡汤,Korean Restaurant,41.75640645,123.43049099999999,和平区文安路14号,Liaoning,Shenyang,Huanggu
1084,雨蒙咖啡,Café,41.632768,123.48363400000001,,Liaoning,Shenyang,Sujiatun
1085,KFC (肯德基),Fast Food Restaurant,41.800246,123.46545900000001,,Liaoning,Shenyang,Shenhe
1086,McDonald's (麦当劳),Fast Food Restaurant,41.69962389,123.43024879999999,文化路52号  ,Liaoning,Shenyang,Sujiatun
1087,漫咖啡 / Maan Coffee,Café,41.81029872,123.3765635,,Liaoning,Shenyang,Dongling
1088,McDonald's (麦当劳),Fast Food Restaurant,41.77921372,123.3549835,兴华南街餐,Liaoning,Shenyang,Tiexi
1089,McDonald's (麦当劳),Fast Food Restaurant,41.79906132,123.455522,中街,Liaoning,Shenyang,Dadong
1090,かもし居酒屋 千秀,Japanese Restaurant,41.78663685,123.39614809999999,,Liaoning,Shenyang,Heping
1091,漫咖啡 / Maan Coffee,Café,41.81029872,123.3765635,,Liaoning,Shenyang,Shenhe
1092,McDonald's (麦当劳),Fast Food Restaurant,41.81527969,123.43095749999999,沈阳北站,Liaoning,Shenyang,Dongling
1093,Burger King (汉堡王),Fast Food Restaurant,41.921726,123.40053600000002,Daoyi South Street,Liaoning,Shenyang,Yuhong
1094,老家肉饼,Chinese Breakfast Place,41.82129669,123.4226608,,Liaoning,Shenyang,Huanggu
1095,McDonald's (麦当劳),Fast Food Restaurant,41.81504989,123.43764070000002,北站一路 39 号,Liaoning,Shenyang,Dongling
1096,KFC (肯德基),Fast Food Restaurant,41.80234551,123.45444199999999,沈河区北站大楼1楼,Liaoning,Shenyang,Huanggu
1097,lotteria 심양점,Fast Food Restaurant,41.803142,123.404321,,Liaoning,Shenyang,Tiexi
1098,IKEA Restaurant (宜家餐厅),Scandinavian Restaurant,41.80523113,123.3715334,兴华北街 20 号,Liaoning,Shenyang,Tiexi
1099,McDonald's (麦当劳),Fast Food Restaurant,41.792021000000005,123.39421999999999,中兴,Liaoning,Shenyang,Huanggu
1100,双福肥牛,Chinese Restaurant,41.7804361,123.482625,江东街33号,Liaoning,Shenyang,Dongling
1101,McDonald's (麦当劳),Fast Food Restaurant,41.81527969,123.43095749999999,沈阳北站,Liaoning,Shenyang,Dadong
1102,장군보쌈,BBQ Joint,41.805253,123.403276,西塔,Liaoning,Shenyang,Huanggu
1103,Gourmet Thai,Thai Restaurant,41.78249119,123.4206149,,Liaoning,Shenyang,Tiexi
1104,Burger King (汉堡王),Fast Food Restaurant,41.80041061,123.4644172,,Liaoning,Shenyang,Heping
1105,Burger King (汉堡王),Fast Food Restaurant,41.80041061,123.4644172,,Liaoning,Shenyang,Dongling
1106,Heidi,Swiss Restaurant,41.80073849,123.3830142,,Liaoning,Shenyang,Tiexi
1107,美国加州牛肉面,Chinese Restaurant,41.82085963,123.41944860000001,,Liaoning,Shenyang,Huanggu
1108,Gourmet Thai,Thai Restaurant,41.78249119,123.4206149,,Liaoning,Shenyang,Shenhe
1109,McDonald's (麦当劳),Fast Food Restaurant,41.8002,123.44653799999999,中街一,Liaoning,Shenyang,Shenhe
1110,Paulaner Bräuhaus (宝莱纳餐厅),German Restaurant,41.78267122,123.4304811,109 Qingnian St,Liaoning,Shenyang,Shenhe
1111,Green Mile (王帅),Pizza Place,41.80168003,123.42227690000001,,Liaoning,Shenyang,Tiexi
1112,McDonald's (麦当劳),Fast Food Restaurant,41.72645184,123.47242240000001,,Liaoning,Shenyang,Heping
1113,原味斋 烤鸭店 (崇山店),Chinese Restaurant,41.797139,123.455316,皇姑区崇山东路46-2号,Liaoning,Shenyang,Shenhe
1114,McDonald's (麦当劳),Fast Food Restaurant,41.76371552,123.4211547,"No.84, Sanhao St.",Liaoning,Shenyang,Heping
1115,Gourmet Thai,Thai Restaurant,41.78249119,123.4206149,,Liaoning,Shenyang,Heping
1116,漫咖啡 / Maan Coffee,Café,41.81029872,123.3765635,,Liaoning,Shenyang,Dadong
1117,Lake view restaurant in Maritim Hotel,Restaurant,41.75013937,123.33644790000001,,Liaoning,Shenyang,Shenhe
1118,亚洲土地 Asia Table,Thai Restaurant,41.77486324,123.42836080000001,,Liaoning,Shenyang,Heping
1119,Dunkin Donuts,Donut Shop,41.82755787,123.4061457,,Liaoning,Shenyang,Huanggu
1120,雨露崔记饺子,Dongbei Restaurant,41.79666519,123.28905490000001,,Liaoning,Shenyang,Yuhong
1121,Green Mile (王帅),Pizza Place,41.80168003,123.42227690000001,,Liaoning,Shenyang,Heping
1122,漫咖啡 / Maan Coffee,Café,41.81029872,123.3765635,,Liaoning,Shenyang,Tiexi
1123,文府拉面小笼包,Chinese Restaurant,41.76103271,123.4310746,和平区文体路7号,Liaoning,Shenyang,Huanggu
1124,Burger King (汉堡王),Fast Food Restaurant,41.8021267,123.45907690000001,大东区津桥路3号,Liaoning,Shenyang,Dadong
1125,Green Mile (王帅),Pizza Place,41.80168003,123.42227690000001,,Liaoning,Shenyang,Dongling
1126,Lake view restaurant in Maritim Hotel,Restaurant,41.75013937,123.33644790000001,,Liaoning,Shenyang,Huanggu
1127,好利来,Bakery,41.79022484,123.45362659999998,南顺城路65号,Liaoning,Shenyang,Shenhe
1128,KFC (肯德基),Fast Food Restaurant,41.800246,123.46545900000001,,Liaoning,Shenyang,Dongling
1129,KFC (肯德基),Fast Food Restaurant,41.800246,123.46545900000001,,Liaoning,Shenyang,Dadong
1130,McDonald's (麦当劳),Fast Food Restaurant,41.76371552,123.4211547,"No.84, Sanhao St.",Liaoning,Shenyang,Dongling
1131,McDonald's (麦当劳),Fast Food Restaurant,41.81504989,123.43764070000002,北站一路 39 号,Liaoning,Shenyang,Huanggu
1132,Pizza Hut (必胜客),Pizza Place,41.81494593,123.4380054,北站家乐福,Liaoning,Shenyang,Huanggu
1133,福云龙烤肉,Asian Restaurant,41.82265581,123.4194352,沈阳市第四人民医院东边,Liaoning,Shenyang,Dongling
1134,Peter's,Mexican Restaurant,41.82032,123.42351200000002,,Liaoning,Shenyang,Huanggu
1135,Green Mile (王帅),Pizza Place,41.80168003,123.42227690000001,,Liaoning,Shenyang,Dadong
1136,蜀九香 Shi Jiu Xiang Hot Pot,Hotpot Restaurant,41.786504,123.37555,,Liaoning,Shenyang,Tiexi
1137,Nana's Green Tea,Café,41.630936,123.485336,,Liaoning,Shenyang,Sujiatun
1138,爱工尚老鸭粉丝,Chinese Restaurant,41.799225,123.45196000000001,,Liaoning,Shenyang,Shenhe
1139,McDonald's (麦当劳),Fast Food Restaurant,41.78828897,123.41058249999999,和平区马路湾,Liaoning,Shenyang,Heping
1140,老边饺子馆,Chinese Restaurant,41.79901423,123.4545507,308 Middle Street Rd,Liaoning,Shenyang,Tiexi
1141,福云龙烤肉,Asian Restaurant,41.82265581,123.4194352,沈阳市第四人民医院东边,Liaoning,Shenyang,Tiexi
1142,Mei Jin Hot Pot,Chinese Restaurant,41.79473805,123.39869640000002,,Liaoning,Shenyang,Huanggu
1143,Burger King (汉堡王),Fast Food Restaurant,41.8021267,123.45907690000001,大东区津桥路3号,Liaoning,Shenyang,Dongling
1144,胜景蚝友汇鲜蚝烹味馆,Seafood Restaurant,41.79380278,123.37345520000001,铁西区云峰街北四路 （地铁口对面）,Liaoning,Shenyang,Tiexi
1145,将太无二,Japanese Restaurant,41.80041202,123.4643767,小东路6-1号大悦城C馆508-509,Liaoning,Shenyang,Dadong
1146,彤德来火锅 | Tongdelai Hot Pot,Chinese Restaurant,41.81022162,123.50401370000002,,Liaoning,Shenyang,Dongling
1147,KFC (肯德基),Fast Food Restaurant,41.79119792,123.3952576,和平区三好街75号,Liaoning,Shenyang,Huanggu
1148,McDonald's (麦当劳),Fast Food Restaurant,41.800782,123.46116299999998,沈河区中街路195号,Liaoning,Shenyang,Dongling
1149,McDonald's (麦当劳),Fast Food Restaurant,41.72645184,123.47242240000001,,Liaoning,Shenyang,Huanggu
1150,永和大王 桃仙机场店,Dim Sum Restaurant,41.631551,123.48775,,Liaoning,Shenyang,Sujiatun
1151,江源道烤肉大王,Korean Restaurant,41.831108,123.445125,陵园街2号,Liaoning,Shenyang,Dongling
1152,Lake view restaurant in Maritim Hotel,Restaurant,41.75013937,123.33644790000001,,Liaoning,Shenyang,Tiexi
1153,McDonald's (麦当劳),Fast Food Restaurant,41.74452479999999,123.5012844,wenhui street,Liaoning,Shenyang,Dongling
1154,Green Mile (王帅),Pizza Place,41.80168003,123.42227690000001,,Liaoning,Shenyang,Huanggu
1155,原味斋 烤鸭店 (崇山店),Chinese Restaurant,41.797139,123.455316,皇姑区崇山东路46-2号,Liaoning,Shenyang,Dadong
1156,滇草香,Asian Restaurant,41.820278,123.42348,,Liaoning,Shenyang,Huanggu
1157,McDonald's (麦当劳),Fast Food Restaurant,41.72645184,123.47242240000001,,Liaoning,Shenyang,Tiexi
1158,McDonald's (麦当劳),Fast Food Restaurant,41.79825182,123.3451993,,Liaoning,Shenyang,Tiexi
1159,KFC (肯德基),Fast Food Restaurant,41.80234551,123.45444199999999,沈河区北站大楼1楼,Liaoning,Shenyang,Dadong
1160,McDonald's (麦当劳),Fast Food Restaurant,41.81527969,123.43095749999999,沈阳北站,Liaoning,Shenyang,Heping
1161,KFC (肯德基),Fast Food Restaurant,41.79830028,123.40900320000001,南京北街206号,Liaoning,Shenyang,Huanggu
1162,通荣阁,Chinese Restaurant,42.112916999999996,123.626391,,Liaoning,Shenyang,Shenbei
1163,Paulaner Bräuhaus (宝莱纳餐厅),German Restaurant,41.78267122,123.4304811,109 Qingnian St,Liaoning,Shenyang,Heping
1164,McDonald's (麦当劳),Fast Food Restaurant,41.79300867,123.3964345,,Liaoning,Shenyang,Huanggu
1165,绿廊一号俱乐部,BBQ Joint,41.764163,123.50688400000001,,Liaoning,Shenyang,Dongling
1166,外婆家,Chinese Restaurant,41.80029383,123.46436969999999,大东区小东路10号,Liaoning,Shenyang,Tiexi
1167,KFC (肯德基),Fast Food Restaurant,41.76848152,123.44781869999998,文化路家乐福1楼(近千伊拉面)  ,Liaoning,Shenyang,Dongling
1168,KFC (肯德基),Fast Food Restaurant,41.631271999999996,123.48751399999999,,Liaoning,Shenyang,Sujiatun
1169,老边饺子馆,Chinese Restaurant,41.79901423,123.4545507,308 Middle Street Rd,Liaoning,Shenyang,Dongling
1170,Europaer,Italian Restaurant,41.792646000000005,123.39598899999999,,Liaoning,Shenyang,Huanggu
1171,McDonald's (麦当劳),Fast Food Restaurant,41.76371552,123.4211547,"No.84, Sanhao St.",Liaoning,Shenyang,Huanggu
1172,Subway (赛百味),Sandwich Place,41.789209,123.39636200000001,Tai Yuan St,Liaoning,Shenyang,Heping
1173,老边饺子馆,Chinese Restaurant,41.79901423,123.4545507,308 Middle Street Rd,Liaoning,Shenyang,Huanggu
1174,KFC (肯德基),Fast Food Restaurant,41.79778241,123.44991599999999,沈阳中街,Liaoning,Shenyang,Shenhe
1175,Burger King (汉堡王),Fast Food Restaurant,41.80041061,123.4644172,,Liaoning,Shenyang,Tiexi
1176,福云龙烤肉,Asian Restaurant,41.82265581,123.4194352,沈阳市第四人民医院东边,Liaoning,Shenyang,Shenhe
1177,爱工尚老鸭粉丝,Chinese Restaurant,41.799225,123.45196000000001,,Liaoning,Shenyang,Dadong
1178,IKEA Restaurant (宜家餐厅),Scandinavian Restaurant,41.80523113,123.3715334,兴华北街 20 号,Liaoning,Shenyang,Dongling
1179,McDonald's (麦当劳),Fast Food Restaurant,41.81527969,123.43095749999999,沈阳北站,Liaoning,Shenyang,Shenhe
1180,清真美食街,Halal Restaurant,41.80142419,123.43514009999998,,Liaoning,Shenyang,Shenhe
1181,McDonald's (麦当劳),Fast Food Restaurant,41.80011122,123.35530759999999,铁西区,Liaoning,Shenyang,Tiexi
1182,IKEA Restaurant (宜家餐厅),Scandinavian Restaurant,41.80523113,123.3715334,兴华北街 20 号,Liaoning,Shenyang,Shenhe
1183,文府拉面小笼包,Chinese Restaurant,41.76103271,123.4310746,和平区文体路7号,Liaoning,Shenyang,Heping
1184,KFC (肯德基),Fast Food Restaurant,41.78646746,123.360433,铁西新玛特店,Liaoning,Shenyang,Tiexi
1185,Paulaner Bräuhaus (宝莱纳餐厅),German Restaurant,41.78267122,123.4304811,109 Qingnian St,Liaoning,Shenyang,Tiexi
1186,鹿鸣春,Chinese Restaurant,41.78622342,123.41079099999999,和平区十一纬路40号,Liaoning,Shenyang,Heping
1187,McDonald's (麦当劳),Fast Food Restaurant,41.76371552,123.4211547,"No.84, Sanhao St.",Liaoning,Shenyang,Dadong
1188,食里香,Chinese Restaurant,41.78792234,123.40924779999999,,Liaoning,Shenyang,Heping
1189,McDonald's (麦当劳),Fast Food Restaurant,41.81527969,123.43095749999999,沈阳北站,Liaoning,Shenyang,Huanggu
1190,兰州正宗牛肉拉面,Noodle House,41.82014847,123.42012790000001,,Liaoning,Shenyang,Huanggu
1191,Green Mile (王帅),Pizza Place,41.80168003,123.42227690000001,,Liaoning,Shenyang,Shenhe
1192,外婆家,Chinese Restaurant,41.80029383,123.46436969999999,大东区小东路10号,Liaoning,Shenyang,Heping
1193,Gourmet Thai,Thai Restaurant,41.78249119,123.4206149,,Liaoning,Shenyang,Dongling
1194,McDonald's (麦当劳),Fast Food Restaurant,41.8002,123.44653799999999,中街一,Liaoning,Shenyang,Dadong
1195,Thai Food,Restaurant,41.785268,123.418324,,Liaoning,Shenyang,Heping
1196,KFC (肯德基),Fast Food Restaurant,41.80234551,123.45444199999999,沈河区北站大楼1楼,Liaoning,Shenyang,Dongling
1197,McDonald's (麦当劳),Fast Food Restaurant,41.7449739,123.5170284,建大,Liaoning,Shenyang,Dongling
1198,Burger King (汉堡王),Fast Food Restaurant,41.806028000000005,123.36993400000001,铁西区北二中路6号,Liaoning,Shenyang,Tiexi
1199,KFC (肯德基),Fast Food Restaurant,41.816732,123.429763,北站二楼,Liaoning,Shenyang,Huanggu
1200,Bitburger (碧特博格啤酒屋),German Restaurant,31.85177231,117.2712097,芜湖路258-6号,Anhui,Hefei,Yaohai
1201,Pizza Hut (必胜客),Pizza Place,31.866497,117.289024,淮河路77号逍遥广场北楼1楼,Anhui,Hefei,Baohe
1202,Burger King (汉堡王),Fast Food Restaurant,31.878778000000004,117.255384,长丰路66号欢乐颂一楼108商铺,Anhui,Hefei,Luyang
1203,檬小奇,Snack Place,31.771856,117.173851,,Anhui,Hefei,Feixi
1204,同庆楼花园酒店,Chinese Restaurant,31.81858089,117.22383570000001,合作化南路与东流路交叉口,Anhui,Hefei,Luyang
1205,张正麻辣串,Fast Food Restaurant,32.4798474,117.1638851,芜湖路万达广场室外步行街2-240,Anhui,Hefei,Changfeng
1206,三河酒家,Chinese Restaurant,31.778633000000003,117.220386,宿松路,Anhui,Hefei,Baohe
1207,McDonald's (麦当劳),Fast Food Restaurant,31.88703047,117.30969479999999,火车站出站口西侧铁道大酒店1层,Anhui,Hefei,Yaohai
1208,超港烘焙 | Super Bakery,Bakery,31.881058000000003,117.265504,濉溪路254号,Anhui,Hefei,Shushan
1209,KFC (肯德基),Fast Food Restaurant,31.88612394,117.31159029999999,Hefei Train Station | 合肥站,Anhui,Hefei,Feidong
1210,McDonald's (麦当劳),Fast Food Restaurant,31.86387496,117.2753645,长江中路293号,Anhui,Hefei,Yaohai
1211,罍街 Lei Jie,Food Court,31.8229037,117.2877696,宁国南路,Anhui,Hefei,Baohe
1212,庐州太太,Chinese Restaurant,31.81560127,117.2829649,宿州路鼓楼商厦南侧,Anhui,Hefei,Yaohai
1213,Fabio's Pizzeria & Bar,Pizza Place,31.838585,117.267044,,Anhui,Hefei,Baohe
1214,McDonald's (麦当劳),Fast Food Restaurant,31.803327000000003,117.263324,汽车南站站内,Anhui,Hefei,Shushan
1215,McDonald's (麦当劳),Fast Food Restaurant,31.86387496,117.2753645,长江中路293号,Anhui,Hefei,Shushan
1216,KFC (肯德基),Fast Food Restaurant,31.86308872,117.2706413,长江中路335号汇通商厦1层,Anhui,Hefei,Luyang
1217,小学咖啡,Café,31.832694,117.297622,马鞍山路绿地赢海B座6楼,Anhui,Hefei,Luyang
1218,Shuwang Hotpot (蜀王火锅),Hotpot Restaurant,31.857313,117.25528100000001,梅山路153号,Anhui,Hefei,Shushan
1219,McDonald's (麦当劳),Fast Food Restaurant,31.86525738,117.2821426,徽州大道618号乐普生商厦2层,Anhui,Hefei,Yaohai
1220,春芹面馆,Noodle House,31.894195,117.26728200000001,茨河路,Anhui,Hefei,Yaohai
1221,McDonald's (麦当劳),Fast Food Restaurant,31.80971265,117.2264814,潜山路新地购物中心1层,Anhui,Hefei,Feixi
1222,Burger King (汉堡王),Fast Food Restaurant,31.881619,117.315044,信地广场二期信地步行街D栋D1-1、D2-1号,Anhui,Hefei,Shushan
1223,McDonald's (麦当劳),Fast Food Restaurant,31.84676331,117.2656741,金寨路136号曙光商厦一楼,Anhui,Hefei,Shushan
1224,Burger King (汉堡王),Fast Food Restaurant,31.85716849,117.2520098,长江西路189号之心城负一楼,Anhui,Hefei,Shushan
1225,老乡鸡,Anhui Restaurant,31.93599333,117.3723936,,Anhui,Hefei,Feidong
1226,庐州太太,Chinese Restaurant,31.81560127,117.2829649,宿州路鼓楼商厦南侧,Anhui,Hefei,Luyang
1227,Habitat Coffee (栖巢咖啡),Café,31.86262581,117.26645479999999,长江中路369号百大CBD2号楼,Anhui,Hefei,Yaohai
1228,晋家门,Shaanxi Restaurant,31.82276785,117.21633200000001,南二环路3818号天鹅湖万达广场室内步行街3楼,Anhui,Hefei,Luyang
1229,McDonald's (麦当劳),Fast Food Restaurant,31.84676331,117.2656741,金寨路136号曙光商厦一楼,Anhui,Hefei,Luyang
1230,耿福兴,Anhui Restaurant,31.870703999999996,117.27271699999999,,Anhui,Hefei,Luyang
1231,燕子食府,Comfort Food Restaurant,31.770234999999996,117.23103,莲花路,Anhui,Hefei,Feixi
1232,漫咖啡 maan coffee,Café,31.85320854,117.2636303,,Anhui,Hefei,Shushan
1233,Habitat Coffee (栖巢咖啡),Café,31.86262581,117.26645479999999,长江中路369号百大CBD2号楼,Anhui,Hefei,Baohe
1234,McDonald's (麦当劳),Fast Food Restaurant,31.803327000000003,117.263324,汽车南站站内,Anhui,Hefei,Baohe
1235,静水鱼庄,Chinese Restaurant,31.85884073,117.15864099999999,,Anhui,Hefei,Luyang
1236,罍街 Lei Jie,Food Court,31.8229037,117.2877696,宁国南路,Anhui,Hefei,Luyang
1237,喜年来,Chinese Restaurant,31.85979918,117.2761774,金寨路长江中路交叉口,Anhui,Hefei,Luyang
1238,檬小奇,Snack Place,31.771856,117.173851,,Anhui,Hefei,Luyang
1239,风波庄 Fengbo Manor,Asian Restaurant,31.853388,117.2548,,Anhui,Hefei,Shushan
1240,Burger King (汉堡王),Fast Food Restaurant,31.840194,117.11196299999999,,Anhui,Hefei,Luyang
1241,晚香亭,Chinese Restaurant,31.85531254,117.272873,庐阳区环城南路 (老安徽日报社对面),Anhui,Hefei,Luyang
1242,McDonald's (麦当劳),Fast Food Restaurant,31.80971265,117.2264814,潜山路新地购物中心1层,Anhui,Hefei,Luyang
1243,Mango Thai,Thai Restaurant,31.85972668,117.2974475,,Anhui,Hefei,Yaohai
1244,海底捞火锅 Hai Di Lao,Hotpot Restaurant,31.85614047,117.25185520000001,长江西路189号之心城5层,Anhui,Hefei,Shushan
1245,Pizza Hut (必胜客),Pizza Place,31.87710448,117.30220590000002,瑶海区胜利路88号元一广场北楼一层,Anhui,Hefei,Yaohai
1246,Ajisen Ramen (味千拉面),Ramen Restaurant,31.85980829,117.29748490000001,马鞍山路130号万达广场1-05号,Anhui,Hefei,Yaohai
1247,McDonald's (麦当劳),Fast Food Restaurant,31.88552005,117.30853559999998,站前路九龙珠儿童城1层,Anhui,Hefei,Shushan
1248,Cheese Club,Italian Restaurant,31.85839292,117.29741299999999,万达广场,Anhui,Hefei,Baohe
1249,KFC (肯德基),Fast Food Restaurant,31.801405,117.28458799999999,,Anhui,Hefei,Shushan
1250,Shuwang Hotpot (蜀王火锅),Hotpot Restaurant,31.857313,117.25528100000001,梅山路153号,Anhui,Hefei,Yaohai
1251,罍街 Lei Jie,Food Court,31.8229037,117.2877696,宁国南路,Anhui,Hefei,Shushan
1252,大娘水饺,Fast Food Restaurant,31.80102122,117.28464109999999,Hefei South Station,Anhui,Hefei,Baohe
1253,老张烧烤,BBQ Joint,31.86185139,117.2588274,农大东门,Anhui,Hefei,Shushan
1254,罍街 Lei Jie,Food Court,31.8229037,117.2877696,宁国南路,Anhui,Hefei,Yaohai
1255,三河酒家,Chinese Restaurant,31.778633000000003,117.220386,宿松路,Anhui,Hefei,Feixi
1256,Ensun,Asian Restaurant,31.777176,117.221207,,Anhui,Hefei,Yaohai
1257,外婆家 Grandma’s,Zhejiang Restaurant,31.85638801,117.25257859999998,之心城六楼,Anhui,Hefei,Luyang
1258,同庆楼,Chinese Restaurant,31.87340307,117.27368829999999,阜南路与蒙城路路口东北侧,Anhui,Hefei,Luyang
1259,Pizza Hut (必胜客),Pizza Place,31.866497,117.289024,淮河路77号逍遥广场北楼1楼,Anhui,Hefei,Luyang
1260,春芹面馆,Noodle House,31.894195,117.26728200000001,茨河路,Anhui,Hefei,Luyang
1261,新津口火锅,Hotpot Restaurant,31.878758,117.25580500000001,,Anhui,Hefei,Luyang
1262,McDonald's (麦当劳),Fast Food Restaurant,31.86387496,117.2753645,长江中路293号,Anhui,Hefei,Baohe
1263,Habitat Coffee (栖巢咖啡),Café,31.86262581,117.26645479999999,长江中路369号百大CBD2号楼,Anhui,Hefei,Luyang
1264,化de了,Anhui Restaurant,31.849448,117.22934099999999,,Anhui,Hefei,Yaohai
1265,老报馆1952,Chinese Restaurant,31.85595818,117.27175929999999,金寨路206号,Anhui,Hefei,Shushan
1266,漫咖啡 maan coffee,Café,31.85320854,117.2636303,,Anhui,Hefei,Baohe
1267,奇火锅,Chinese Restaurant,31.85586586,117.25857820000002,长江西路三里庵旺城大厦4楼,Anhui,Hefei,Shushan
1268,McDonald's (麦当劳),Fast Food Restaurant,31.86525738,117.2821426,徽州大道618号乐普生商厦2层,Anhui,Hefei,Luyang
1269,McDonald's (麦当劳),Fast Food Restaurant,31.85960403,117.29744170000001,包河区万达广场一楼,Anhui,Hefei,Yaohai
1270,Ensun,Asian Restaurant,31.777176,117.221207,,Anhui,Hefei,Shushan
1271,McDonald's (麦当劳),Fast Food Restaurant,31.86525738,117.2821426,徽州大道618号乐普生商厦2层,Anhui,Hefei,Baohe
1272,詹记宫廷桃酥(长江西路店),Bakery,31.8550844,117.25666100000001,长江西路国购广场对面,Anhui,Hefei,Shushan
1273,丽雅茶楼,Chinese Restaurant,31.829275,117.30719199999999,,Anhui,Hefei,Shushan
1274,KFC (肯德基),Fast Food Restaurant,31.88612394,117.31159029999999,Hefei Train Station | 合肥站,Anhui,Hefei,Yaohai
1275,大脸鸡排,Fried Chicken Joint,31.880754,117.255587,,Anhui,Hefei,Luyang
1276,金满楼北方酒楼,Chinese Restaurant,31.880976,117.26159799999999,界首路与濉溪路路口,Anhui,Hefei,Luyang
1277,超港烘焙 | Super Bakery,Bakery,31.881058000000003,117.265504,濉溪路254号,Anhui,Hefei,Luyang
1278,Cheese Club,Italian Restaurant,31.85839292,117.29741299999999,万达广场,Anhui,Hefei,Luyang
1279,大禧牛潮汕火锅,Hotpot Restaurant,31.881353999999998,117.241409,,Anhui,Hefei,Luyang
1280,海底捞火锅 Hai Di Lao,Hotpot Restaurant,31.85614047,117.25185520000001,长江西路189号之心城5层,Anhui,Hefei,Yaohai
1281,Charmant Hefei,Chinese Restaurant,31.77795578,117.2230778,Fanhua Avenue,Anhui,Hefei,Feixi
1282,Pizza Hut (必胜客),Pizza Place,31.866497,117.289024,淮河路77号逍遥广场北楼1楼,Anhui,Hefei,Shushan
1283,同庆楼花园酒店,Chinese Restaurant,31.81858089,117.22383570000001,合作化南路与东流路交叉口,Anhui,Hefei,Shushan
1284,淮南第一家牛肉汤,Chinese Restaurant,32.47988035,117.16482140000002,,Anhui,Hefei,Changfeng
1285,同庆楼,Chinese Restaurant,31.85871479,117.29636909999999,马鞍山路130号万达广场5楼,Anhui,Hefei,Luyang
1286,老六龙虾,Chinese Restaurant,31.87229617,117.25926709999999,庐阳区琥珀山庄,Anhui,Hefei,Luyang
1287,KFC (肯德基),Fast Food Restaurant,31.801405,117.28458799999999,,Anhui,Hefei,Yaohai
1288,老六龙虾,Chinese Restaurant,31.87229617,117.25926709999999,庐阳区琥珀山庄,Anhui,Hefei,Baohe
1289,檬小奇,Snack Place,31.771856,117.173851,,Anhui,Hefei,Baohe
1290,红番茄西餐吧 Miss Tomato Cafe,American Restaurant,31.83886196,117.2964946,马鞍山路与太湖路交口北300米金地国际城2号公寓,Anhui,Hefei,Luyang
1291,McDonald's (麦当劳),Fast Food Restaurant,31.80971265,117.2264814,潜山路新地购物中心1层,Anhui,Hefei,Shushan
1292,Habitat Coffee (栖巢咖啡),Café,31.86262581,117.26645479999999,长江中路369号百大CBD2号楼,Anhui,Hefei,Shushan
1293,海底捞火锅,Hotpot Restaurant,31.864815999999998,117.28650900000001,银泰中心八楼,Anhui,Hefei,Yaohai
1294,同庆楼,Chinese Restaurant,31.85871479,117.29636909999999,马鞍山路130号万达广场5楼,Anhui,Hefei,Baohe
1295,Ensun,Asian Restaurant,31.777176,117.221207,,Anhui,Hefei,Baohe
1296,同庆楼花园酒店,Chinese Restaurant,31.81858089,117.22383570000001,合作化南路与东流路交叉口,Anhui,Hefei,Feixi
1297,Cheese Club,Italian Restaurant,31.85839292,117.29741299999999,万达广场,Anhui,Hefei,Shushan
1298,周贵妃凉皮,Fast Food Restaurant,31.881932,117.27411200000002,新天地北侧一层,Anhui,Hefei,Luyang
1299,McDonald's (麦当劳),Fast Food Restaurant,31.803327000000003,117.263324,汽车南站站内,Anhui,Hefei,Feixi
1300,丽雅茶楼,Chinese Restaurant,31.829275,117.30719199999999,,Anhui,Hefei,Baohe
1301,McDonald's (麦当劳),Fast Food Restaurant,31.88552005,117.30853559999998,站前路九龙珠儿童城1层,Anhui,Hefei,Luyang
1302,老六龙虾,Chinese Restaurant,31.87229617,117.25926709999999,庐阳区琥珀山庄,Anhui,Hefei,Yaohai
1303,同庆楼,Chinese Restaurant,31.85871479,117.29636909999999,马鞍山路130号万达广场5楼,Anhui,Hefei,Shushan
1304,Burger King (汉堡王),Fast Food Restaurant,31.85716849,117.2520098,长江西路189号之心城负一楼,Anhui,Hefei,Baohe
1305,春芹面馆,Noodle House,31.894195,117.26728200000001,茨河路,Anhui,Hefei,Shushan
1306,蜀王火锅 | Shuwang Hotpot,Hotpot Restaurant,31.88246818,117.28189590000001,阜阳北路301号,Anhui,Hefei,Luyang
1307,汉拿山韩式烤肉,Korean Restaurant,31.85894084,117.29724660000001,马鞍山路万达广场三楼,Anhui,Hefei,Yaohai
1308,老乡鸡 | Home Original Chicken,Chinese Restaurant,31.74667229,117.2836997,滨湖世纪城金源购物中心,Anhui,Hefei,Baohe
1309,燕子食府,Comfort Food Restaurant,31.770234999999996,117.23103,莲花路,Anhui,Hefei,Baohe
1310,U.B.C. Coffee (上岛咖啡),Café,31.79774052,117.25160829999999,长江西路189号之心城3楼,Anhui,Hefei,Baohe
1311,McDonald's (麦当劳),Fast Food Restaurant,31.80100863,117.2853587,合肥南站二楼,Anhui,Hefei,Yaohai
1312,Shuwang Hotpot (蜀王火锅),Hotpot Restaurant,31.857313,117.25528100000001,梅山路153号,Anhui,Hefei,Baohe
1313,双墩米线,Snack Place,32.01163918,117.25059209999999,,Anhui,Hefei,Luyang
1314,First Cup,Café,31.77833031,117.20227870000001,合肥工业大学翡翠湖校区大北门,Anhui,Hefei,Shushan
1315,McDonald's (麦当劳),Fast Food Restaurant,31.88703047,117.30969479999999,火车站出站口西侧铁道大酒店1层,Anhui,Hefei,Luyang
1316,McDonald's (麦当劳),Fast Food Restaurant,31.84676331,117.2656741,金寨路136号曙光商厦一楼,Anhui,Hefei,Yaohai
1317,Shuwang Hotpot (蜀王火锅),Hotpot Restaurant,31.857313,117.25528100000001,梅山路153号,Anhui,Hefei,Luyang
1318,表叔茶餐厅,Hong Kong Restaurant,31.706172,117.29860500000001,万达茂三层,Anhui,Hefei,Baohe
1319,McDonald's (麦当劳),Fast Food Restaurant,31.86525738,117.2821426,徽州大道618号乐普生商厦2层,Anhui,Hefei,Shushan
1320,Burger King (汉堡王),Fast Food Restaurant,31.881619,117.315044,信地广场二期信地步行街D栋D1-1、D2-1号,Anhui,Hefei,Luyang
1321,Cheese Club,Italian Restaurant,31.85839292,117.29741299999999,万达广场,Anhui,Hefei,Yaohai
1322,McDonald's (麦当劳),Fast Food Restaurant,31.86387496,117.2753645,长江中路293号,Anhui,Hefei,Luyang
1323,老张烧烤,BBQ Joint,31.86185139,117.2588274,农大东门,Anhui,Hefei,Luyang
1324,彩蝶轩 Caidie Bakery,Bakery,31.86766052,117.29071809999999,逍遥津站,Anhui,Hefei,Yaohai
1325,檬小奇,Snack Place,31.771856,117.173851,,Anhui,Hefei,Shushan
1326,McDonald's (麦当劳),Fast Food Restaurant,31.803327000000003,117.263324,汽车南站站内,Anhui,Hefei,Yaohai
1327,Bitburger (碧特博格啤酒屋),German Restaurant,31.85177231,117.2712097,芜湖路258-6号,Anhui,Hefei,Shushan
1328,KFC (肯德基),Fast Food Restaurant,31.88612394,117.31159029999999,Hefei Train Station | 合肥站,Anhui,Hefei,Luyang
1329,如一坊豆捞,Chinese Restaurant,31.858998,117.303735,铜陵南路,Anhui,Hefei,Yaohai
1330,海底捞火锅 Hai Di Lao,Hotpot Restaurant,31.85614047,117.25185520000001,长江西路189号之心城5层,Anhui,Hefei,Luyang
1331,海底捞火锅 Hai Di Lao,Hotpot Restaurant,31.85614047,117.25185520000001,长江西路189号之心城5层,Anhui,Hefei,Baohe
1332,老六龙虾,Chinese Restaurant,31.87229617,117.25926709999999,庐阳区琥珀山庄,Anhui,Hefei,Shushan
1333,Burger King (汉堡王),Fast Food Restaurant,31.840194,117.11196299999999,,Anhui,Hefei,Shushan
1334,KFC (肯德基),Fast Food Restaurant,31.88612394,117.31159029999999,Hefei Train Station | 合肥站,Anhui,Hefei,Baohe
1335,老张烧烤,BBQ Joint,31.86185139,117.2588274,农大东门,Anhui,Hefei,Yaohai
1336,scirocco all day dining,Buffet,31.862697999999998,117.303426,,Anhui,Hefei,Yaohai
1337,良食咖啡,Café,31.84965243,117.25035120000001,龙河路安徽大学老校区北门入口内右手边第四间小院,Anhui,Hefei,Luyang
1338,Burger King (汉堡王),Fast Food Restaurant,31.85716849,117.2520098,长江西路189号之心城负一楼,Anhui,Hefei,Yaohai
1339,McDonald's (麦当劳),Fast Food Restaurant,31.803327000000003,117.263324,汽车南站站内,Anhui,Hefei,Luyang
1340,农家百味阁,Anhui Restaurant,31.714267,117.240017,,Anhui,Hefei,Feixi
1341,McDonald's (麦当劳),Fast Food Restaurant,31.88703047,117.30969479999999,火车站出站口西侧铁道大酒店1层,Anhui,Hefei,Shushan
1342,麦当劳,Fast Food Restaurant,31.93446369,117.3839378,学府路,Anhui,Hefei,Feidong
1343,漫咖啡 maan coffee,Café,31.85320854,117.2636303,,Anhui,Hefei,Luyang
1344,漫咖啡 maan coffee,Café,31.85320854,117.2636303,,Anhui,Hefei,Yaohai
1345,Burger King (汉堡王),Fast Food Restaurant,31.881619,117.315044,信地广场二期信地步行街D栋D1-1、D2-1号,Anhui,Hefei,Yaohai
1346,娃哈哈大酒店,Chinese Restaurant,31.745031,117.277047,福州路与玉龙路交叉口东南角,Anhui,Hefei,Baohe
1347,咱姥家大锅台(包河万达公馆店),Anhui Restaurant,31.859937,117.30346399999999,,Anhui,Hefei,Yaohai
1348,燕子食府,Comfort Food Restaurant,31.770234999999996,117.23103,莲花路,Anhui,Hefei,Shushan
1349,金天地美食城,Food Court,31.79685487,117.313978,纬二路,Anhui,Hefei,Baohe
1350,万宝海鮮舫,Seafood Restaurant,38.91299773,121.6335253,解放路108号,Liaoning,Dalian,Xigang
1351,南風,Japanese Restaurant,38.92345749,121.6468453,,Liaoning,Dalian,Shahekou
1352,McDonald's (麦当劳),Fast Food Restaurant,38.88702782,121.54398529999999,软件园路25号,Liaoning,Dalian,Shahekou
1353,のん太,Japanese Restaurant,38.91414245,121.62234609999999,,Liaoning,Dalian,Zhongshan
1354,皇城老妈,Chinese Restaurant,38.92518098,121.6556406,港湾广场,Liaoning,Dalian,Shahekou
1355,何鮮茹,Chinese Restaurant,38.91026024,121.5793398,,Liaoning,Dalian,Shahekou
1356,Big Apple,Steakhouse,38.9164609,121.6282179,,Liaoning,Dalian,Zhongshan
1357,I Cafe @ Shangri-la Dalian,Café,38.92444801,121.6490491,人民路66号,Liaoning,Dalian,Ganjingzi
1358,天天渔港,Seafood Restaurant,38.921814700000006,121.64209960000001,人民路10号,Liaoning,Dalian,Zhongshan
1359,KFC (肯德基),Fast Food Restaurant,38.96106055,121.5396513,,Liaoning,Dalian,Shahekou
1360,DUT Books & Cafe 1949,Café,38.88015585,121.52472560000001,,Liaoning,Dalian,Ganjingzi
1361,Subway (赛百味),Sandwich Place,38.91009277,121.6040712,奥林匹克广场,Liaoning,Dalian,Shahekou
1362,博多 華味鳥,Japanese Restaurant,38.92123142,121.6468565,,Liaoning,Dalian,Shahekou
1363,Unome,Café,38.91033789,121.6024289,民政街123号,Liaoning,Dalian,Zhongshan
1364,Paulaner Bräuhaus (宝莱纳餐厅),German Restaurant,38.91422179,121.63292820000001,92 Jiefang Rd | 解放路92号,Liaoning,Dalian,Shahekou
1365,秋吉串烧 あきよし,Japanese Restaurant,38.92639862,121.64153940000001,民主广场经典生活内7-15号,Liaoning,Dalian,Shahekou
1366,Xing Hai Yu Gang 星海鱼港,Seafood Restaurant,38.87461829,121.58717,Xinghai Square,Liaoning,Dalian,Xigang
1367,Blue Frog (蓝蛙),Burger Joint,38.91686464,121.6245689,129-3 Zhongshan Rd,Liaoning,Dalian,Xigang
1368,看板のない店,Japanese Restaurant,38.92075778,121.6413254,亨通ビル南口2階,Liaoning,Dalian,Zhongshan
1369,かつ庄,Japanese Restaurant,38.92421534,121.63949280000001,,Liaoning,Dalian,Xigang
1370,McDonald's (麦当劳),Fast Food Restaurant,38.87696647,121.68091709999999,滨海东路66号,Liaoning,Dalian,Xigang
1371,Cafe Copenhagen,Café,38.92406831,121.6392122,125 Tianjin Street,Liaoning,Dalian,Ganjingzi
1372,信長,Japanese Restaurant,38.92595998,121.64129750000001,,Liaoning,Dalian,Zhongshan
1373,McDonald's (麦当劳),Fast Food Restaurant,38.88702782,121.54398529999999,软件园路25号,Liaoning,Dalian,Ganjingzi
1374,KFC (肯德基),Fast Food Restaurant,38.96106055,121.5396513,,Liaoning,Dalian,Zhongshan
1375,南風,Japanese Restaurant,38.92345749,121.6468453,,Liaoning,Dalian,Xigang
1376,KFC (肯德基),Fast Food Restaurant,38.96106055,121.5396513,,Liaoning,Dalian,Xigang
1377,东海明珠美食城,Seafood Restaurant,38.92709375,121.6422222,,Liaoning,Dalian,Ganjingzi
1378,外婆家,Zhejiang Restaurant,38.91678989,121.6258781,,Liaoning,Dalian,Xigang
1379,IKEA Restaurant (宜家餐厅),Scandinavian Restaurant,38.9272817,121.6005567,西岗区香炉礁物流园区海达南街51号,Liaoning,Dalian,Xigang
1380,Pizza Hut (必胜客),Pizza Place,38.91367293,121.5822156,西安路54号,Liaoning,Dalian,Zhongshan
1381,Blue Frog (蓝蛙),Burger Joint,38.91686464,121.6245689,129-3 Zhongshan Rd,Liaoning,Dalian,Ganjingzi
1382,Xing Hai Yu Gang 星海鱼港,Seafood Restaurant,38.87461829,121.58717,Xinghai Square,Liaoning,Dalian,Ganjingzi
1383,Paulaner Bräuhaus (宝莱纳餐厅),German Restaurant,38.91422179,121.63292820000001,92 Jiefang Rd | 解放路92号,Liaoning,Dalian,Ganjingzi
1384,KFC (肯德基),Fast Food Restaurant,38.96190812,121.5395175,,Liaoning,Dalian,Zhongshan
1385,大可以又一城,Chinese Restaurant,38.89557546,121.58447029999999,,Liaoning,Dalian,Shahekou
1386,IKEA Restaurant (宜家餐厅),Scandinavian Restaurant,38.9272817,121.6005567,西岗区香炉礁物流园区海达南街51号,Liaoning,Dalian,Zhongshan
1387,Sushi Izakaya 琴,Japanese Restaurant,38.923281,121.652249,,Liaoning,Dalian,Zhongshan
1388,天天渔港,Seafood Restaurant,38.921814700000006,121.64209960000001,人民路10号,Liaoning,Dalian,Ganjingzi
1389,Time Workshop,Café,38.88769048,121.52564,Dalian University Of Technology Both Gate,Liaoning,Dalian,Shahekou
1390,回声书吧,Café,38.92883472,121.66010859999999,港湾街1号15库,Liaoning,Dalian,Zhongshan
1391,KFC (肯德基),Fast Food Restaurant,38.96190812,121.5395175,,Liaoning,Dalian,Shahekou
1392,upper kitchen,American Restaurant,38.913149,121.63930400000001,,Liaoning,Dalian,Shahekou
1393,Sushi Luck,Japanese Restaurant,38.91319269,121.6392588,,Liaoning,Dalian,Zhongshan
1394,漫咖啡 Maan Coffee,Café,38.9285042,121.65981699999999,港湾街1号15库B02号,Liaoning,Dalian,Xigang
1395,Sushi Luck,Japanese Restaurant,38.91319269,121.6392588,,Liaoning,Dalian,Ganjingzi
1396,KFC (肯德基),Fast Food Restaurant,38.91960007,121.63484150000001,,Liaoning,Dalian,Shahekou
1397,Din Tai Fung (鼎泰丰),Dumpling Restaurant,38.92249935,121.6407851,人民路8路,Liaoning,Dalian,Zhongshan
1398,Sushi Luck,Japanese Restaurant,38.91319269,121.6392588,,Liaoning,Dalian,Xigang
1399,かつ庄,Japanese Restaurant,38.92421534,121.63949280000001,,Liaoning,Dalian,Shahekou
1400,Paris Baguette 巴黎贝甜,Bakery,38.91561724,121.6274826,Mykal,Liaoning,Dalian,Zhongshan
1401,东海明珠美食城,Seafood Restaurant,38.92709375,121.6422222,,Liaoning,Dalian,Shahekou
1402,Marco Polo Trattoria,Italian Restaurant,38.91392461,121.6332685,1/F Kempinski Hotel Dalian,Liaoning,Dalian,Zhongshan
1403,鉄板焼き山田屋,Japanese Restaurant,38.92071356,121.6418601,,Liaoning,Dalian,Zhongshan
1404,Pizza Hut (必胜客),Pizza Place,38.91367293,121.5822156,西安路54号,Liaoning,Dalian,Xigang
1405,KFC (肯德基),Fast Food Restaurant,38.91960007,121.63484150000001,,Liaoning,Dalian,Xigang
1406,南風,Japanese Restaurant,38.92345749,121.6468453,,Liaoning,Dalian,Zhongshan
1407,回声书吧,Café,38.92883472,121.66010859999999,港湾街1号15库,Liaoning,Dalian,Shahekou
1408,Burger King (汉堡王),Fast Food Restaurant,38.92180828,121.6319782,,Liaoning,Dalian,Zhongshan
1409,漫咖啡 Maan Coffee,Café,38.9285042,121.65981699999999,港湾街1号15库B02号,Liaoning,Dalian,Shahekou
1410,川旺角,Chinese Restaurant,38.90784349,121.61644609999999,,Liaoning,Dalian,Xigang
1411,天天渔港,Seafood Restaurant,38.921814700000006,121.64209960000001,人民路10号,Liaoning,Dalian,Xigang
1412,McDonald's (麦当劳),Fast Food Restaurant,38.88702782,121.54398529999999,软件园路25号,Liaoning,Dalian,Zhongshan
1413,Paulaner Bräuhaus (宝莱纳餐厅),German Restaurant,38.91422179,121.63292820000001,92 Jiefang Rd | 解放路92号,Liaoning,Dalian,Xigang
1414,Time Workshop,Café,38.88769048,121.52564,Dalian University Of Technology Both Gate,Liaoning,Dalian,Xigang
1415,ABASHI CURRY (亜橋),Indian Restaurant,38.91516217,121.63924240000001,,Liaoning,Dalian,Shahekou
1416,大地春饼店,Chinese Restaurant,38.91005972,121.5821933,黄河路696号,Liaoning,Dalian,Xigang
1417,ABASHI CURRY (亜橋),Indian Restaurant,38.91516217,121.63924240000001,,Liaoning,Dalian,Xigang
1418,Paris Baguette,Bakery,38.89551706,121.5817753,和平 广场,Liaoning,Dalian,Shahekou
1419,Hakkaizen 八海膳日本料理,Japanese Restaurant,38.85882524,121.52604099999999,甘井子区高新园区火炬路3号纳米大厦1楼,Liaoning,Dalian,Shahekou
1420,Cafe Copenhagen,Café,38.92406831,121.6392122,125 Tianjin Street,Liaoning,Dalian,Shahekou
1421,ABASHI CURRY (亜橋),Indian Restaurant,38.91516217,121.63924240000001,,Liaoning,Dalian,Zhongshan
1422,Awesome coffee,Café,38.92003219,121.6555564,,Liaoning,Dalian,Xigang
1423,McDonald's (麦当劳),Fast Food Restaurant,38.89534166,121.58247469999999,高尔基路695号,Liaoning,Dalian,Shahekou
1424,皇城老妈,Chinese Restaurant,38.92518098,121.6556406,港湾广场,Liaoning,Dalian,Zhongshan
1425,信長,Japanese Restaurant,38.92595998,121.64129750000001,,Liaoning,Dalian,Xigang
1426,CHARLIE BROWN CAFE,Café,38.89676952,121.5880752,,Liaoning,Dalian,Zhongshan
1427,皇城老妈,Chinese Restaurant,38.92518098,121.6556406,港湾广场,Liaoning,Dalian,Ganjingzi
1428,Din Tai Fung (鼎泰丰),Dumpling Restaurant,38.92249935,121.6407851,人民路8路,Liaoning,Dalian,Xigang
1429,Subway (赛百味),Sandwich Place,38.92093484,121.6347858,友好广场（新世界百货一楼）,Liaoning,Dalian,Zhongshan
1430,KFC (肯德基),Fast Food Restaurant,38.96190812,121.5395175,,Liaoning,Dalian,Xigang
1431,Xing Hai Yu Gang 星海鱼港,Seafood Restaurant,38.87461829,121.58717,Xinghai Square,Liaoning,Dalian,Shahekou
1432,KFC (肯德基),Fast Food Restaurant,38.96106055,121.5396513,,Liaoning,Dalian,Ganjingzi
1433,东海明珠美食城,Seafood Restaurant,38.92709375,121.6422222,,Liaoning,Dalian,Xigang
1434,天天渔港,Seafood Restaurant,38.91525274,121.6391753,延安路41号,Liaoning,Dalian,Zhongshan
1435,博多 華味鳥,Japanese Restaurant,38.92123142,121.6468565,,Liaoning,Dalian,Zhongshan
1436,万宝海鮮舫,Seafood Restaurant,38.91299773,121.6335253,解放路108号,Liaoning,Dalian,Ganjingzi
1437,定食屋,Japanese Restaurant,38.88607328,121.53583229999998,,Liaoning,Dalian,Xigang
1438,KFC (肯德基),Fast Food Restaurant,38.88544132,121.53768889999999,,Liaoning,Dalian,Zhongshan
1439,秋吉串烧 あきよし,Japanese Restaurant,38.92639862,121.64153940000001,民主广场经典生活内7-15号,Liaoning,Dalian,Ganjingzi
1440,Olive Garden,Italian Restaurant,38.9231653,121.649672,,Liaoning,Dalian,Xigang
1441,Cafe Copenhagen,Café,38.92406831,121.6392122,125 Tianjin Street,Liaoning,Dalian,Zhongshan
1442,漫咖啡 Maan Coffee,Café,38.9285042,121.65981699999999,港湾街1号15库B02号,Liaoning,Dalian,Ganjingzi
1443,KFC (肯德基),Fast Food Restaurant,38.88544132,121.53768889999999,,Liaoning,Dalian,Shahekou
1444,秋吉串烧 あきよし,Japanese Restaurant,38.92639862,121.64153940000001,民主广场经典生活内7-15号,Liaoning,Dalian,Zhongshan
1445,Marco Polo Trattoria,Italian Restaurant,38.91392461,121.6332685,1/F Kempinski Hotel Dalian,Liaoning,Dalian,Ganjingzi
1446,Vivian's Garden,Restaurant,38.90806,121.61666000000001,,Liaoning,Dalian,Xigang
1447,Unome,Café,38.91033789,121.6024289,民政街123号,Liaoning,Dalian,Shahekou
1448,大地春饼店,Chinese Restaurant,38.91005972,121.5821933,黄河路696号,Liaoning,Dalian,Shahekou
1449,喜鼎水饺 东港店,Dumpling Restaurant,38.925276000000004,121.683003,,Liaoning,Dalian,Zhongshan
1450,KFC (肯德基),Fast Food Restaurant,38.91960007,121.63484150000001,,Liaoning,Dalian,Zhongshan
1451,正红旗海鲜烧烤大排档,Chinese Restaurant,38.917396999999994,121.63907900000001,,Liaoning,Dalian,Xigang
1452,何鮮茹,Chinese Restaurant,38.91026024,121.5793398,,Liaoning,Dalian,Xigang
1453,Blue Frog (蓝蛙),Burger Joint,38.91686464,121.6245689,129-3 Zhongshan Rd,Liaoning,Dalian,Zhongshan
1454,东贝村,Noodle House,38.907056,121.60923700000001,,Liaoning,Dalian,Xigang
1455,Paulaner Bräuhaus (宝莱纳餐厅),German Restaurant,38.91422179,121.63292820000001,92 Jiefang Rd | 解放路92号,Liaoning,Dalian,Zhongshan
1456,天天渔港,Seafood Restaurant,38.921814700000006,121.64209960000001,人民路10号,Liaoning,Dalian,Shahekou
1457,东海明珠美食城,Seafood Restaurant,38.92709375,121.6422222,,Liaoning,Dalian,Zhongshan
1458,DUT Books & Cafe 1949,Café,38.88015585,121.52472560000001,,Liaoning,Dalian,Zhongshan
1459,Hakkaizen 八海膳日本料理,Japanese Restaurant,38.85882524,121.52604099999999,甘井子区高新园区火炬路3号纳米大厦1楼,Liaoning,Dalian,Ganjingzi
1460,KFC (肯德基),Fast Food Restaurant,38.85711512,121.52274609999999,,Liaoning,Dalian,Ganjingzi
1461,McDonald's (麦当劳),Fast Food Restaurant,38.89534166,121.58247469999999,高尔基路695号,Liaoning,Dalian,Xigang
1462,KFC (肯德基),Fast Food Restaurant,38.91960007,121.63484150000001,,Liaoning,Dalian,Ganjingzi
1463,I Cafe @ Shangri-la Dalian,Café,38.92444801,121.6490491,人民路66号,Liaoning,Dalian,Shahekou
1464,IKEA Restaurant (宜家餐厅),Scandinavian Restaurant,38.9272817,121.6005567,西岗区香炉礁物流园区海达南街51号,Liaoning,Dalian,Ganjingzi
1465,Pizza Hut (必胜客),Pizza Place,38.89597627,121.5835261,高尔基路699号,Liaoning,Dalian,Xigang
1466,I Cafe @ Shangri-la Dalian,Café,38.92444801,121.6490491,人民路66号,Liaoning,Dalian,Zhongshan
1467,I Cafe @ Shangri-la Dalian,Café,38.92444801,121.6490491,人民路66号,Liaoning,Dalian,Xigang
1468,km恐龙蘑菇,Café,38.890533000000005,121.642602,中山区文化巷奋斗街,Liaoning,Dalian,Xigang
1469,Pizza Hut (必胜客),Pizza Place,38.89597627,121.5835261,高尔基路699号,Liaoning,Dalian,Shahekou
1470,味之蔵 久光百貨店 9F,Noodle House,38.91588691,121.62785020000001,,Liaoning,Dalian,Zhongshan
1471,Sushi Luck,Japanese Restaurant,38.91319269,121.6392588,,Liaoning,Dalian,Shahekou
1472,IKEA Restaurant (宜家餐厅),Scandinavian Restaurant,38.9272817,121.6005567,西岗区香炉礁物流园区海达南街51号,Liaoning,Dalian,Shahekou
1473,Subway (赛百味),Sandwich Place,38.96173403,121.53493710000001,,Liaoning,Dalian,Shahekou
1474,KFC (肯德基),Fast Food Restaurant,38.88544132,121.53768889999999,,Liaoning,Dalian,Ganjingzi
1475,中心屋,Japanese Restaurant,38.91485091,121.6402281,中山区柳林街16—18号,Liaoning,Dalian,Zhongshan
1476,喜鼎水饺 东港店,Dumpling Restaurant,38.925276000000004,121.683003,,Liaoning,Dalian,Shahekou
1477,KFC (肯德基),Fast Food Restaurant,38.85711512,121.52274609999999,,Liaoning,Dalian,Shahekou
1478,Din Tai Fung (鼎泰丰),Dumpling Restaurant,38.92249935,121.6407851,人民路8路,Liaoning,Dalian,Shahekou
1479,Subway (赛百味),Sandwich Place,38.96173403,121.53493710000001,,Liaoning,Dalian,Xigang
1480,かつ庄,Japanese Restaurant,38.92421534,121.63949280000001,,Liaoning,Dalian,Zhongshan
1481,KFC (肯德基),Fast Food Restaurant,38.88544132,121.53768889999999,,Liaoning,Dalian,Xigang
1482,日本料理 桂馬,Japanese Restaurant,38.92634597,121.6408853,,Liaoning,Dalian,Zhongshan
1483,Subway (赛百味),Sandwich Place,38.96173403,121.53493710000001,,Liaoning,Dalian,Zhongshan
1484,喜鼎水饺 东港店,Dumpling Restaurant,38.925276000000004,121.683003,,Liaoning,Dalian,Xigang
1485,Subway (赛百味),Sandwich Place,38.91009277,121.6040712,奥林匹克广场,Liaoning,Dalian,Ganjingzi
1486,回声书吧,Café,38.92883472,121.66010859999999,港湾街1号15库,Liaoning,Dalian,Ganjingzi
1487,Pizza Hut (必胜客),Pizza Place,38.91367293,121.5822156,西安路54号,Liaoning,Dalian,Shahekou
1488,Awesome coffee,Café,38.92003219,121.6555564,,Liaoning,Dalian,Ganjingzi
1489,upper kitchen,American Restaurant,38.913149,121.63930400000001,,Liaoning,Dalian,Xigang
1490,万宝海鮮舫,Seafood Restaurant,38.91299773,121.6335253,解放路108号,Liaoning,Dalian,Zhongshan
1491,皇城老妈,Chinese Restaurant,38.92518098,121.6556406,港湾广场,Liaoning,Dalian,Xigang
1492,漫咖啡 Maan Coffee,Café,38.9285042,121.65981699999999,港湾街1号15库B02号,Liaoning,Dalian,Zhongshan
1493,Awesome coffee,Café,38.92003219,121.6555564,,Liaoning,Dalian,Shahekou
1494,KFC (肯德基),Fast Food Restaurant,38.85711512,121.52274609999999,,Liaoning,Dalian,Zhongshan
1495,日本料理 桂馬,Japanese Restaurant,38.92634597,121.6408853,,Liaoning,Dalian,Xigang
1496,Olive Garden,Italian Restaurant,38.9231653,121.649672,,Liaoning,Dalian,Ganjingzi
1497,KFC (肯德基),Fast Food Restaurant,38.85711512,121.52274609999999,,Liaoning,Dalian,Xigang
1498,Olive Garden,Italian Restaurant,38.9231653,121.649672,,Liaoning,Dalian,Shahekou
1499,万宝海鮮舫,Seafood Restaurant,38.91299773,121.6335253,解放路108号,Liaoning,Dalian,Shahekou
1500,佳客来,Steakhouse,26.00716565,119.4539013,马尾区君竹路47号 马尾步行街西提丽府广场,Fujian,Fuzhou,Changle
1501,圣杰士 Jazzy Pizza,Pizza Place,25.95900781,119.49461740000001,宝龙城市广场三楼,Fujian,Fuzhou,Changle
1502,Pizza Hut (必胜客),Pizza Place,26.05537239,119.33765679999999,鳌峰路金融街8号 万达广场2层01商铺,Fujian,Fuzhou,Cangshan
1503,Burger King (汉堡王),Fast Food Restaurant,26.019222,119.40388300000001,马尾区江滨东大道名城中心北区1楼1号门,Fujian,Fuzhou,Mawei District
1504,McDonald's (麦当劳),Fast Food Restaurant,26.10521024,119.3013047,"Hualin Lu, Fuzhou, Fujian, China",Fujian,Fuzhou,Taijiang District
1505,KFC (肯德基),Fast Food Restaurant,26.11645868,119.31483349999999,仓山区城门镇胪雷村 福州火车南站内,Fujian,Fuzhou,Jin'an
1506,貴族仕家牛排 Noble Family Steak,Steakhouse,26.060454999999997,119.315398,台江,Fujian,Fuzhou,Taijiang District
1507,McDonald's (麦当劳),Fast Food Restaurant,25.72235189,119.3786775,小桥街环球商业中心 一、二层,Fujian,Fuzhou,Fuqing
1508,江记火锅,Hotpot Restaurant,26.033686,119.293343,仓山区鹭岭路洋恰新村5-8号店,Fujian,Fuzhou,Cangshan
1509,闽清糟鴨,Truck Stop,26.149078,119.14118,,Fujian,Fuzhou,Minhou County
1510,亿佳基江夏餐厅,Fast Food Restaurant,26.07109127,119.19808190000002,,Fujian,Fuzhou,Taijiang District
1511,新紫阳大酒店,Chinese Restaurant,26.081482,119.327124,晋安区福新路127号,Fujian,Fuzhou,Taijiang District
1512,聚春园大酒店,Chinese Restaurant,26.08950244,119.2947923,东街2号,Fujian,Fuzhou,Gulou District
1513,正新鸡排,Fried Chicken Joint,25.508814,119.78991,158-5 M. Cuiyuan Rd.,Fujian,Fuzhou,Pingtan
1514,绽放 Stage,Buffet,26.07162891,119.30169040000001,4/F Intercontinental Hotel,Fujian,Fuzhou,Taijiang District
1515,两岸咖啡,Café,26.21240425,119.53439329999999,,Fujian,Fuzhou,Lianjiang County
1516,KFC (肯德基),Fast Food Restaurant,26.08358231,119.32225259999998,长乐北路,Fujian,Fuzhou,Taijiang District
1517,宣和苑,Chinese Restaurant,26.09033433,119.2753351,华侨新村32号,Fujian,Fuzhou,Taijiang District
1518,华侨会所,Food,26.09154302,119.2765128,,Fujian,Fuzhou,Gulou District
1519,枫之子 Son of Maple,Sushi Restaurant,25.95194,119.4954,,Fujian,Fuzhou,Changle
1520,Pizza Hut (必胜客),Pizza Place,25.71675873,119.34458159999998,,Fujian,Fuzhou,Fuqing
1521,高橋郎扁肉,Chinese Restaurant,26.473962,119.594329,,Fujian,Fuzhou,Luoyuan
1522,Mann Coffee,Café,26.13372047,119.3134155,五四北路枫丹白鹭门口,Fujian,Fuzhou,Jin'an
1523,KFC (肯德基),Fast Food Restaurant,26.08358231,119.32225259999998,长乐北路,Fujian,Fuzhou,Mawei District
1524,佳客来,Steakhouse,26.00716565,119.4539013,马尾区君竹路47号 马尾步行街西提丽府广场,Fujian,Fuzhou,Mawei District
1525,食鼎记私房菜,Chinese Restaurant,26.083691199999997,119.29443490000001,鼓楼区吉庇路61号,Fujian,Fuzhou,Gulou District
1526,吉野家,Japanese Restaurant,26.10087483,119.3016564,鼓楼区五四路162号华城国际大厦,Fujian,Fuzhou,Taijiang District
1527,阳光美食惠,Chinese Restaurant,26.141745,119.139656,,Fujian,Fuzhou,Minhou County
1528,台湾柠檬香茅火锅,Chinese Restaurant,25.96014533,119.4954898,,Fujian,Fuzhou,Changle
1529,KFC (肯德基),Fast Food Restaurant,26.10039793,119.3019748,五四路帝豪国际大厦一楼,Fujian,Fuzhou,Taijiang District
1530,McDonald's (麦当劳),Fast Food Restaurant,26.03706117,119.31295039999999,仓山区上三路85号 学生街城市广场,Fujian,Fuzhou,Taijiang District
1531,摩德林卡,Café,26.037779999999998,119.309297,首山路永輝超市旁,Fujian,Fuzhou,Cangshan
1532,McDonald's (麦当劳),Fast Food Restaurant,25.98854178,119.38452279999998,仓山区城门镇胪雷村东侧 福州火车南站2层候车亭,Fujian,Fuzhou,Mawei District
1533,食鼎记私房菜,Chinese Restaurant,26.083691199999997,119.29443490000001,鼓楼区吉庇路61号,Fujian,Fuzhou,Cangshan
1534,McDonald's (麦当劳),Fast Food Restaurant,25.98854178,119.38452279999998,仓山区城门镇胪雷村东侧 福州火车南站2层候车亭,Fujian,Fuzhou,Cangshan
1535,McDonald's (麦当劳),Fast Food Restaurant,26.24953773,119.5447685,福州罗长高速公路连江服务区B区,Fujian,Fuzhou,Lianjiang County
1536,老福州(斗东店),Fujian Restaurant,26.073771,119.30349199999999,,Fujian,Fuzhou,Taijiang District
1537,McDonald's (麦当劳),Fast Food Restaurant,26.06984958,119.30732900000001,台江区利嘉路利嘉电子城 沃尔玛购物广场,Fujian,Fuzhou,Taijiang District
1538,西海岸,Seafood Restaurant,26.13170462,119.15070259999999,鼓楼区六一中路115号,Fujian,Fuzhou,Minhou County
1539,Burger King (汉堡王),Fast Food Restaurant,26.07050385,119.3077034,台江区新港街道五一中路169号利嘉城二期16#楼1层02店面,Fujian,Fuzhou,Taijiang District
1540,永和鱼丸,Chinese Restaurant,26.08698749,119.29180819999999,南后街89号,Fujian,Fuzhou,Taijiang District
1541,香缇咖啡,Café,25.72306118,119.37945990000001,,Fujian,Fuzhou,Fuqing
1542,五谷鱼粉,Ramen Restaurant,25.958045000000002,119.50481200000002,长乐市,Fujian,Fuzhou,Changle
1543,圣杰士 Jazzy Pizza,Pizza Place,25.95900781,119.49461740000001,宝龙城市广场三楼,Fujian,Fuzhou,Mawei District
1544,McDonald's (麦当劳),Fast Food Restaurant,26.0555189,119.3386295,台江区鳌峰路金融街8号万达广场,Fujian,Fuzhou,Cangshan
1545,McDonald's (麦当劳),Fast Food Restaurant,26.06159955,119.2905432,台江区工业路193号 福州宝龙城市广场,Fujian,Fuzhou,Cangshan
1546,KFC (肯德基),Fast Food Restaurant,26.08358231,119.32225259999998,长乐北路,Fujian,Fuzhou,Gulou District
1547,汉拿山韩国烤肉,Korean Restaurant,26.055687,119.337521,万达广场三楼,Fujian,Fuzhou,Gulou District
1548,Pizza Hut (必胜客),Pizza Place,26.01842899,119.396349,江滨东大道,Fujian,Fuzhou,Mawei District
1549,McDonald's (麦当劳),Fast Food Restaurant,25.98854178,119.38452279999998,仓山区城门镇胪雷村东侧 福州火车南站2层候车亭,Fujian,Fuzhou,Changle
1550,梅邑会馆,Chinese Restaurant,26.050814000000003,119.294881,,Fujian,Fuzhou,Taijiang District
1551,平潭8090coffee,Café,25.49611404,119.7913304,平潭县西航路西和园隔壁,Fujian,Fuzhou,Pingtan
1552,揽季海物会 Colourful Seafood,Seafood Restaurant,25.99255905,119.4655405,马尾区青洲路66号 水产市场2楼,Fujian,Fuzhou,Changle
1553,85度C,Bakery,26.09032766,119.2927932,鼓楼区省府路50号,Fujian,Fuzhou,Gulou District
1554,McDonald's (麦当劳),Fast Food Restaurant,26.07409208,119.3314362,福马路199号大华都购物广场,Fujian,Fuzhou,Mawei District
1555,二回熟,Hotpot Restaurant,26.056047,119.337595,万达广场3楼,Fujian,Fuzhou,Cangshan
1556,鹤上兄弟檊面店,Chinese Restaurant,25.95576242,119.5512358,,Fujian,Fuzhou,Changle
1557,McDonald's (麦当劳),Fast Food Restaurant,26.10521024,119.3013047,"Hualin Lu, Fuzhou, Fujian, China",Fujian,Fuzhou,Jin'an
1558,吉野家,Japanese Restaurant,26.10087483,119.3016564,鼓楼区五四路162号华城国际大厦,Fujian,Fuzhou,Jin'an
1559,Burger King (汉堡王),Fast Food Restaurant,26.019222,119.40388300000001,马尾区江滨东大道名城中心北区1楼1号门,Fujian,Fuzhou,Changle
1560,芦际潭森林饭庄,Chinese Restaurant,25.997522,119.51354199999999,,Fujian,Fuzhou,Changle
1561,宣和苑,Chinese Restaurant,26.09033433,119.2753351,华侨新村32号,Fujian,Fuzhou,Cangshan
1562,麦劲道棒面,Noodle House,25.510065,119.789543,37 Pudong Rd.,Fujian,Fuzhou,Pingtan
1563,长乐新清清大酒店,Chinese Restaurant,25.96742079,119.50041840000002,,Fujian,Fuzhou,Changle
1564,Las Ventas,Eastern European Restaurant,25.491309,119.7907,,Fujian,Fuzhou,Pingtan
1565,澳门豆捞,Chinese Restaurant,27.961472999999998,116.34040800000001,,Jiangxi,Fuzhou,Linchuan
1566,食鼎府,Chinese Restaurant,25.95594,119.50416299999999,,Fujian,Fuzhou,Changle
1567,KFC (肯德基),Fast Food Restaurant,26.11645868,119.31483349999999,仓山区城门镇胪雷村 福州火车南站内,Fujian,Fuzhou,Gulou District
1568,农家乐,Chinese Restaurant,26.0240612,119.3350449,,Fujian,Fuzhou,Cangshan
1569,金妈妈韩国烤肉,Korean Restaurant,26.079439,119.27036399999999,鼓楼区西洪路518号恩特楼1楼,Fujian,Fuzhou,Gulou District
1570,Pizza Hut (必胜客),Pizza Place,26.08405004,119.29537659999998,鼓楼区八一七北路68号二层,Fujian,Fuzhou,Gulou District
1571,酒仙饭庄,Chinese Restaurant,25.96513846,119.49976699999999,,Fujian,Fuzhou,Changle
1572,新聚福园大酒楼,Chinese Restaurant,25.98578158,119.4537426,马尾区罗星西路1号汇特城,Fujian,Fuzhou,Changle
1573,Jazzy Pizza,Pizza Place,26.10497183,119.30132169999999,"Wusi Lu, Fuzhou, Fujian, China",Fujian,Fuzhou,Cangshan
1574,阿咪大排档,Seafood Restaurant,26.066933,119.33236799999999,台江区长福路,Fujian,Fuzhou,Mawei District
1575,陈家庄,Fujian Restaurant,26.079489000000002,119.267748,鼓楼区西洪路518号,Fujian,Fuzhou,Gulou District
1576,紅錦江大排檔,Fujian Restaurant,26.212865,119.53979,,Fujian,Fuzhou,Lianjiang County
1577,麒麟荣誉国际酒店,Chinese Restaurant,25.50144917,119.74255020000001,,Fujian,Fuzhou,Pingtan
1578,万州碳烤全鱼,Chinese Restaurant,25.964991,119.512515,,Fujian,Fuzhou,Changle
1579,香港轩,Chinese Restaurant,25.719182999999997,119.34837900000001,,Fujian,Fuzhou,Fuqing
1580,Ud Caffe,Café,25.49401709,119.77495729999998,海坛名街,Fujian,Fuzhou,Pingtan
1581,McDonald's (麦当劳),Fast Food Restaurant,25.98854178,119.38452279999998,仓山区城门镇胪雷村东侧 福州火车南站2层候车亭,Fujian,Fuzhou,Taijiang District
1582,四路鑫酒家,Chinese Restaurant,25.969735,119.505802,长乐市朝阳路,Fujian,Fuzhou,Changle
1583,西贝莜面村,Shaanxi Restaurant,26.09371647,119.33158259999999,晋安区东二环泰和广场L516,Fujian,Fuzhou,Mawei District
1584,McDonald's (麦当劳),Fast Food Restaurant,26.11307658,119.31345459999999,华林路373号顺达大厦,Fujian,Fuzhou,Gulou District
1585,黄鹤楼,Chinese Restaurant,26.058819,119.310419,台江区元洪城5楼,Fujian,Fuzhou,Taijiang District
1586,鼓岭麦当劳 McDonald,Fast Food Restaurant,26.092493,119.39244599999999,,Fujian,Fuzhou,Mawei District
1587,Miyabi | 雅 @ Sheraton Fuzhou,Japanese Restaurant,26.02718444,119.367071,,Fujian,Fuzhou,Cangshan
1588,德克士,Fast Food Restaurant,25.50857971,119.790765,平潭县豪香购物广场正对面,Fujian,Fuzhou,Pingtan
1589,88炭烤活鱼,Chinese Restaurant,25.965557999999998,119.509003,,Fujian,Fuzhou,Changle
1590,McDonald's (麦当劳),Fast Food Restaurant,26.138957,119.32536,,Fujian,Fuzhou,Jin'an
1591,阳光海岸,Seafood Restaurant,25.608014,119.44378999999999,,Fujian,Fuzhou,Fuqing
1592,黄鹤楼,Chinese Restaurant,26.059763,119.30121299999999,台江区学军路 群升国际B2号楼二层,Fujian,Fuzhou,Taijiang District
1593,台湾柠檬香茅火锅,Chinese Restaurant,25.96014533,119.4954898,,Fujian,Fuzhou,Mawei District
1594,KFC (肯德基),Fast Food Restaurant,26.21239643,119.54239720000001,敖江路,Fujian,Fuzhou,Lianjiang County
1595,海坛特色小吃,Restaurant,25.499975,119.80388300000001,,Fujian,Fuzhou,Pingtan
1596,Pizza Hut (必胜客),Pizza Place,26.05537239,119.33765679999999,鳌峰路金融街8号 万达广场2层01商铺,Fujian,Fuzhou,Taijiang District
1597,豪运来大排档,Chinese Restaurant,25.505216,119.79724399999999,,Fujian,Fuzhou,Pingtan
1598,85度C,Bakery,26.07180946,119.3076807,五一中路151号 华能大厦四季如春大酒店一层,Fujian,Fuzhou,Taijiang District
1599,吉野家,Japanese Restaurant,26.10087483,119.3016564,鼓楼区五四路162号华城国际大厦,Fujian,Fuzhou,Gulou District
1600,McDonald's (麦当劳),Fast Food Restaurant,26.06984958,119.30732900000001,台江区利嘉路利嘉电子城 沃尔玛购物广场,Fujian,Fuzhou,Cangshan
1601,McDonald's (麦当劳),Fast Food Restaurant,26.03706117,119.31295039999999,仓山区上三路85号 学生街城市广场,Fujian,Fuzhou,Cangshan
1602,贵族餐厅鹤安店,Café,25.961076000000002,119.50383500000001,,Fujian,Fuzhou,Changle
1603,榮譽大酒樓,Restaurant,26.10130198,119.27054960000001,,Fujian,Fuzhou,Gulou District
1604,McDonald's (麦当劳),Fast Food Restaurant,26.0555189,119.3386295,台江区鳌峰路金融街8号万达广场,Fujian,Fuzhou,Taijiang District
1605,山盛yamamori,Japanese Restaurant,26.139488,119.325652,,Fujian,Fuzhou,Jin'an
1606,金峰牛排,Steakhouse,26.055135999999997,119.316052,台江区老药洲街,Fujian,Fuzhou,Taijiang District
1607,Pizza Hut (必胜客),Pizza Place,26.01842899,119.396349,江滨东大道,Fujian,Fuzhou,Changle
1608,农家庄,Fujian Restaurant,25.502375,119.791669,130-6 E. Haitan Rd.,Fujian,Fuzhou,Pingtan
1609,KFC (肯德基),Fast Food Restaurant,25.721334,119.36471599999999,,Fujian,Fuzhou,Fuqing
1610,舒友茶餐厅(泰禾广场店),Cantonese Restaurant,26.140051999999997,119.325833,,Fujian,Fuzhou,Jin'an
1611,汉拿山韩国烤肉,Korean Restaurant,26.055687,119.337521,万达广场三楼,Fujian,Fuzhou,Taijiang District
1612,亿佳基江夏餐厅,Fast Food Restaurant,26.07109127,119.19808190000002,,Fujian,Fuzhou,Cangshan
1613,赤炸风云,Fast Food Restaurant,25.725865,119.379802,,Fujian,Fuzhou,Fuqing
1614,同利肉燕老铺,Snack Place,26.082407500000002,119.29177990000001,南后街,Fujian,Fuzhou,Gulou District
1615,莲海真味,Chinese Restaurant,25.49539285,119.78870719999999,海坛名街 20号楼123,Fujian,Fuzhou,Pingtan
1616,阿咪大排档,Seafood Restaurant,26.066933,119.33236799999999,台江区长福路,Fujian,Fuzhou,Cangshan
1617,食鼎记私房菜,Chinese Restaurant,26.083691199999997,119.29443490000001,鼓楼区吉庇路61号,Fujian,Fuzhou,Taijiang District
1618,漳港龙宫酒楼,Chinese Restaurant,25.920214,119.624702,漳港商行街,Fujian,Fuzhou,Changle
1619,永和鱼丸,Chinese Restaurant,26.08698749,119.29180819999999,南后街89号,Fujian,Fuzhou,Cangshan
1620,KFC (肯德基),Fast Food Restaurant,26.08358231,119.32225259999998,长乐北路,Fujian,Fuzhou,Cangshan
1621,日日鲜海鲜楼,Fujian Restaurant,25.718854999999998,119.36108899999999,,Fujian,Fuzhou,Fuqing
1622,Jazzy Pizza,Pizza Place,25.72189035,119.362376,Fuqin Fuzhou,Fujian,Fuzhou,Fuqing
1623,Jazzy Pizza,Pizza Place,26.10497183,119.30132169999999,"Wusi Lu, Fuzhou, Fujian, China",Fujian,Fuzhou,Taijiang District
1624,Ginkawa,Japanese Restaurant,25.715385,119.33971399999999,,Fujian,Fuzhou,Fuqing
1625,达道食府,Fujian Restaurant,26.059151999999997,119.312909,,Fujian,Fuzhou,Taijiang District
1626,佳尝宴,Chinese Restaurant,26.145899,119.14173999999998,,Fujian,Fuzhou,Minhou County
1627,McDonald's (麦当劳),Fast Food Restaurant,26.10521024,119.3013047,"Hualin Lu, Fuzhou, Fujian, China",Fujian,Fuzhou,Gulou District
1628,McDonald's (麦当劳),Fast Food Restaurant,26.11307658,119.31345459999999,华林路373号顺达大厦,Fujian,Fuzhou,Jin'an
1629,Pizza Hut (必胜客),Pizza Place,26.05537239,119.33765679999999,鳌峰路金融街8号 万达广场2层01商铺,Fujian,Fuzhou,Mawei District
1630,二回熟,Hotpot Restaurant,26.056047,119.337595,万达广场3楼,Fujian,Fuzhou,Taijiang District
1631,易斯登 eastern,Japanese Restaurant,26.07509862,119.28155659999999,乌山西路 69号 阳光荣域 B区,Fujian,Fuzhou,Gulou District
1632,德克士罗源餐厅,Fast Food Restaurant,26.48960816,119.54349429999999,司前路1号,Fujian,Fuzhou,Luoyuan
1633,汉拿山韩国烤肉,Korean Restaurant,26.055687,119.337521,万达广场三楼,Fujian,Fuzhou,Cangshan
1634,Miyabi | 雅 @ Sheraton Fuzhou,Japanese Restaurant,26.02718444,119.367071,,Fujian,Fuzhou,Taijiang District
1635,阿咪大排档,Seafood Restaurant,26.066933,119.33236799999999,台江区长福路,Fujian,Fuzhou,Taijiang District
1636,揽季海物会 Colourful Seafood,Seafood Restaurant,25.99255905,119.4655405,马尾区青洲路66号 水产市场2楼,Fujian,Fuzhou,Mawei District
1637,KFC (肯德基),Fast Food Restaurant,25.961687,119.51698300000001,步行街店,Fujian,Fuzhou,Mawei District
1638,McDonald's (麦当劳),Fast Food Restaurant,26.07176668,119.2999432,,Fujian,Fuzhou,Taijiang District
1639,Jazzy Pizza,Pizza Place,26.10497183,119.30132169999999,"Wusi Lu, Fuzhou, Fujian, China",Fujian,Fuzhou,Gulou District
1640,Dico's,Fast Food Restaurant,26.0601902,119.3142014,,Fujian,Fuzhou,Taijiang District
1641,85度C,Bakery,26.09032766,119.2927932,鼓楼区省府路50号,Fujian,Fuzhou,Taijiang District
1642,Subway (赛百味),Sandwich Place,26.25829063,119.3960996,,Fujian,Fuzhou,Jin'an
1643,阿国海鲜火锅(万侯园店),Hotpot Restaurant,26.050273999999998,119.300426,台江区万侯园1座蓝钻街31号,Fujian,Fuzhou,Cangshan
1644,Pizza Hut (必胜客),Pizza Place,26.03794363,119.26848429999998,仓山区金山街道浦上大道272号 福州仓山万达广场A5＃一二层,Fujian,Fuzhou,Cangshan
1645,KFC (肯德基),Fast Food Restaurant,27.981189,116.350296,步步高店,Jiangxi,Fuzhou,Linchuan
1646,永和鱼丸,Chinese Restaurant,26.08698749,119.29180819999999,南后街89号,Fujian,Fuzhou,Gulou District
1647,田当里,Chinese Restaurant,26.134204999999998,119.13323999999999,,Fujian,Fuzhou,Minhou County
1648,McDonald's Drive-in,Fast Food Restaurant,26.24921989,119.5448456,,Fujian,Fuzhou,Lianjiang County
1649,新华美大酒楼,Chinese Restaurant,26.069399,119.329228,,Fujian,Fuzhou,Taijiang District
